,name,address,postcode,latitude,longitude
0,Autohaus Ristow,"Soltauer Straße 10, 13509 Berlin",13509,52.57974,13.30379
1,Autohaus Astor,"Karolinenstraße 1F, 13507 Berlin",13507,52.59228,13.28224
4,Autohaus Dinnebier,"Holzhauser Straße 10-12, 13509 Berlin",13509,52.57719,13.29661
5,Autohaus Haupt,"Ruppiner Chaussee 377, 13503 Berlin",13503,52.62336,13.23187
6,Autohaus Dinnebier,"Holzhauser Straße 10, 13509 Berlin",13509,52.57691,13.29654
9,Autohaus Dinnebier,"Oraniendamm 49-50, 13469 Berlin",13469,52.61032,13.31971
11,Autohaus Schneider,"Wittestraße 10-15, 13509 Berlin",13509,52.5773,13.3121
14,Autohaus Phillip,"Wittestraße 26A, 13509 Berlin",13509,52.57983,13.29874
15,Autohaus Zacharias,"Nordlichtstraße 12, 13405 Berlin",13405,52.56364,13.32419
16,Autohaus Dinnebier,"Holzhauser Straße 10, 13509 Berlin",13509,52.57691,13.29654
18,Autohaus Dinnebier Reinickendorf,"Holzhauser Straße 164, 13509 Berlin",13509,52.58614,13.31583
19,Atf Autohaus Frohnau,"Hohefeldstraße 31-33, 13467 Berlin",13467,52.62312,13.3029
0,Autohaus Residenzstrasse,"Residenzstraße 63-64, 13409 Berlin",13409,52.56154,13.3673
1,Heinersdorf Autohaus,"Romain-Rolland-Straße 67-69, 13089 Berlin",13089,52.56858,13.43889
2,Autohaus Roelckestrasse,"Roelckestraße 107, 13088 Berlin",13088,52.56397,13.46041
3,Autohaus Kramm,"Hauptstraße 24, 13127 Berlin",13127,52.60893,13.43355
4,Autohaus Wulf,"Alt-Blankenburg 71B, 13129 Berlin",13129,52.59447,13.46121
5,Autohaus Nordost Berlin,"Hansastraße 219, 13051 Berlin",13051,52.56003,13.49546
6,Autohaus Vogel,"Ollenhauerstraße 35, 13403 Berlin",13403,52.57045,13.33064
7,Autohaus Grzenkowski,"Hauptstraße 16, 13127 Berlin",13127,52.60604,13.43275
8,Autohaus King,"Rennbahnstraße 80, 13086 Berlin",13086,52.56372,13.45077
9,Autohaus Heinze,"Alt-Karow 61, 13125 Berlin",13125,52.6095,13.48127
10,Autohaus Wulf,"Alt-Blankenburg 71B, 13129 Berlin",13129,52.59447,13.46121
11,Autohaus Müller,"Dorfstraße 14, 13059 Berlin",13059,52.5722,13.52096
12,Autohaus Koschnick,"Gehringstraße 17, 13088 Berlin",13088,52.56255,13.46423
13,Autohaus Koschnick,"Gehringstraße 17-18, 13088 Berlin",13088,52.56247,13.46229
14,Autohaus Landtag,"Eichhorster Weg 87, 13435 Berlin",13435,52.60211,13.3367
15,Autohaus Adnan,"Ollenhauerstraße 15-16, 13403 Berlin",13403,52.56655,13.32911
16,Autohaus Dinnebier,"Ollenhauerstraße 15, 13403 Berlin",13403,52.56675,13.32934
17,Autohaus Hinz,"Hauptstraße 167, 13158 Berlin",13158,52.6018,13.38005
18,Autohaus Koenig,"Schönerlinder Straße 1, 13127 Berlin",13127,52.61276,13.43305
19,Autohaus Koschnick,"Gehringstraße 17, 13088 Berlin",13088,52.56255,13.46423
20,Autohaus Kramm,"Hauptstraße 24, 13127 Berlin",13127,52.60893,13.43355
21,Fiat Autohaus,"Ollenhauerstraße, 13403 Berlin",13403,52.57146,13.32985
22,Autohaus Koenig,"Schönerlinder Straße 1, 13127 Berlin",13127,52.61276,13.43305
23,Autohaus Nemitz,"Kreuzstraße 11, 13187 Berlin",13187,52.56784,13.39745
24,Autohaus A114,"Pasewalker Straße 114, 13127 Berlin",13127,52.58487,13.4293
25,Autohaus Lange,"Provinzstraße 16, 13409 Berlin",13409,52.56242,13.37817
26,Autohaus Löhr,"Tollerstraße 29, 13158 Berlin",13158,52.58543,13.36899
27,Autohaus Kramm,"Hauptstraße 24, 13127 Berlin",13127,52.60893,13.43355
28,Opel Autohaus Hinz,"Hauptstraße 167, 13158 Berlin",13158,52.6018,13.38005
29,Ahk Autohaus Koppe,"Schönerlinder Straße 1, 13127 Berlin",13127,52.61276,13.43305
30,Autohaus Am Nordring,"Hauptstraße 71, 13127 Berlin",13127,52.60343,13.43194
31,Autohaus Günter Müller,"Berliner Straße 17, 13127 Berlin",13127,52.59997,13.43176
32,Bernd Quinque Autohaus,"Berliner Straße 29, 13127 Berlin",13127,52.60186,13.43179
33,Autohaus Jörg Wursach,"Schildower Straße 11, 13159 Berlin",13159,52.61992,13.38853
34,Bernd Quinque Autohaus,"Berliner Straße 29, 13127 Berlin",13127,52.60186,13.43179
35,Bernd Quinque Autohaus,"Berliner Straße 29, 13127 Berlin",13127,52.60186,13.43179
36,Autohaus Thomas Kapinsky,"Blankenburger Straße 95, 13089 Berlin",13089,52.57327,13.44399
37,Autohaus Thomas Kapinsky,"Blankenburger Straße 95, 13089 Berlin",13089,52.57327,13.44399
38,Autohaus Thomas Kapinsky,"Blankenburger Straße 95, 13089 Berlin",13089,52.57327,13.44399
39,Autohaus Grzenkowski Inhaber Dirk Grzenkowski,"Hauptstraße 16, 13127 Berlin",13127,52.60604,13.43275
40,Autohaus Thomas Kapinsky,"Blankenburger Straße 95, 13089 Berlin",13089,52.57327,13.44399
41,Autohaus Kirsten Inhaber Kay Pechlitza,"Hauptstraße 73, 13127 Berlin",13127,52.60275,13.43186
42,Autohaus Schulze E.K.Inhaber,"Dorfstraße 14, 13059 Berlin",13059,52.5722,13.52096
43,Autohaus Auto-Centrale Mathias Krtschil,"Neukirchstraße, 13089 Berlin",13089,52.57407,13.43045
44,Autohaus Schubbel Und Kfz Meisterwerkstatt,"Roedernallee 56, 13437 Berlin",13437,52.58775,13.34053
45,Autohaus Wegener Berlin C/O Filiale Wittenau,"Oranienburger Straße 180, 13437 Berlin",13437,52.59893,13.33198
46,Autohaus in Karow Inh.: Alexander Dux,"Blankenburger Chaussee 67, 13125 Berlin",13125,52.60416,13.47509
47,Autohaus in Karow Inh.: Alexander Dux,"Blankenburger Chaussee 67, 13125 Berlin",13125,52.60416,13.47509
48,Autohaus in Karow Inh.: Alexander Dux,"Blankenburger Chaussee 67, 13125 Berlin",13125,52.60416,13.47509
2,Autohaus am Nordring,"Nordring 6, 12681 Berlin",12681,52.56259,13.54977
0,Autohaus Berolina,"Charlottenburger Chaussee 3, 13597 Berlin",13597,52.52484,13.24438
1,Autohaus Berolina,"Cicerostraße 34, 10709 Berlin",10709,52.49063,13.30122
2,Autohaus Köhrich,"Bismarckstraße 53-54, 10627 Berlin",10627,52.51149,13.30321
3,Autohaus Berolina,"Brunsbütteler Damm 50, 13581 Berlin",13581,52.53458,13.18933
4,Autohaus Berolina,"Cicerostraße 34, 10709 Berlin",10709,52.49063,13.30122
5,Autohaus Günther - Berlin,"Salzufer 8, 10587 Berlin",10587,52.51658,13.32717
6,Autohaus Arnhölter,"Brunsbütteler Damm 82, 13581 Berlin",13581,52.53439,13.18587
7,Autohaus Dinnebier,"Karlsruher Straße 25-27, 10711 Berlin",10711,52.49943,13.29417
8,Autohaus Dinnebier,"Brunsbütteler Damm 192/194, 13581 Berlin",13581,52.53388,13.17
9,Autohaus Forstreuter,"Altonaer Straße 66-68, 13581 Berlin",13581,52.53254,13.1871
10,Autohaus Berolina,"Charlottenburger Chaussee 3, 13597 Berlin",13597,52.52483,13.24442
11,Autohaus Berolina,"Am Juliusturm 40-42, 13599 Berlin",13599,52.53729,13.2199
12,Autohaus Dinnebier,"Knobelsdorffstraße 63, 14059 Berlin",14059,52.51283,13.28725
13,Autohaus Günther - Berlin,"Salzufer 8, 10587 Berlin",10587,52.51658,13.32717
14,Autohaus Arnhölter,"Brunsbütteler Damm 82, 13581 Berlin",13581,52.53439,13.18587
15,Autohaus Dinnebier,"Karlsruher Straße 25-27, 10711 Berlin",10711,52.49943,13.29417
16,Autohaus Berolina,"Brunsbütteler Damm 50, 13581 Berlin",13581,52.53458,13.18933
17,Autohaus Arnhoelter,"Brunsbütteler Damm 90, 13581 Berlin",13581,52.53442,13.18476
18,Autohaus Berolina,"Cicerostraße 34, 10709 Berlin",10709,52.49063,13.30122
19,Autohaus Berolina,"Cicerostraße 34, 10709 Berlin",10709,52.49063,13.30122
20,Autohaus Wegener Berlin,"Am Juliusturm 54-60, 13599 Berlin",13599,52.53862,13.21514
21,Autohaus Dinnebier,"Brunsbütteler Damm 192/194, 13581 Berlin",13581,52.53388,13.17
22,Autohaus Meklenborg Vertr.,"Nonnendammallee 10, 13599 Berlin",13599,52.53866,13.23657
23,Autohaus C. Ehrl,"Heerstraße 350, 13593 Berlin",13593,52.51768,13.17534
24,Autohaus Meklenborg Vertriebs,"Nonnendammallee 10, 13599 Berlin",13599,52.53866,13.23657
25,Autohaus Rosen-Stock,"Kaiserin-Augusta-Allee 16, 10553 Berlin",10553,52.52597,13.32116
26,Autohaus Meklenborg Vertr.,"Nonnendammallee 10, 13599 Berlin",13599,52.53866,13.23657
27,Volvo Autohaus Krauthahn,"Nestorstraße, 10709 Berlin",10709,52.49124,13.29902
28,VW Audi Autohaus Pusch,"Falkensteiner Straße, 14199 Berlin",14199,52.48004,13.31117
29,Autohaus König Gewerbezentrum Berlin-Spandau,"Am Juliusturm 9, 13599 Berlin",13599,52.53779,13.23032
30,BMW Autohaus Nefzger,"Spandauer Damm 106, 14059 Berlin",14059,52.51869,13.28146
31,Autohaus Dinnebier Filiale Spandau,"Brunsbütteler Damm 192/194, 13581 Berlin",13581,52.53318,13.15834
32,Autohaus CC Car-Center,"Falkenseer Chaussee 79, 13589 Berlin",13589,52.551,13.16801
33,Autohaus Dinnebier Fil. Wilmersdorf,"Forckenbeckstraße 94, 14199 Berlin",14199,52.47924,13.30799
34,Autohaus Dinnebier Filiale Ku'Damm,"Karlsruher Straße 25, 10711 Berlin",10711,52.49942,13.29415
35,Autohaus König Jeep City Store,"Franklinstraße 28-29, 10587 Berlin",10587,52.51806,13.32504
36,Berliner Kaffeerösterei Im Bmw Autohaus,"Kaiserdamm 90, 14057 Berlin",14057,52.50972,13.28263
37,Autohaus Sturm Claus Dietrich Sturm Inh. Klaus Kwoke,"Am Juliusturm 13, 13599 Berlin",13599,52.53771,13.22918
0,Autohaus Andreasstraße,"Andreasstraße 21A, 10243 Berlin",10243,52.51302,13.43124
1,Autohaus Golbeck,"Frankfurter Allee 34, 10247 Berlin",10247,52.51483,13.46128
2,Autohaus Stremlau,"Goethestraße 29, 13086 Berlin",13086,52.55205,13.43665
3,Citroën Autohaus,10245 Berlin,10245,52.50084,13.4629
4,Autohaus Fuentes,"Erich-Weinert-Straße 9, 10439 Berlin",10439,52.55192,13.41592
5,Autohaus Moritzplatz,"Prinzessinnenstraße, 10969 Berlin",10969,52.50296,13.41212
6,Autohaus Golbeck,"Kreutzigerstraße 28, 10247 Berlin",10247,52.5144,13.46115
7,Autohaus Gillwald,"Prinzessinnenstraße 8-10, 10969 Berlin",10969,52.50254,13.41306
8,AUTOHAUS HEUER,"An der Michaelbrücke 1, 10179 Berlin",10179,52.51293,13.42407
9,Autohaus Helinski,"Rhinstraße 58, 12681 Berlin",12681,52.51926,13.52017
10,Autohaus Maier,"Flensburger Straße 37, 10557 Berlin",10557,52.52034,13.34176
11,Autohaus Ostkreuz,"Markgrafendamm, 10245 Berlin",10245,52.50055,13.46629
12,Autohaus Lichtenberg,"Lückstraße 20, 10317 Berlin",10317,52.50112,13.4913
13,Autohaus Jahnke,"Börnestraße 4, 13086 Berlin",13086,52.54794,13.44717
14,Autohaus Ostkreuz,"Markgrafendamm 7-9, 10245 Berlin",10245,52.49886,13.46568
15,Autohaus Trapp,"Am Faulen See 103, 13053 Berlin",13053,52.55696,13.49564
16,Autohaus Petzold,"Mehringdamm 120, 10965 Berlin",10965,52.4861,13.38555
17,Autohaus Standhardt,"Coppistraße 5, 10365 Berlin",10365,52.50773,13.48624
18,Autohaus Im Friedrichshain,"Persiusstraße, 10245 Berlin",10245,52.50075,13.46275
19,Renault Autohaus Olbrich,12681 Berlin,12681,52.51823,13.5203
20,Autohaus Peter Stölting,"Quitzowstraße 72-73, 10551 Berlin",10551,52.53487,13.34248
21,Autohaus Litsche & Zahn,"Rhinstraße 54, 12681 Berlin",12681,52.51875,13.52014
22,Autohaus Dinnebier Fil. Lichtenberg,"Siegfriedstraße 79, 10365 Berlin",10365,52.53149,13.50028
23,Ford Autohaus Standhardt,"Coppistraße 5, 10365 Berlin",10365,52.50773,13.48624
24,H. Schröder Autohaus,"Thulestraße 62-64, 13189 Berlin",13189,52.55534,13.42636
25,Autohaus Am Stadion,"Eberswalder Straße 14-15, 10437 Berlin",10437,52.54117,13.40759
26,Autohaus Am Südkreuz,"General-Pape-Straße 32A, 12101 Berlin",12101,52.47808,13.36788
27,Dürkop Autohaus - Filiale Landsberger Allee,"Landsberger Allee 357, 13055 Berlin",13055,52.53592,13.51556
28,Autohaus Reinecke & Partner,"Rudolfstraße 17, 10245 Berlin",10245,52.50462,13.45234
29,Das Autohaus Automobile,"Rhinstraße 125a, 10315 Berlin",10315,52.52948,13.51727
30,Autohaus Jenssen & Partner Limited,"Böhmische Straße 17, 12055 Berlin",12055,52.47471,13.4496
31,Autohaus Hinz Nachfolger Bernd Luckow,"Naumannstraße 79, 10829 Berlin",10829,52.47936,13.36372
32,"Autohaus Friedrichsfelde, Kfz-Service Peter Kersten","Alfred-Kowalke-Straße 40, 10315 Berlin",10315,52.50594,13.51436
0,Autohaus Koch,"Marzahner Chaussee 219, 12681 Berlin",12681,52.5274,13.53419
1,Autohaus Körner,"Walsheimer Straße 2-24, 12683 Berlin",12683,52.50806,13.56372
2,Autohaus Osta,"Alt-Kaulsdorf 18, 12621 Berlin",12621,52.50491,13.58221
4,Autohaus Körner,"Walsheimer Straße 2-24, 12683 Berlin",12683,52.50806,13.56372
5,Autohaus Koch,"Marzahner Chaussee 219, 12681 Berlin",12681,52.5274,13.53419
6,Autohaus Bohn,"Roedernstraße 46, 12623 Berlin",12623,52.48313,13.5996
7,Autohaus Koch,"Marzahner Chaussee 219, 12681 Berlin",12681,52.5274,13.53419
8,Autohaus Hoffmann,"Simrockplatz 4, 12623 Berlin",12623,52.51933,13.61423
9,ASB Autohaus Berlin,"Marzahner Chaussee 234, 12681 Berlin",12681,52.53081,13.53164
10,Autohaus Berthold,"Hönower Straße 140, 12623 Berlin",12623,52.51673,13.61453
11,Autohaus Koch,"Marzahner Chaussee 222, 12681 Berlin",12681,52.5277,13.53456
12,Autohaus Berthold,"Hönower Straße 140, 12623 Berlin",12623,52.51673,13.61453
13,Autohaus Osta,"Alt-Kaulsdorf 18, 12621 Berlin",12621,52.50491,13.58221
15,Autohaus Koch,"Marzahner Chaussee 222, 12681 Berlin",12681,52.5277,13.53456
16,Autohaus Mahlsdorf,"Alt-Mahlsdorf 105, 12623 Berlin",12623,52.50457,13.61553
17,Autohaus Berthold,"Hönower Straße 140, 12623 Berlin",12623,52.51673,13.61453
18,Autohaus Gawe,"Marzahner Chaussee 234, 12681 Berlin",12681,52.53081,13.53164
21,Autohaus D. Skjellet,"Hönower Straße 100A, 12623 Berlin",12623,52.51383,13.61302
22,Autohaus Jörg Lessing,"Allee der Kosmonauten 140, 12683 Berlin",12683,52.53374,13.55467
23,Autohaus Märkische Spitze,"Märkische Allee 80A, 12681 Berlin",12681,52.52405,13.53919
24,Autohaus Jörg Lessing,"Allee der Kosmonauten 140, 12683 Berlin",12683,52.53374,13.55467
26,Autohaus Des Vertrauens Adv,"Alt-Biesdorf 49E, 12683 Berlin",12683,52.50534,13.57196
27,Typenoffen - Friseur Im Autohaus,"Marzahner Chaussee 219, 12681 Berlin",12681,52.5274,13.53419
1,Autohaus Kaufmann,"Siemensstraße 40-41, 12247 Berlin",12247,52.44002,13.32722
2,Autohaus Kaufmann,"Siemensstraße 40-41, 12247 Berlin",12247,52.44002,13.32722
13,Autohaus Recknagel,"Teltower Damm 266 B, 14167 Berlin",14167,52.41094,13.26707
16,Autohaus Kreuzinger,"Schützenstraße 17, 12165 Berlin",12165,52.4533,13.3221
18,Autohaus Max Saparautzki,"Körnerstraße 50-51, 12169 Berlin",12169,52.4591,13.32944
20,RWS Autohaus Wilmersdorf,"Birkbuschstraße 53A, 12167 Berlin",12167,52.44394,13.3318
21,Autohaus Max Saparautzki,"Körnerstraße 50-51, 12169 Berlin",12169,52.4591,13.32944
25,Autohaus Max Saparautzki,"Körnerstraße 50-51, 12169 Berlin",12169,52.4591,13.32944
27,Autohaus König Gewerbezentrum Berlin-Steglitz,"Goerzallee 117, 12207 Berlin",12207,52.42159,13.29854
0,Autohaus Lichtenrade,"Lichtenrader Damm 13, 12305 Berlin",12305,52.41339,13.40242
1,AIDA Autohaus,"Tempelhofer Weg 44-48, 12347 Berlin",12347,52.4551,13.4291
2,Autohaus Linzenburg,"Bismarckstraße 17B, 12169 Berlin",12169,52.45576,13.33872
3,AIDA Autohaus,"Johannisthaler Chaussee 401, 12351 Berlin",12351,52.42548,13.44375
4,Autohaus Berolina,"Mariendorfer Damm 169-171, 12107 Berlin",12107,52.43686,13.3887
5,AIDA Autohaus,"Johannisthaler Chaussee 403, 12351 Berlin",12351,52.42539,13.44351
6,AIDA Autohaus,"Tempelhofer Weg 44-48, 12347 Berlin",12347,52.4551,13.4291
7,Autohaus Köhr,"Jahnstraße 84, 12347 Berlin",12347,52.46038,13.4362
8,Autohaus Matthes,"Franz-Körner-Straße 75, 12347 Berlin",12347,52.45636,13.44179
9,Autohaus Witzke,"Kamenzer Damm 76, 12249 Berlin",12249,52.43449,13.36418
10,Autohaus Röbling,"Röblingstraße 136, 12105 Berlin",12105,52.45099,13.3634
11,Autohaus Springer,"Lipschitzallee 64, 12353 Berlin",12353,52.42571,13.46414
12,AIDA Autohaus,"Johannisthaler Chaussee 401, 12351 Berlin",12351,52.42548,13.44375
13,Autohaus Berolina,"Ringstraße 50, 12105 Berlin",12105,52.44246,13.37748
14,AUTOHAUS THAU,"Nunsdorfer Ring 1-5, 12277 Berlin",12277,52.40849,13.37966
15,AIDA Autohaus,"Johannisthaler Chaussee 401, 12351 Berlin",12351,52.42548,13.44375
16,Autohaus Röbling,"Röblingstraße 136, 12105 Berlin",12105,52.45099,13.3634
17,AIDA Autohaus,"Johannisthaler Chaussee 401, 12351 Berlin",12351,52.42548,13.44375
18,Autohaus Jungnickel,"Mariendorfer Damm 19, 12109 Berlin",12109,52.45122,13.38524
19,Autohaus Royal,"Bessemerstraße 42A, 12103 Berlin",12103,52.46347,13.36594
20,Autohaus Berolina,"Ringstraße 50, 12105 Berlin",12105,52.44246,13.37748
21,Autohaus Dinnebier,"Großbeerenstraße 148-158, 12277 Berlin",12277,52.43035,13.37552
22,Autohaus Berolina,"Ringstraße 50, 12105 Berlin",12105,52.44246,13.37748
23,Autohaus Lichtenrade Premium,"Lichtenrader Damm 11, 12305 Berlin",12305,52.41353,13.40207
24,Autohaus Stoyke,"Helmholtzstraße 6, 12459 Berlin",12459,52.46763,13.51227
25,Autohaus Maletzki,"Rudower Straße 11, 12351 Berlin",12351,52.4421,13.45748
26,Autohaus Dinnebier,"Großbeerenstraße 148-158, 12277 Berlin",12277,52.43035,13.37552
27,Autohaus Winterfell,"Rudower Straße 189, 12351 Berlin",12351,52.43123,13.47647
28,Autohaus Berolina,"Ringstraße 50, 12105 Berlin",12105,52.44246,13.37748
29,AIDA Autohaus,"Johannisthaler Chaussee 403, 12351 Berlin",12351,52.42539,13.44351
30,Autohaus STAHL,"Rudower Straße 108, 12351 Berlin",12351,52.43575,13.46593
31,Autohaus Augustin,"Greinerstraße 3, 12107 Berlin",12107,52.43617,13.37146
32,Autohaus Beier,"Rudower Straße 94-98, 12524 Berlin",12524,52.4228,13.525
33,Autohaus Berolina,"Ringstraße 50, 12105 Berlin",12105,52.44246,13.37748
34,Autohaus Berolina,"Ringstraße 50, 12105 Berlin",12105,52.44246,13.37748
35,Autohaus Furchtmann,"Malteserstraße 168, 12277 Berlin",12277,52.41676,13.36143
36,Autohaus Höser,"Juliusstraße 61-62, 12051 Berlin",12051,52.46369,13.44118
37,Autohaus Dinnebier,"Großbeerenstraße 148, 12277 Berlin",12277,52.43035,13.3755
38,Autohaus Ronald Bourset,"Attilastraße 101, 12247 Berlin",12247,52.44555,13.35891
39,Autohaus Ryll Wittenberge,"Springbornstraße 1, 12487 Berlin",12487,52.43534,13.50018
40,Skoda Autohaus Wunderlich,"Bismarckstraße, 12169 Berlin",12169,52.45529,13.33876
41,Autohaus Meklenborg Vertriebs,"Malteserstraße 10, 12247 Berlin",12247,52.43491,13.35287
42,Autohaus Meklenborg Vertriebs,"Malteserstraße 10, 12247 Berlin",12247,52.43491,13.35287
43,Autohaus Manfred Zellmann,"Wegedornstraße 30, 12524 Berlin",12524,52.4238,13.52584
44,Ah Autohaus Röblinstr,"Röblingstraße 136, 12105 Berlin",12105,52.45099,13.3634
45,Autohaus Meklenborg Vertriebs,"Malteserstraße 10, 12247 Berlin",12247,52.43491,13.35287
46,Autohaus Meklenborg Vertriebs,"Steglitzer Damm 62-64, 12169 Berlin",12169,52.44981,13.34788
47,Sl Autohaus Rudow,"Wittekindstraße 86, 12105 Berlin",12105,52.45503,13.37184
48,Autohaus B & C,"Lichtenrader Damm 49, 12305 Berlin",12305,52.40962,13.40431
49,BMW Autohaus Graubaum,"Köllnische Straße 10, 12439 Berlin",12439,52.45256,13.5222
51,Autohaus Wunderlich Inhaber T. Wunderlich,"Bismarckstraße 18, 12169 Berlin",12169,52.45552,13.33869
54,Autohaus Wegener Berlin C/O Filiale Britz,"Buckower Damm 100, 12349 Berlin",12349,52.43489,13.43468
55,G.A.P Autohaus Inh.Imam Özkan,"Malteserstraße 24, 12249 Berlin",12249,52.43271,13.35372
0,Autohaus Berlin,"Bruno-Bürgel-Weg 70-80, 12439 Berlin",12439,52.45385,13.54107
1,Autohaus Adlershof,"Otto-Franke-Straße 87, 12489 Berlin",12489,52.43234,13.54946
2,Schickes Autohaus,"Woltersdorfer Weg 34, 12589 Berlin",12589,52.44172,13.68759
3,Autohaus Klemke,"Joachimstraße 39, 12526 Berlin",12526,52.40345,13.57828
4,Autohaus Süd-Blick,"Normannenstraße 3, 12524 Berlin",12524,52.41946,13.54035
5,Autohaus Wegener Berlin Filiale Köpenick,"Wendenschloßstraße 26, 12559 Berlin",12559,52.44678,13.59048
6,Autohaus Wegener Berlin C/O Filiale Berlin Köpenick,"Wendenschloßstraße 26, 12559 Berlin",12559,52.44664,13.59048
3,Autohaus Weber,"Holsteiner Chaussee 91-93, 22523 Hamburg",22523,53.61679,9.9071
9,Autohaus Ulrich,"Pinneberger Chaussee 14, 22523 Hamburg",22523,53.60938,9.90297
10,Autohaus Urbach,"Pinneberger Straße 14, 22457 Hamburg",22457,53.6329,9.90841
11,Autohaus Ulrich,"Pinneberger Chaussee 14, 22523 Hamburg",22523,53.60938,9.90297
17,Autohaus Weber In Eidelstedt,"Holsteiner Chaussee 91-93, 22523 Hamburg",22523,53.61679,9.9071
21,"Autohaus Biehl, Inhaber M. Qazi","Holsteiner Chaussee 175, 22457 Hamburg",22457,53.62393,9.90884
0,Autohaus Langenhorn,"Oehleckerring 9, 22419 Hamburg",22419,53.66114,10.00563
1,Autohaus Langenhorn,"Oehleckerring 9, 22419 Hamburg",22419,53.66114,10.00563
2,Autohaus Langenhorn,"Oehleckerring 9, 22419 Hamburg",22419,53.66114,10.00563
4,Nissan Autohaus,"Poppenbütteler Bogen, 22399 Hamburg",22399,53.66886,10.06997
5,Autohaus Bornemann,"Harksheider Straße 45, 22399 Hamburg",22399,53.66333,10.07661
6,Autohaus Günther,"Poppenbütteler Bogen 33, 22399 Hamburg",22399,53.66885,10.06994
7,Belling Autohaus Niendorf,"Adlerhorst 11, 22459 Hamburg",22459,53.63126,9.95399
8,Autohaus Günther,"Poppenbütteler Bogen 33, 22399 Hamburg",22399,53.66885,10.06994
9,Belling Autohaus Niendorf,"Adlerhorst 11, 22459 Hamburg",22459,53.63126,9.95399
10,Autohaus Lehmann,"Schwarzer Weg 28, 22309 Hamburg",22309,53.6079,10.05317
12,Autohaus Günther,"Poppenbütteler Bogen 33, 22399 Hamburg",22399,53.66885,10.06994
13,Autohaus Sauer,"Steilshooper Allee 49, 22309 Hamburg",22309,53.60861,10.04998
15,Autohaus Weik,"Lademannbogen 9, 22339 Hamburg",22339,53.64754,10.03718
17,Autohaus Hume,"Papenhörn 18A, 22397 Hamburg",22397,53.68438,10.13981
19,Autohaus Bergstedt U. Müller,"Bergstedter Chaussee 214, 22395 Hamburg",22395,53.67503,10.13808
20,Autohaus Ernst Lauße,"Saseler Chaussee 36, 22391 Hamburg",22391,53.63688,10.09346
24,Autohaus Bergstedt U. Müller,"Bergstedter Chaussee 214, 22395 Hamburg",22395,53.67503,10.13808
26,Autohaus Ernst Lauße,"Saseler Chaussee 34-36, 22391 Hamburg",22391,53.63705,10.09333
7,Autohaus Petschallies Volksdorf,"Eulenkrugstraße 59, 22359 Hamburg",22359,53.6479,10.16978
11,Autohaus Herbert Hansen,"Höhenkamp 1, 22145 Braak",22145,53.60921,10.24143
14,Autohaus Peter Heyn,"Vörn Barkholt 13, 22359 Hamburg",22359,53.65304,10.16509
18,Autohaus Udo Von Ahnen,"Auf den Wöörden 56, 22359 Hamburg",22359,53.65972,10.1749
0,Autohaus Renzing,"Luruper Hauptstraße 82, 22547 Hamburg",22547,53.58707,9.87786
1,Autohaus Renzing,"Luruper Hauptstraße 82, 22547 Hamburg",22547,53.58707,9.87786
2,Autohaus Renzing,"Luruper Hauptstraße 82, 22547 Hamburg",22547,53.58707,9.87786
8,Autohaus Franke,"Bessemerweg 6A, 22761 Hamburg",22761,53.56415,9.93156
11,B & A Autohaus Finkenwerder,"Rüschwinkel 7, 21129 Hamburg",21129,53.5369,9.85452
12,Hyundai Autohaus Böttcher,"Kieler Straße 207, 22525 Hamburg",22525,53.57765,9.93652
15,Claas Wehner Autohaus,"Volksparkstraße 38,42, 22525 Hamburg",22525,53.59166,9.92276
17,Claas Wehner Autohaus,"Volksparkstraße 38,42, 22525 Hamburg",22525,53.59166,9.92276
21,Autohaus Dicks,"Cranzer Elbdeich 43, 21129 Hamburg",21129,53.5402,9.77373
26,Autohaus Rumrich Bosch Car-Service,"Luruper Hauptstraße 79, 22547 Hamburg",22547,53.58656,9.87744
0,Autohaus Mühlenkamp,"Mühlenkamp 65, 22303 Hamburg",22303,53.58341,10.00929
1,Autohaus Marienthal,"Gustav-Adolf-Straße 101, 22043 Hamburg",22043,53.57386,10.09598
2,Autohaus Turan,"Schimmelmannstraße 101, 22043 Hamburg",22043,53.5727,10.10591
3,Autohaus Günther,"Ausschläger Weg 49, 20537 Hamburg",20537,53.55042,10.03654
4,Autohaus Georgswerder,21109 Hamburg,21109,53.51821,10.02234
5,Autohaus Landahl,"Gustav-Adolf-Straße 84, 22043 Hamburg",22043,53.57501,10.10185
6,Autohaus Günther,"Ausschläger Weg 49, 20537 Hamburg",20537,53.55028,10.03661
7,Autohaus Jenfeld,"Albert-Schweitzer-Ring 39, 22045 Hamburg",22045,53.58089,10.1231
8,Autohaus Turan,"Holstenhofweg 58, 22043 Hamburg",22043,53.57136,10.10493
9,Autohaus Günther,"Ausschläger Weg 49, 20537 Hamburg",20537,53.55042,10.03654
10,Autohaus Deluxe,"Am Stadtrand 8-18, 22047 Hamburg",22047,53.58622,10.10012
11,Marita Autohaus,"Bramfelder Straße 105, 22305 Hamburg",22305,53.58937,10.05293
12,Autohaus Wiegmann,"Ausschläger Weg 72, 20537 Hamburg",20537,53.54905,10.03658
13,Autohaus Boettcher,"Billhorner Mühlenweg 24, 20539 Hamburg",20539,53.5363,10.03323
14,Autohaus Wiegmann,"Marienthaler Straße, 20535 Hamburg",20535,53.56313,10.05105
15,Autohaus Veso,"Moorfleeter Straße 50, 22113 Hamburg",22113,53.52429,10.09052
16,Autohaus Osterstrasse Schmidt,"Osterstraße 62, 20259 Hamburg",20259,53.57532,9.9565
17,Autohaus Michael,"Holstenhofweg 42-48, 22043 Hamburg",22043,53.57389,10.10393
18,Autohaus Michael,"Holstenhofweg 55, 22043 Hamburg",22043,53.57397,10.10372
19,Autohaus Schleiss,"Wagnerstraße 30, 22081 Hamburg",22081,53.57351,10.03734
20,Autohaus Günther,"Friedrich-Ebert-Damm 319-321, 22159 Hamburg",22159,53.60331,10.11528
21,Autohaus Lass,"Holzmühlenstraße 5, 22041 Hamburg",22041,53.57728,10.08243
22,Autohaus Günther - Hamburg,"Wendenstraße 249, 20537 Hamburg",20537,53.55057,10.03773
23,Autohaus Rütz,"Hermannstal 123, 22119 Hamburg",22119,53.54999,10.10001
24,Autohaus Gomme,"Horner Landstraße 380, 22111 Hamburg",22111,53.54375,10.09138
25,Autohaus Milad,"Wandsbeker Stieg 23, 22087 Hamburg",22087,53.5613,10.02812
26,Autohaus Günther - Hamburg,"Wendenstraße 249, 20537 Hamburg",20537,53.55057,10.03773
27,Autohaus Lass,"Holzmühlenstraße 5, 22041 Hamburg",22041,53.57762,10.08268
28,Autohaus Yusufi,"Billwerder Steindamm 30, 20537 Hamburg",20537,53.54354,10.04034
29,Captain Autohaus,"Sorbenstraße 39, 20537 Hamburg",20537,53.55004,10.04325
30,Claas Wehner Autohaus,"Friedrich-Ebert-Damm 114, 22047 Hamburg",22047,53.58735,10.09238
31,Claas Wehner Autohaus,"Friedrich-Ebert-Damm 114, 22047 Hamburg",22047,53.58735,10.09238
32,Autohaus Ernst Lauße,"Friedrich-Ebert-Damm 184, 22047 Hamburg",22047,53.58961,10.10232
33,Barmbeker Autohaus Killi,"Holsteinischer Kamp 104, 22081 Hamburg",22081,53.57544,10.04731
34,Autohaus Lensch & Bleck,"Barmbeker Straße 35-37, 22303 Hamburg",22303,53.58553,10.018
35,Autohaus Ebel & Sohn,"Klaus-Groth-Straße 25, 20535 Hamburg",20535,53.55532,10.0306
36,Autohaus Ernst Lauße,"Friedrich-Ebert-Damm 184, 22047 Hamburg",22047,53.58961,10.10232
37,Autohaus Wilhelm Kuhfuß,"Koppel 74, 20099 Hamburg",20099,53.5587,10.01147
38,AUTOHAUS JUNGE HOHELUFT,"Hoheluftchaussee 153, 20253 Hamburg",20253,53.58499,9.96861
39,Autohaus Sulfukar Alboudan,"Georgswerder Bogen 2, 21109 Hamburg",21109,53.51815,10.01659
40,Claas Wehner Autohaus,"Friedrich-Ebert-Damm 114, 22047 Hamburg",22047,53.58735,10.09238
41,AUTOHAUS SPERLING & SOHN,"Stormarner Straße 26, 22049 Hamburg",22049,53.57698,10.06144
42,AUTOHAUS JUNGE HOHELUFT,"Hoheluftchaussee 153, 20253 Hamburg",20253,53.58499,9.96861
43,Claas Wehner Autohaus,"Friedrich-Ebert-Damm 114, 22047 Hamburg",22047,53.58735,10.09238
44,Claas Wehner Autohaus,"Friedrich-Ebert-Damm 114, 22047 Hamburg",22047,53.58735,10.09238
45,Autohaus Junge Hoheluft,"Hoheluftchaussee 153, 20253 Hamburg",20253,53.58499,9.96861
46,Autohaus Ernst Lauße,"Schiffbeker Weg 307, 22043 Hamburg",22043,53.5696,10.12361
47,Claas Wehner Autohaus,"Friedrich-Ebert-Damm 114, 22047 Hamburg",22047,53.58735,10.09238
48,Autohaus Möller u. Goede,"Kuehnstraße 89, 22045 Hamburg",22045,53.57997,10.12331
49,Autohaus CF Mirbach Hanse,"Kuehnstraße 15, 22045 Hamburg",22045,53.57737,10.11624
50,Autohaus Möller Und Goede,"Kuehnstraße 89, 22045 Hamburg",22045,53.57997,10.12331
51,Berger Kfz-Reparaturwerkstatt Autohaus Nemeth,"Kuehnstraße 15, 22045 Hamburg",22045,53.57737,10.11624
52,Autohaus W.Wülfing & Sohn Nachf. Ralph Wülfing,"Nebendahlstraße 11, 22041 Hamburg",22041,53.57775,10.06568
53,Skoda,"Horner Landstraße 20, 22111 Hamburg",22111,53.55271,10.07026
2,Autohaus Stapelfeld,"Wittigstieg 19, 22149 Hamburg",22149,53.59316,10.14953
5,Autohaus Max Hamburg,"Bargteheider Straße 14, 22143 Hamburg",22143,53.59804,10.14206
10,Autohaus Stapelfeld Dg,"Hauptstraße 9, 22145 Stapelfeld",22145,53.60506,10.20721
14,Asr-Autohaus Schlegel Rahlstedt,"Bargteheider Straße 79, 22143 Hamburg",22143,53.60297,10.14551
0,Autohaus Michaelidis,"Winsener Straße 91, 21077 Hamburg",21077,53.44468,9.99113
1,Autohaus Tobaben,"Buxtehuder Straße 84-92, 21073 Hamburg",21073,53.46879,9.96568
2,Autohaus Marschalek,"Kapellenweg 109, 21077 Hamburg",21077,53.44301,9.98907
4,Autohaus T & K,"Winsener Straße 149B, 21077 Hamburg",21077,53.43274,9.98556
5,AUTOHAUS C. THOMSEN,"Lewenwerder 2, 21079 Hamburg",21079,53.45673,9.9992
7,Autohaus T & K,"Winsener Straße 149B, 21077 Hamburg",21077,53.43274,9.98556
8,Autohaus S+K,"Großmoorring 7A, 21079 Hamburg",21079,53.45712,10.00746
9,Autohaus T & K,"Winsener Straße 149B, 21077 Hamburg",21077,53.4328,9.9842
10,Autohaus S+K,"Großmoorbogen 2, 21079 Hamburg",21079,53.46151,10.01086
12,Autohaus T & K,"Winsener Straße 149B, 21077 Hamburg",21077,53.43274,9.98556
13,Autohaus S+K,"Großmoorring 7A, 21079 Hamburg",21079,53.45712,10.00746
14,Autohaus Peter Krohn,"Sand 33, 21073 Hamburg",21073,53.46127,9.97953
16,Autohaus B & K alles klar!,"Buxtehuder Straße 112, 21073 Hamburg",21073,53.46949,9.96344
0,Autohaus Michael,"Neuer Weg 43, 21029 Hamburg",21029,53.48287,10.21146
5,Autohaus Kath,"Curslacker Neuer Deich 72, 21029 Hamburg",21029,53.47719,10.20537
6,Autohaus Günther,"Kampweg 3, 21035 Hamburg",21035,53.47652,10.1972
8,Autohaus Alt,"Lohbrügger Weg 4, 21031 Hamburg",21031,53.49856,10.20378
10,Autohaus Michael,"Neuer Weg 43, 21029 Hamburg",21029,53.48282,10.21141
11,Autohaus Michael,"Neuer Weg 43, 21029 Hamburg",21029,53.48282,10.21141
14,Autohaus Michael,"Neuer Weg 43, 21029 Hamburg",21029,53.48282,10.21141
20,Autohaus S+K,"Randersweide 1a, 21035 Hamburg",21035,53.47819,10.1971
21,Autohaus Am Sachsenwald,"Zwischen den Kreiseln 8, 21039 Börnsen",21039,53.48599,10.28801
22,Autohaus S+K,"Randersweide 1a, 21035 Hamburg",21035,53.47819,10.1971
23,Autohaus S+K,"Randersweide 1, 21035 Hamburg",21035,53.47911,10.19801
24,Autohaus Kloss Inh. Dietmar Kloss,"Am Stein 32, 21039 Börnsen",21039,53.4906,10.27867
25,Autohaus Stahlbuhk Inh. Sven Stahlbuhk,"Neuengammer Hausdeich 210, 21039 Hamburg",21039,53.44503,10.23059
0,Ic Autohaus,"Oskar-Jäger-Straße 166-168, 50825 Köln",50825,50.94812,6.9077
1,Autohaus Bäckmann,"Boltensternstraße 128, 50735 Köln",50735,50.97532,6.97465
2,Autohaus-Löwen Köln,"Biesterfeldstraße 3, 50829 Köln",50829,50.96337,6.88651
3,Autohaus Düsterhöft,"Pasteurstraße 7, 50735 Köln",50735,50.97175,6.97298
4,Autohaus Sauer,"Waffenschmidtstraße 1, 50767 Köln",50767,51.00424,6.87205
5,Autohaus Tmt,"Neusser Straße 403, 50733 Köln",50733,50.97056,6.95195
6,Autohaus Bäckmann,"Boltensternstraße 128, 50735 Köln",50735,50.97532,6.97465
7,Autohaus Yvel Köln,"Liebigstraße 201-203, 50823 Köln",50823,50.95631,6.93421
8,Autohaus Opladen,"Wilhelm-Mauser-Straße 49, 50827 Köln",50827,50.95633,6.89279
9,Autohaus Bussmann,"Zypressenstraße 49, 50767 Köln",50767,51.01243,6.90597
10,Autohaus Bäckmann,"Boltensternstraße 128, 50735 Köln",50735,50.97532,6.97465
11,Autohaus J. Fleischhauer,"Fröbelstraße 15, 50823 Köln",50823,50.94562,6.91657
12,Autohaus J. Fleischhauer,"Fröbelstraße 15, 50823 Köln",50823,50.94562,6.91657
13,Autohaus Jacob Fleischhauer,"Fröbelstraße 15, 50823 Köln",50823,50.94562,6.91657
14,Autohaus Jacob Fleischhauer,"Fröbelstraße 15, 50823 Köln",50823,50.94562,6.91657
15,Autohaus Jacob Fleischhauer,"Fröbelstraße 15, 50823 Köln",50823,50.94562,6.91657
16,Autohaus Jacob Fleischhauer,"Weinsbergstraße 160, 50823 Köln",50823,50.94378,6.91622
17,Autohaus Schaefer I. Gr.,"Subbelrather Straße 387-407, 50825 Köln",50825,50.95765,6.91016
18,Autohaus H. D. Design,"Escher Straße 129, 50739 Köln",50739,50.96042,6.93807
19,Autohaus Kierdorf NL der IC Autohandel Rheinland,"Oskar-Jäger-Straße 166, 50825 Köln",50825,50.94722,6.908
20,Autohaus KIERDORF NL der IC Autohandel Rheinland,"Oskar-Jäger-Straße 166, 50825 Köln",50825,50.94722,6.908
21,Autohaus Kierdorf NL der IC Autohandel Rheinland,"Oskar-Jäger-Straße 166, 50825 Köln",50825,50.94722,6.908
22,Ligier Microcar Köln - Autohaus Für 45 Km/h Fahrzeuge,"Pasteurstraße 1a, 50735 Köln",50735,50.97212,6.9743
1,Autohaus Breit,"Kunstfelder Straße 9, 51069 Köln",51069,51.00247,7.03783
2,Autohaus Breit,"Kunstfelder Straße 9, 51069 Köln",51069,51.00247,7.03783
3,Autohaus Nord,"Riehler Straße 225, 50735 Köln",50735,50.96258,6.98088
4,Autohaus Karst,"Clevischer Ring 133, 51063 Köln",51063,50.9774,7.00323
5,Autohaus Breit,"Kunstfelder Straße 9, 51069 Köln",51069,51.00247,7.03783
6,Autohaus Breit,"Kunstfelder Straße 9, 51069 Köln",51069,51.00247,7.03783
7,Autohaus Behrendt,"Bertoldistraße 15, 51065 Köln",51065,50.95465,7.00378
8,Autohaus Breit,"Kunstfelder Straße 9, 51069 Köln",51069,51.00247,7.03783
9,Autohaus Yalcin,"Bergisch Gladbacher Straße 731, 51067 Köln",51067,50.97354,7.05514
10,Autohaus Karst,"Clevischer Ring 133, 51063 Köln",51063,50.9774,7.00323
11,Autohaus Yalcin,"Bergisch Gladbacher Straße 731, 51067 Köln",51067,50.97354,7.05514
12,Autohaus Breit,"Kunstfelder Straße 9, 51069 Köln",51069,51.00247,7.03783
14,Autohaus Jacob Fleischhauer,"Clevischer Ring 45, 51063 Köln",51063,50.96497,7.00552
15,Autohaus J. Fleischhauer,"Clevischer Ring 45, 51063 Köln",51063,50.96497,7.00552
16,Kunst Dieter Autohaus,"Im Fichtenhain 1A, 51069 Köln",51069,50.97837,7.06863
17,Autohaus Jacob Fleischhauer,"Clevischer Ring 45, 51063 Köln",51063,50.96497,7.00552
18,Autohaus Jacob Fleischhauer,"Clevischer Ring 45, 51063 Köln",51063,50.96497,7.00552
19,Autohaus Jacob Fleischhauer,"Clevischer Ring 45, 51063 Köln",51063,50.96497,7.00552
21,Autohaus Da Leo,"Kaspar-Düppes-Straße 35, 51067 Köln",51067,50.96861,7.0505
22,Autohaus J. Fleischhauer,"Clevischer Ring 45, 51063 Köln",51063,50.96497,7.00552
23,Studen K. H. Autohaus,"Mielenforster Straße 4, 51069 Köln",51069,50.97151,7.07521
0,Autohaus Colonia,"Herthastraße 62, 50969 Köln",50969,50.91301,6.94167
1,Autohaus Yvel Köln,"Raderberggürtel 4, 50968 Köln",50968,50.90342,6.95839
2,Autohaus Schindel,"Brühler Platz 54, 50968 Köln",50968,50.89914,6.94965
3,Autohaus Kempen,"Raderthalgürtel 2, 50968 Köln",50968,50.90391,6.95468
5,Autohaus Levi,"Höninger Weg 212, 50969 Köln",50969,50.90942,6.9409
9,Autohaus Levi,"Höninger Weg 212, 50969 Köln",50969,50.90942,6.9409
11,Autohaus Jacob Fleischhauer,"Raderberggürtel 31, 50968 Köln",50968,50.90399,6.96225
12,Autohaus Jacob Fleischhauer,"Raderberggürtel 31, 50968 Köln",50968,50.90399,6.96225
13,Autohaus Jacob Fleischhauer,"Raderberggürtel 31, 50968 Köln",50968,50.90399,6.96225
14,Autohaus Jacob Fleischhauer,"Raderberggürtel 31, 50968 Köln",50968,50.90399,6.96225
16,r. h. Autohaus Amian,"Zollstockgürtel 47, 50969 Köln",50969,50.90647,6.93681
17,r. h. Autohaus Amian,"Zollstockgürtel 47, 50969 Köln",50969,50.90636,6.93683
18,Autohaus F. J. Kempen,"Raderthalgürtel 2, 50968 Köln",50968,50.90405,6.95574
19,Audi Zentrum Köln Autohaus Jacob Fleischhauer,"Bonner Straße 328, 50968 Köln",50968,50.90454,6.96402
0,Autohaus Getra,"Hansestraße, 51149 Köln",51149,50.90943,7.07128
1,Autohaus Barthel,"Ferdinand-Porsche-Straße 24, 51149 Köln",51149,50.90461,7.06935
2,Autohaus Schütze,"Fuggerstraße 8, 51149 Köln",51149,50.90459,7.07559
3,Autohaus Schmitz,"Kaiserstraße 127, 51145 Köln",51145,50.88193,7.06848
4,Autohaus Servatius,"Odenwaldstraße 111, 51105 Köln",51105,50.9296,7.00656
5,AUTOHAUS GETRA,"Hansestraße 50, 51149 Köln",51149,50.90922,7.07158
6,Autohaus Spk,"Rösrather Straße 271, 51107 Köln",51107,50.92748,7.0626
7,Autohaus Barthel,"Ferdinand-Porsche-Straße 24, 51149 Köln",51149,50.90461,7.06935
8,Autohaus Fleischhauer,"Frankfurter Straße 665-675, 51145 Köln",51145,50.89548,7.07893
9,Autohaus Karst,"Olpener Straße 276, 51103 Köln",51103,50.94003,7.03236
10,Autohaus Barthel,"Ferdinand-Porsche-Straße 24, 51149 Köln",51149,50.90461,7.06935
11,Autohaus Wiemer,"Humboldtstraße 137, 51145 Köln",51145,50.89707,7.06574
12,Autohaus Schmitz,"Kaiserstraße 127, 51145 Köln",51145,50.88193,7.06848
13,Autohaus Javaheri,"Matthias-Müller-Straße 78, 51107 Köln",51107,50.921,7.08949
14,Autohaus Karst,"Olpener Straße 276, 51103 Köln",51103,50.94003,7.03236
15,Autohaus Barthel,"Ferdinand-Porsche-Straße 24, 51149 Köln",51149,50.90461,7.06935
16,Autohaus Weist,"Neue Eiler Straße 46, 51145 Köln",51145,50.89643,7.07454
17,Autohaus-Drotschmann,"Siegburger Straße 240, 51105 Köln",51105,50.92042,6.98502
18,Autohaus Jacob Fleischhauer,"Frankfurter Straße 665, 51145 Köln",51145,50.89789,7.07573
19,Autohaus Jacob & Löfken,"Rösrather Straße 271, 51107 Köln",51107,50.92748,7.0626
20,Autohaus Jacob Fleischhauer,"Frankfurter Straße 665-675, 51145 Köln",51145,50.89548,7.07893
21,Mirweiss Zabuly Autohaus,"Rösrather Straße 443, 51107 Köln",51107,50.92493,7.07305
22,Autohaus Jacob Fleischhauer,"Frankfurter Straße 665, 51145 Köln",51145,50.89789,7.07573
23,Autohaus Jacob Fleischhauer,"Frankfurter Straße 665, 51145 Köln",51145,50.89789,7.07573
24,Autohaus Rudolf Geberzahn,"Rösrather Straße 511, 51107 Köln",51107,50.92359,7.07799
25,Autohaus W & S,"Waldstraße 155, 51147 Köln",51147,50.88124,7.09873
26,Autohaus Jacob Fleischhauer,"Frankfurter Straße 665-675, 51145 Köln",51145,50.89804,7.07538
27,"Autohaus W&s, Weber & Simanzik Kfz-Reparaturen Aller Art","Waldstraße 155, 51147 Köln",51147,50.88124,7.09873
0,Autohaus Brass Frankfurt,"Guerickestraße 9, 60488 Frankfurt am Main",60488,50.13922,8.59469
1,Nordstern Autohaus,"Alt-Niederursel 2, 60439 Frankfurt am Main",60439,50.16609,8.6216
2,Autohaus Winterwerber,"Röderichstraße 19, 60489 Frankfurt am Main",60489,50.12578,8.60854
3,Autohaus Kharrati,"Sinner Weg 8, 60439 Frankfurt am Main",60439,50.16261,8.63948
5,Autohaus Muth,"Westerbachstraße 295, 65936 Frankfurt am Main",65936,50.12272,8.56889
6,Autohaus Brass Frankfurt,"Guerickestraße 9, 60488 Frankfurt am Main",60488,50.13922,8.59469
8,Autohaus Dienst,"Eckenheimer Landstraße 314, 60435 Frankfurt am Main",60435,50.1471,8.68252
9,Autohaus Leiss Frankfurt,"Alt-Rödelheim 2-4, 60489 Frankfurt am Main",60489,50.12421,8.61275
11,Autohaus Leiss Frankfurt,"Alt-Rödelheim 2-4, 60489 Frankfurt am Main",60489,50.12421,8.61275
12,Autohaus Hochmuth,"Kaiser-Sigmund-Straße 14, 60320 Frankfurt am Main",60320,50.13796,8.68293
13,Autohaus Brass Frankfurt,"Guerickestraße 9, 60488 Frankfurt am Main",60488,50.13875,8.59455
14,Oig Autohaus,"Eschersheimer Landstraße 60-62, 60322 Frankfurt am Main",60322,50.12243,8.67587
15,Autohaus Muth,"Westerbachstraße 295, 65936 Frankfurt am Main",65936,50.12272,8.56889
16,Autohaus Star,"Thudichumstraße 17, 60489 Frankfurt am Main",60489,50.1267,8.61305
17,Autohaus Brass Frankfurt,"Guerickestraße 9, 60488 Frankfurt am Main",60488,50.13875,8.59455
18,Autohaus Brass Frankfurt,"Guerickestraße 9, 60488 Frankfurt am Main",60488,50.1294,8.59935
20,Autohaus Euler,"Karl-von-Drais-Straße 7-9, 60435 Frankfurt am Main",60435,50.14759,8.68065
21,Autohaus Muth Co.,"Westerbachstraße 295.0, 65936 Frankfurt am Main",65936,50.12262,8.56902
22,Autohaus Am Westbahnhof,"Kurfürstenstraße 60, 60486 Frankfurt am Main",60486,50.11968,8.63956
23,Autohaus Am Westbahnhof,"Kurfürstenstraße 60, 60486 Frankfurt am Main",60486,50.11961,8.64018
25,Autohaus Lamertz eingetragener Kaufmann,"Westerbachstraße 66, 60489 Frankfurt am Main",60489,50.12265,8.59573
1,Autohaus Pniewski,"Flinschstraße 17, 60388 Frankfurt am Main",60388,50.13416,8.73645
2,Autohaus Brass Frankfurt,"Carl-Benz-Straße 263-265, 60386 Frankfurt am Main",60386,50.12046,8.75361
3,Autohaus Hessengarage,"Am Riederbruch 8, 60386 Frankfurt am Main",60386,50.12424,8.7289
5,Autohaus Brass Frankfurt,"Carl-Benz-Straße 263-265, 60386 Frankfurt am Main",60386,50.12046,8.75361
6,Autohaus Fuhrmann,"Marktstraße 69, 60388 Frankfurt am Main",60388,50.15594,8.75632
7,Autohaus Fuhrmann,"Marktstraße 69, 60388 Frankfurt am Main",60388,50.15594,8.75632
8,Autohaus Hessengarage,"Am Riederbruch 8, 60386 Frankfurt am Main",60386,50.12424,8.7289
9,Autohaus Hessengarage,"Am Riederbruch 8, 60386 Frankfurt am Main",60386,50.12424,8.7289
10,Autohaus Hessengarage,"Borsigallee 12, 60388 Frankfurt am Main",60388,50.13443,8.74222
11,Autohaus Nix,"Hanauer Landstraße 429-431, 60314 Frankfurt am Main",60314,50.12247,8.73986
12,Autohaus Schwab,"Borsigallee 8, 60388 Frankfurt am Main",60388,50.13399,8.7419
13,Autohaus Hessengarage,"Borsigallee 12, 60388 Frankfurt am Main",60388,50.1344,8.7422
14,Autohaus Hessengarage,"Borsigallee 12, 60388 Frankfurt am Main",60388,50.1344,8.7422
15,Autohaus Brass Frankfurt,"Hanauer Landstraße 263-265, 60314 Frankfurt am Main",60314,50.11565,8.7237
16,Autohaus Hessengarage,"Am Riederbruch 8, 60386 Frankfurt am Main",60386,50.12424,8.7289
17,Autohaus Nix Toyota,"Hanauer Landstraße, 60314 Frankfurt am Main",60314,50.12269,8.74024
18,Autohaus Rauch Inhaber Michael Kamp,"Hungener Straße 7, 60389 Frankfurt am Main",60389,50.13364,8.69813
19,Land Rover Range Rover Autohaus,"Hanauer Landstraße 295, 60314 Frankfurt am Main",60314,50.11669,8.72685
0,Autohaus Schmitt,"Schwarzwaldstraße 85, 60528 Frankfurt am Main",60528,50.08371,8.65025
1,Autohaus Ulrich,"Schmidtstraße 51, 60326 Frankfurt am Main",60326,50.10461,8.61772
2,Autohaus Hessengarage,"Camberger Straße 21, 60327 Frankfurt am Main",60327,50.10259,8.6454
3,Autohaus Gruber,"Frankenallee 98-102, 60326 Frankfurt am Main",60326,50.10472,8.64075
4,Autohaus Amthauer,"Mönchhofstraße 28, 60326 Frankfurt am Main",60326,50.10497,8.61502
5,Autohaus Schultheis,"Kurmainzer Straße 35, 65929 Frankfurt am Main",65929,50.10694,8.5522
6,Autohaus Stange,"Mainzer Landstraße 324, 60326 Frankfurt am Main",60326,50.10226,8.63388
7,Autohaus Hessengarage,"Nieder Kirchweg 121, 65934 Frankfurt am Main",65934,50.09443,8.57388
8,AUTOHAUS MIKULECKY,"Lahnstraße 7, 60326 Frankfurt am Main",60326,50.10131,8.63858
9,Autohaus Euler,"Königsteiner Straße 74, 65929 Frankfurt am Main",65929,50.10755,8.542
10,Autohaus Flebbe,"Bolongarostraße 93, 65929 Frankfurt am Main",65929,50.10186,8.55428
11,Autohaus Hessengarage,"Camberger Straße 21, 60327 Frankfurt am Main",60327,50.10259,8.6454
12,Autohaus Hessengarage,"Camberger Straße 21, 60327 Frankfurt am Main",60327,50.10259,8.6454
13,Autohaus Ulrich,"Schmidtstraße 51, 60326 Frankfurt am Main",60326,50.10461,8.61772
14,Autohaus Gegner,"Morgenzeile 1, 60529 Frankfurt am Main",60529,50.08702,8.61699
15,Autohaus Gruber,"Frankenallee, 60326 Frankfurt am Main",60326,50.10481,8.64082
16,Db Autohaus,"Hahnstraße 8, 60528 Frankfurt am Main",60528,50.08753,8.63141
17,Autohaus Schwanzl,"Großer Hasenpfad 20, 60598 Frankfurt am Main",60598,50.09694,8.68636
18,Autohaus Dörnfeld,"Alt-Griesheim 84, 65933 Frankfurt am Main",65933,50.09122,8.60166
19,Autohaus Steinbach,"Schmidtstraße 43-45, 60326 Frankfurt am Main",60326,50.10269,8.61831
20,Autohaus Naumann,"Schmidtstraße 51, 60326 Frankfurt am Main",60326,50.10449,8.61771
21,Autohaus Gruber,"Frankenallee 98-102, 60326 Frankfurt am Main",60326,50.1048,8.64087
22,Autohaus Schneider,"Mauritiusstraße 18, 60529 Frankfurt am Main",60529,50.0885,8.57766
23,Autohaus Fischer,"Kurmainzer Straße 107, 65936 Frankfurt am Main",65936,50.11324,8.55451
25,Autohaus Hessengarage Niederl. Galluswarte,"Camberger Straße 21, 60327 Frankfurt am Main",60327,50.10259,8.6454
26,Autohaus Hans Saturski,"Mainzer Landstraße 272-274, 60326 Frankfurt am Main",60326,50.1027,8.63963
27,Autohaus Gutleut Inh. T. Plasecki u. Julian Nemeczek,"Gutleutstraße 294, 60327 Frankfurt am Main",60327,50.09757,8.64669
8,Autohaus Schwanzl,"Großer Hasenpfad 20, 60598 Frankfurt am Main",60598,50.09694,8.68636
13,Autohaus Kaross,"Mörfelder Landstraße 10, 60598 Frankfurt am Main",60598,50.10083,8.69023
15,Autohaus Brass Frankfurt,"Hanauer Landstraße 263-26, 60314 Frankfurt am Main",60314,50.11308,8.69805
18,Autohaus B. Bornhütter,"Darmstädter Landstraße 102, 60598 Frankfurt am Main",60598,50.09779,8.69022
31,Autohaus Ost Inh. Günter Thurmann,"Hagenstraße 4, 60314 Frankfurt am Main",60314,50.11041,8.71006
0,Autohaus Feldmoching,"Feldmochinger Straße 378, 80995 München",80995,48.21245,11.52917
1,Autohaus Schwanthalerhöhe,"Ligsalzstraße, 80339 München",80339,48.13636,11.54273
2,Autohaus Pasing,"Bodenseestraße 40, 81243 München",81243,48.14701,11.45139
3,Autohaus Diermeier,"Pasteurstraße 5, 80999 München",80999,48.2006,11.45932
4,Autohaus Soucek,80807 München,80807,48.18822,11.5793
5,Autohaus Liess,"Bodenseestraße 81, 81243 München",81243,48.14546,11.4456
6,Autohaus Haug,"Heerstraße 2, 81247 München",81247,48.17086,11.48151
7,Autohaus Seizinger,"Bodenseestraße 71, 81243 München",81243,48.14554,11.44655
8,Autohaus Seizinger,"Bodenseestraße 71, 81243 München",81243,48.14554,11.44655
9,Autohaus Wieser,"Tannenfleckweg 4, 81249 München",81249,48.19428,11.40017
10,Autohaus Liess,"Bodenseestraße 81, 81243 München",81243,48.14546,11.4456
12,Autohaus Liess,"Bodenseestraße 81, 81243 München",81243,48.14546,11.4456
13,Autohaus Liess,"Bodenseestraße 81, 81243 München",81243,48.14546,11.4456
14,Autohaus Pasing-Am,"Bodenseestraße 40, 81243 München",81243,48.14701,11.45139
15,Autohaus Spratter,"Bodenseestraße 277, 81249 München",81249,48.14181,11.41964
16,Autohaus Avalon München,"Nymphenburger Straße 81, 80636 München",80636,48.15009,11.54452
17,Autohaus Forster,"Lerchenstraße 20, 80995 München",80995,48.20299,11.54379
18,Autohaus Spratter,"Bodenseestraße 277, 81249 München",81249,48.14181,11.41965
19,Autohaus Muench,"Bergsonstraße 171, 81245 München",81245,48.16032,11.41975
20,Autohaus Furtmayr,"Pelkovenstraße 37, 80992 München",80992,48.18156,11.51331
21,Autohaus Leopard,"Peter-Anders-Straße 11, 81245 München",81245,48.15335,11.47875
22,Autohaus Stern,"Eversbuschstraße 206a, 80999 München",80999,48.20203,11.45751
23,Autohaus E. Hoppe,"Allacher Straße 250-252, 80999 München",80999,48.18183,11.46512
24,Georgi Georgiev Autohaus,"Bodenseestraße 146, 81243 München",81243,48.14439,11.43469
25,Autohaus E. Hoppe,"Allacher Straße 252, 80999 München",80999,48.18188,11.46492
26,Autohaus Ernst Wieser,"Landsberger Straße 216b, 80687 München",80687,48.14193,11.51522
27,Autohaus Feldmoching Kfz und Immobilien,"Lerchenauer Straße 309, 80995 München",80995,48.21252,11.52983
28,Autohaus Cl West,"Sankt-Johann-Straße 23, 80999 München",80999,48.19131,11.46121
29,Autohaus Avalon München Jaguar House München,"Nymphenburger Straße 81, 80636 München",80636,48.15009,11.54452
30,Auto Schmid - Zweigniederlassung der Autohaus MKM Huber,"Landsberger Straße 432, 81241 München",81241,48.1455,11.47416
31,Auto Auch - Zweigniederlassung der Autohaus MKM Huber,"Hufelandstraße 31, 80939 München",80939,48.19308,11.58226
32,Auto Grasmaier Freie Werkstatt,"Waisenhausstraße 44, 80637 München",80637,48.16176,11.52959
3,Autohaus Saggio,"Zamdorfer Straße 86, 81677 München",81677,48.13833,11.64085
4,Autohaus Burgstaller,"Sensburger Straße 5, 81929 München",81929,48.14772,11.64129
5,Autohaus Burgstaller,"Sensburger Straße 5, 81929 München",81929,48.14769,11.64128
7,Autohaus Mükra,"Zamdorfer Straße 90, 81677 München",81677,48.13856,11.64291
8,Autohaus Burgstaller,"Posener Platz 4, 81929 München",81929,48.14806,11.64136
11,Kroymans Autohaus Riem,"Sigmund-Riefler-Bogen 1, 81829 München",81829,48.13481,11.71353
13,"Autohaus Soucek, Inh. Miroslav Soucek","Frankfurter Ring 143, 80807 München",80807,48.18814,11.59091
14,Autohaus Soucek Inh. Miroslav Soucek,"Frankfurter Ring 143, 80807 München",80807,48.1881,11.5909
15,Autohaus Soucek Inh. Miroslav Soucek,"Frankfurter Ring 143, 80807 München",80807,48.1881,11.5909
16,"Autohaus Soucek, Inh. Miroslav Soucek","Frankfurter Ring 143, 80807 München",80807,48.18814,11.59091
2,Autohaus,"Albert-Roßhaupter-Straße 105, 81369 München",81369,48.11444,11.52263
5,Autohaus Riedel,"Wolfratshauser Straße 100, 81379 München",81379,48.0912,11.53808
6,Autohaus Amrhein,"Machtlfinger Straße 12, 81379 München",81379,48.09605,11.51341
7,Autohaus Rauchwald,"Großhaderner Straße 29, 81375 München",81375,48.11974,11.48049
9,Autohaus Christl,"Filchnerstraße 86-88, 81476 München",81476,48.0878,11.49862
11,Autohaus Graf,"Gautinger Straße 25, 81475 München",81475,48.08515,11.47834
12,Autohaus Fürstenried,"Steinkirchner Straße 24, 81475 München",81475,48.08788,11.48056
13,Autohaus Laim,"Irschenhauser Straße 18, 81379 München",81379,48.09891,11.5387
14,Autohaus Christl,"Filchnerstraße 86, 81476 München",81476,48.08846,11.49888
18,Autohaus Christl,"Filchnerstraße 86, 81476 München",81476,48.08846,11.49888
19,Autohaus Haberl,"Albert-Roßhaupter-Straße 105, 81369 München",81369,48.11444,11.52263
20,Autohaus Holzmüller,"Schubertstraße 6, 80336 München",80336,48.13124,11.55462
22,Autohaus Christl & Schowalter,"Filchnerstraße 86-88, 81476 München",81476,48.08863,11.499
23,Autohaus Christl & Schowalter,"Filchnerstraße 86, 81476 München",81476,48.08846,11.49888
24,Autohaus Alfred Nawrath,"Hans-Preißinger-Straße 8, 81379 München",81379,48.11066,11.55346
25,Autohaus Christl & Schowalter,"Filchnerstraße 86, 81476 München",81476,48.088,11.49881
26,Autohaus am Goetheplatz,"Lindwurmstraße 20-24, 80337 München",80337,48.12905,11.55688
28,Autohaus Ralf Major,"Großhaderner Straße 46, 81375 München",81375,48.12082,11.48195
29,Autohaus Westend Gossler,"Westendstraße 219, 80686 München",80686,48.13106,11.51943
30,Autohaus Westend Gossler,"Westendstraße 219, 80686 München",80686,48.13106,11.51943
31,Volvo Autohaus Am Goetheplatz,"Lindwurmstraße 20-24, 80337 München",80337,48.12902,11.55712
32,Autohaus Westend Goßler,"Westendstraße 219, 80686 München",80686,48.13106,11.51943
33,Autohaus Westend Gossler,"Westendstraße 219, 80686 München",80686,48.13106,11.51943
34,Autohaus Westend Gossler,"Westendstraße 219, 80686 München",80686,48.13106,11.51943
3,Autohaus Werndl,"Haager Straße 5, 81671 München",81671,48.12694,11.60849
7,Autohaus Luzzi & Luzzi,"Wasserburger Landstraße 86, 81827 München",81827,48.11796,11.68526
8,Autohaus Werndl,"Haager Straße 9, 81671 München",81671,48.12642,11.60928
9,Autohaus Luzzi & Luzzi,"Wasserburger Landstraße 86, 81827 München",81827,48.11842,11.68351
10,Autohaus Baumgartner,"Waldschulstraße 49, 81827 München",81827,48.10764,11.69595
11,Autohaus Luzzi & Luzzi,"Wasserburger Landstraße 86, 81827 München",81827,48.11796,11.68526
14,Autohaus Werndl,"Haager Straße 5, 81671 München",81671,48.12694,11.6085
15,Autohaus Gehrhard,"Sankt-Martin-Straße 88, 81541 München",81541,48.11905,11.59883
18,Autohaus Luzzi & Luzzi,"Stahlgruberring 9, 81829 München",81829,48.13295,11.66597
19,Autohaus Kuttendreier,"Drosselweg 21, 81827 München",81827,48.11838,11.69462
20,Autohaus Werndl,"Haager Straße 5, 81671 München",81671,48.12694,11.6085
23,Mazda Autohaus Lotspeich,"Fasangartenstraße 97, 81549 München",81549,48.08966,11.61205
24,Autohaus HAPPY MOTORS,"Herbert-Quandt-Straße 4, 81549 München",81549,48.102,11.5994
26,Autohaus Gebrüder Praxl,"Putzbrunner Straße 260, 81739 München",81739,48.08476,11.67543
27,Autohaus Happy Motors,"Herbert-Quandt-Straße 4, 81549 München",81549,48.10237,11.59988
