,name,address,postcode,latitude,longitude
1,Euromobil Autovermietung,"Wittestraße 28, 13509 Berlin",13509,52.5815,13.29301
2,Mietwagen in Berlin Tegel Abholen Buchbinder,"E26, 13405 Berlin",13405,52.55942,13.30962
4,Robben & Wientjes,"Scharnweberstraße 23, 13405 Berlin",13405,52.56491,13.3258
7,Mercedes-Benz Niederlassung Berlin,"Holzhauser Straße 11, 13509 Berlin",13509,52.5775,13.29631
8,Volkswagen Automobile Berlin,"Berliner Straße 68, 13507 Berlin",13507,52.58207,13.29081
9,Autovermietung Und Hausmeisterservice,"Eichborndamm 6, 13403 Berlin",13403,52.56864,13.31241
0,Autohaus Wulf,"Alt-Blankenburg 71B, 13129 Berlin",13129,52.59447,13.46121
1,Autohaus Grzenkowski,"Hauptstraße 16, 13127 Berlin",13127,52.60604,13.43275
2,Starcar,"Prenzlauer Promenade 43, 13089 Berlin",13089,52.56028,13.42919
3,SEAT Deutschland Niederlassung Berlin,"Nachtalbenweg 61, 13088 Berlin",13088,52.56628,13.47039
4,Hans Laatzig Automobile,"Eichhorster Weg 91, 13435 Berlin",13435,52.60294,13.3349
5,SEAT Deutschland Niederlassung,"Prenzlauer Promenade 46, 13089 Berlin",13089,52.5616,13.42822
6,Sixt Autovermietung Berlin Nord/Reinickendorf,"Scharnweberstraße 140, 13405 Berlin",13405,52.56273,13.32979
7,Enterprise Rent-a-Car,"Kapweg 3, 13405 Berlin",13405,52.56216,13.32974
8,RENT a Vision,"Provinzstraße 24, 13409 Berlin",13409,52.56399,13.37819
9,Europcar Berlin,"Kapweg 4, 13405 Berlin",13405,52.56213,13.33031
10,Hertz,13156 Berlin,13156,52.58458,13.41805
11,Autohaus Thomas Kapinsky,"Blankenburger Straße 95, 13089 Berlin",13089,52.57327,13.44399
12,VW Fs Rent-a-Car-Berlin Pankow,"Berliner Straße 100, 13189 Berlin",13189,52.56207,13.41337
13,Autovermietung Von Oldtimern Und Fahrzeughandel,"Buchholzer Straße 36-43, 13156 Berlin",13156,52.59139,13.41937
0,Enterprise Rent-a-Car,"Heilbronner Straße 1, 10711 Berlin",10711,52.50008,13.29097
1,Autohaus Berolina,"Brunsbütteler Damm 50, 13581 Berlin",13581,52.53458,13.18933
2,Friedrich Thiele,"Sophie-Charlotten-Straße 7, 14059 Berlin",14059,52.52169,13.28483
3,Sixt Autovermietung,"Huttenstraße 50, 10553 Berlin",10553,52.52771,13.3217
4,Europcar Berlin Tegel,13405 Berlin,13405,52.55232,13.29316
5,Europa Service,"Am Juliusturm 2-6, 13599 Berlin",13599,52.5388,13.23102
6,Audi Zentrum Berlin-Spandau,"Brunsbütteler Damm 40, 13581 Berlin",13581,52.53443,13.19209
7,Avis Klosterstraße,"Klosterstraße 31, 13581 Berlin",13581,52.53126,13.19725
8,Avis Deutschland,"Brunsbütteler Damm 82, 13581 Berlin",13581,52.53439,13.18587
9,Mercedes-Benz Niederlassung Berlin,"Seeburger Straße 27, 13581 Berlin",13581,52.5275,13.18357
10,Volkswagen Automobile Berlin,"Am Juliusturm 10, 13599 Berlin",13599,52.53844,13.22913
11,Berlin Nutzfahrzeuge,"Am Güterbahnhof Halensee 9, 10711 Berlin",10711,52.49277,13.29331
12,Enterprise Rent-a-Car,13405 Berlin,13405,52.55215,13.29314
13,Autohaus Berolina,"Charlottenburger Chaussee 3, 13597 Berlin",13597,52.52483,13.24442
14,Starcar,"Wilhelmstraße 1, 13595 Berlin",13595,52.52872,13.19497
15,Mercedes-Benz Niederlassung Berlin,"Salzufer 1, 10587 Berlin",10587,52.51495,13.32916
16,VW Fs Rent-a-Car-Berlin Charlottenburg Im Audi Zentrum Berlin,"Franklinstraße 24, 10587 Berlin",10587,52.52021,13.32685
17,Sixt,"Kaiserdamm 37, 14057 Berlin",14057,52.50991,13.27569
18,MY Perfect Drive,"Adam-von-Trott-Straße 10, 13627 Berlin",13627,52.5469,13.30917
19,Hertz Autovermietung,"Kaiserdamm 25a, 14057 Berlin",14057,52.51029,13.28148
20,Enterprise Rent-a-Car-Berlin-Bahnhof Zoologischer Garten,"Hardenbergstraße 25, 10623 Berlin",10623,52.50649,13.33092
21,Sixt Autovermietung Berlin Spandau,"Moritzstraße 9c, 13597 Berlin",13597,52.53836,13.20187
22,Europcar Berlin Charlottenburg,"Bismarckstraße 42, 10627 Berlin",10627,52.51181,13.30614
23,Sixt Autovermietung Berlin Messe/BMW,"Kaiserdamm 90, 14057 Berlin",14057,52.50972,13.28263
24,National Car Rental,13405 Berlin,13405,52.5523,13.29318
25,Volkswagen Automobile Berlin Betrieb Skoda Centrum Berlin,"Beusselstraße 32, 10553 Berlin",10553,52.53054,13.32887
26,VW Fs Rent-a-Car,"Franklinstraße 5, 10587 Berlin",10587,52.51886,13.32656
27,Sixt Autovermietung Berlin Bahnhof Spandau,"Seegefelder Straße, 13597 Berlin",13597,52.53466,13.19709
28,Europa Service,"Wilhelmstraße 1, 13595 Berlin",13595,52.52872,13.19497
29,Autohaus Berolina,"Cicerostraße 34, 10709 Berlin",10709,52.49063,13.30122
30,Europcar Berlin Spandau,"Seegefelder Straße 16, 13597 Berlin",13597,52.53557,13.19573
31,Nagel Autovermietung,"Bundesallee 176, 10715 Berlin",10715,52.48642,13.33155
32,Volkswagen Automobile Berlin,"Franklinstraße 5, 10587 Berlin",10587,52.51886,13.32656
33,Volkswagen Automobile Berlin Betrieb Skoda Centrum Berlin,"Karlsruher Straße 32/33, 10711 Berlin",10711,52.49926,13.29435
34,Berlin Spandau Bahnhof Zustellung,"Seegefelder Straße 16, 13597 Berlin",13597,52.53557,13.19573
35,Mietcar Autovermietung,"Spandauer Damm 106, 14059 Berlin",14059,52.51869,13.28146
36,Allround Autovermietung - Charlottenburg,"Kaiser-Friedrich-Straße 86, 10585 Berlin",10585,52.51404,13.30137
37,Autovermietung Westo,"Brunsbütteler Damm 134, 13581 Berlin",13581,52.53408,13.17818
38,Gerald's Garage Und Autovermietung,"Neuendorfer Straße 64, 13585 Berlin",13585,52.55327,13.20782
39,Perfect-Cars24 Autovermietung,"Kantstraße 75, 10627 Berlin",10627,52.50697,13.29857
40,Drive Wild Autovermietung Berlin,"Geißlerpfad 1, 13627 Berlin",13627,52.53905,13.27917
41,Allround Autovermietung Herman Weisner,"Am Juliusturm 2-6, 13599 Berlin",13599,52.5388,13.23102
0,Hertz,"Berliner Straße 5, 10715 Berlin",10715,52.48794,13.33389
1,Sixt Berlin Bahnhof Ostkreuz,"Sonntagstraße 37, 10245 Berlin",10245,52.50478,13.46653
2,Flinkster,"Schönhauser Allee 80, 10439 Berlin",10439,52.55,13.41424
3,Hertz Karl-Marx-Straße,"Karl-Marx-Straße 196, 12055 Berlin",12055,52.47304,13.44076
4,Robben & Wientjes,"Prenzlauer Allee 96, 10409 Berlin",10409,52.54724,13.42917
5,Andreas Witt,"Strausberger Straße 1,2, 13055 Berlin",13055,52.5389,13.49128
6,Flinkster Bellevue,"Bartningallee, 10557 Berlin",10557,52.52,13.34809
7,Hertz Herzbergstraße,"Herzbergstraße 40-43, 10365 Berlin",10365,52.5265,13.49016
8,Sixt Berlin Bahnhof Friedrichstraße,"Georgenstraße 14/17, 10117 Berlin",10117,52.51958,13.38811
9,Europcar,"Alexanderplatz 8, 10178 Berlin",10178,52.5233,13.41229
10,Trabi-Safari/Trabi-World,"Zimmerstraße 97, 10117 Berlin",10117,52.50854,13.3876
11,Mercedes-Benz Niederlassung Berlin,"Rhinstraße 100-120, 12681 Berlin",12681,52.52925,13.51945
12,Sixt,"Tamara-Danz-Straße 11, 10243 Berlin",10243,52.50573,13.44543
13,Sixt Autovermietung Berlin Gendarmenmarkt/Hilton,"Mohrenstraße 30, 10117 Berlin",10117,52.51216,13.39281
14,Sixt Berlin Lichtenberg,"Herzbergstraße 87-99, 10365 Berlin",10365,52.52631,13.50475
15,Mietwagen Berlin Kronenstraße Autovermietung Buchbinder,"Kronenstraße 18, 10117 Berlin",10117,52.51116,13.39107
16,Sixt,"Bornholmer Straße 3, 10439 Berlin",10439,52.55413,13.41341
17,Audi Berlin,"Josef-Orlopp-Straße 59-65, 10365 Berlin",10365,52.52309,13.49218
18,Sixt,"Tieckstraße 18-19, 10115 Berlin",10115,52.52991,13.3909
19,SEAT Deutschland Niederlassung,"Unter den Linden 21, 10117 Berlin",10117,52.51676,13.38985
20,Buchbinder Rent-A-Car,10369 Berlin,10369,52.53978,13.47002
21,Budget,"Budapester Straße 43, 10787 Berlin",10787,52.50523,13.34005
22,Hertz,"Budapester Straße 39, 10787 Berlin",10787,52.5052,13.34042
23,Avis Deutschland,"Kronenstraße 16, 10117 Berlin",10117,52.51111,13.3905
24,Europcar,"Kurfürstenstraße 101, 10787 Berlin",10787,52.50473,13.34165
25,Cleancars-24,"Seestraße 63A, 13347 Berlin",13347,52.55287,13.35751
26,Extra-Tour Kleinbusvermietung,"Salzwedeler Straße 6, 10559 Berlin",10559,52.5338,13.34472
27,Enterprise Rent-a-Car,"Friedrichstraße 200, 10117 Berlin",10117,52.50912,13.38983
28,Schuler Eisner,"Schloßplatz 2, 10178 Berlin",10178,52.51667,13.4
29,Sixt Berlin Ostbahnhof,"Am Ostbahnhof 9, 10243 Berlin",10243,52.51113,13.43126
30,Avis Landsberger Allee,"Landsberger Allee 366, 12681 Berlin",12681,52.53519,13.51792
31,VW Fs Rent-a-Car,"Josef-Orlopp-Straße 59-65, 10365 Berlin",10365,52.52359,13.49129
32,Enterprise Rent-a-Car-Berlin-Pankow,"Langhansstraße 46, 13086 Berlin",13086,52.55268,13.43948
33,Mietwagen in Berlin Lichtenberg bei Autovermietung Buchbinder,"Siegfriedstraße 64, 10365 Berlin",10365,52.52589,13.50006
34,Buchbinder Berlin Lichtenberg,"Weißenseer Weg 65, 13053 Berlin",13053,52.54005,13.46978
35,Sixt,"Grunerstraße 5, 10179 Berlin",10179,52.51887,13.41094
36,Avis Tiergarten,"Budapester Straße 41, 10787 Berlin",10787,52.50504,13.33898
37,Hertz,"Am Ostbahnhof 9, 10243 Berlin",10243,52.50962,13.43458
38,Andreas Witt,"Strausberger Straße 1 u, 13055 Berlin",13055,52.54169,13.48789
39,Hertz,"Siegfriedstraße 168, 10365 Berlin",10365,52.52507,13.49936
40,Hertz,"Europaplatz 1, 10557 Berlin",10557,52.52569,13.36846
41,Robben & Wientjes,"Siegfriedstraße 64, 10365 Berlin",10365,52.52589,13.50006
42,Buchbinder Autovermietung,"Kronenstraße 54, 10117 Berlin",10117,52.5112,13.39113
43,Sixt Autovermietung Berlin Bahnhof Zoo,"Hardenbergplatz 11, 10623 Berlin",10623,52.50808,13.33333
44,Autohaus Ostkreuz,"Markgrafendamm 7-9, 10245 Berlin",10245,52.49886,13.46568
45,Europcar Berlin Ostbahnhof,"Straße der Pariser Kommune 5, 10243 Berlin",10243,52.50944,13.43569
46,Avis Holzmarktstraße,"Holzmarktstraße 15-18, 10179 Berlin",10179,52.51324,13.42331
47,Sixt,"Leipziger Straße 104, 10117 Berlin",10117,52.51043,13.38917
48,Hertz Autovermietung,"Friedrichstraße 50-55, 10117 Berlin",10117,52.50933,13.39006
49,Mietwagen in Berlin West bei Autovermietung Buchbinder,"Budapester Straße 39, 10787 Berlin",10787,52.5052,13.34042
50,Sixt,"Herzbergstraße 87-99, 10365 Berlin",10365,52.52629,13.50028
51,Europa Service,"Schillstraße 9, 10785 Berlin",10785,52.50422,13.35057
52,Buchbinder Berlin City West,"Kurfürstenstraße 101, 10787 Berlin",10787,52.50473,13.34165
53,Alamo-Berlin-Mitte,"Friedrichstraße 200, 10117 Berlin",10117,52.50912,13.38983
54,Europcar,"Siegfriedstraße 49-60, 10365 Berlin",10365,52.52385,13.5002
55,Avis Seestraße,"Seestraße 18-19, 13353 Berlin",13353,52.54616,13.3446
56,Starcar Berlin-Tiergarten,"Schillstraße 10, 10785 Berlin",10785,52.50388,13.35019
57,Sixt Berlin Bahnhof Südkreuz,"General-Pape-Straße 1, 12101 Berlin",12101,52.47554,13.36538
58,Trabi Safari Berlin,"Marksburgstraße 57, 10318 Berlin",10318,52.48658,13.52793
59,Budget Autovermietung,"Kronenstraße 16, 10117 Berlin",10117,52.51111,13.3905
60,Hässliches Entlein Autovermietung,"Lietzenburger Straße 29, 10789 Berlin",10789,52.49906,13.33582
61,Sixt Autovermietung Berlin Brandenburger Tor/Adlon,"Unter den Linden 77, 10117 Berlin",10117,52.51611,13.38001
62,Sixt,"Hausvogteiplatz 2, 10117 Berlin",10117,52.51334,13.39628
63,Mercedes-Benz Niederlassung Berlin,"Prinzessinnenstraße 21-24, 10969 Berlin",10969,52.50216,13.41332
64,Sixt Autovermietung Berlin Hohenschönhausen,"Landsberger Allee 201-205, 13055 Berlin",13055,52.5334,13.47674
65,Trabant Berlin,"Wiesenweg 4, 10365 Berlin",10365,52.50774,13.47487
66,Sixt Berlin Hauptbahnhof,"Europaplatz 1, 10557 Berlin",10557,52.52602,13.36863
67,Buchbinder Budapester,"Budapester Straße, 10787 Berlin",10787,52.50528,13.34069
68,Avis Deutschland,"Budapester Straße 43, 10787 Berlin",10787,52.50523,13.34005
69,Sixt,"Budapester Straße 45, 10787 Berlin",10787,52.50487,13.33846
70,Sixt Autovermietung Berlin Ostbahnhof,"Am Ostbahnhof 9, 10243 Berlin",10243,52.50962,13.43458
71,Hertz Spandauer Straße,"Spandauer Straße 5, 10178 Berlin",10178,52.52011,13.40423
72,Europcar,"Europaplatz 1, 10557 Berlin",10557,52.52569,13.36846
73,Sixt,"Badstraße 1-3, 13357 Berlin",13357,52.5495,13.38723
74,Enterprise Rent-a-Car-Berlin-Marzahn,"Meeraner Straße 1, 12681 Berlin",12681,52.52888,13.52042
75,Sixt Berlin Friedrichshain/Treptow,"Martin-Hoffmann-Straße 16, 12435 Berlin",12435,52.49501,13.46072
76,Autovermietung Akorli,"Transvaalstraße 3, 13351 Berlin",13351,52.55388,13.34419
77,Aniso Autovermietung,"Adalbertstraße 35, 10179 Berlin",10179,52.50702,13.42361
78,Cae-Line Autovermietung,"Gneisenaustraße 16, 10961 Berlin",10961,52.49166,13.39235
79,Easy Royale Autovermietung,"Sonnenallee 101, 12045 Berlin",12045,52.48217,13.43958
80,1500 Ps Autovermietung,"Potsdamer Platz 1, 10785 Berlin",10785,52.50925,13.37577
0,Hertz,"Märkische Allee 161, 12681 Berlin",12681,52.53272,13.53632
1,Hertz,"Alt-Mahlsdorf 26, 12623 Berlin",12623,52.50525,13.61263
2,VW Fs Rent-a-Car-Berlin Marzahn,"Marzahner Chaussee 234, 12681 Berlin",12681,52.53081,13.53164
3,Europcar Berlin Hellersdorf,"Fritz-Lang-Platz 6, 12627 Berlin",12627,52.53778,13.60238
4,ASB Autohaus Berlin,"Marzahner Chaussee 234, 12681 Berlin",12681,52.53081,13.53164
7,Europa Service,"Märkische Allee 155, 12681 Berlin",12681,52.53181,13.53632
0,Avis Deutschland,"Albrechtstraße 103, 12167 Berlin",12167,52.45346,13.33082
1,Enterprise Rent-a-Car-Berlin Zehlendorf,"Lausanner Straße 83, 12205 Berlin",12205,52.42702,13.30368
2,Riller & Schnauck Mietme Autovermietung Berlin,"Hindenburgdamm 68, 12203 Berlin",12203,52.45201,13.31503
3,VW Fs Rent-a-Car-Berlin Zehlendorf,"Goerzallee 251, 14167 Berlin",14167,52.4162,13.28264
4,Europcar Berlin Steglitz,"Albrechtstraße 27, 12167 Berlin",12167,52.45345,13.33009
5,Volkswagen Automobile Berlin,"Goerzallee 251, 14167 Berlin",14167,52.4162,13.28264
6,VW Fs Rent-a-Car-Berlin Zehlendorf,"Beeskowdamm 2, 14167 Berlin",14167,52.40994,13.27288
8,Audi Berlin,"Beeskowdamm 2, 14167 Berlin",14167,52.40994,13.27288
9,Sixt,"Schloßstraße 79, 12165 Berlin",12165,52.4556,13.32007
11,Hertz,"Unter den Eichen 71-73, 12203 Berlin",12203,52.44511,13.29068
12,Hertz,"Am Stichkanal 1-11, 14167 Berlin",14167,52.41358,13.28661
13,Volkswagen Automobile Berlin Betrieb Zehlendorf-Mitte,"Charlottenburger Straße 6, 14169 Berlin",14169,52.43626,13.26501
0,Mietwagen in Berlin Mariendorf bei Autovermietung Buchbinder,"Mariendorfer Damm 197-199, 12107 Berlin",12107,52.43324,13.3912
1,Starcar,12357 Berlin,12357,52.42488,13.5184
2,Helmut Gorsler,"Tempelhofer Weg 44-48, 12347 Berlin",12347,52.45532,13.42888
3,Automobile Libera,"Säntisstraße 51-57, 12277 Berlin",12277,52.41938,13.38969
4,Autohaus Berolina,"Mariendorfer Damm 169-171, 12107 Berlin",12107,52.43686,13.3887
6,Enterprise Rent-a-Car-Berlin-Mariendorf,"Alt-Mariendorf 19-21, 12107 Berlin",12107,52.44059,13.39124
8,Willi Britsch,"Grenzallee 100, 12057 Berlin",12057,52.46437,13.44603
9,Audi Berlin,"Rudower Chaussee 47, 12489 Berlin",12489,52.42817,13.52121
14,VW Fs Rent-a-Car Berlin Tempelhof,"Oberlandstraße 40-41, 12099 Berlin",12099,52.46432,13.40434
16,Volkswagen Automobile Berlin Betrieb Tempelhof,"Attilastraße 36-41, 12105 Berlin",12105,52.44967,13.36685
17,Europa Service,"Ullsteinstraße 53-55, 12109 Berlin",12109,52.45287,13.39897
18,Klaus Piontek,"Waltersdorfer Chaussee 18-20, 12355 Berlin",12355,52.41463,13.49902
19,VW Fs Rent-a-Car-Berlin Tempelhof,"Richard-Tauber-Damm 48, 12277 Berlin",12277,52.41457,13.39211
22,Sixt Autovermietung Berlin Tempelhof,"Mariendorfer Damm 8, 12109 Berlin",12109,52.45238,13.38422
25,Dollar Rent-a-Car,"Gottlieb-Dunkel-Straße 43-44, 12099 Berlin",12099,52.45634,13.41106
26,Autohaus Berolina,"Ringstraße 50, 12105 Berlin",12105,52.44246,13.37748
29,Audi Berlin,"Richard-Tauber-Damm 48, 12277 Berlin",12277,52.41457,13.39211
33,Avis Deutschland,"Karl-Marx-Straße 264, 12057 Berlin",12057,52.46533,13.44225
34,Rent-a-Car,"Rudower Chaussee 47, 12489 Berlin",12489,52.42817,13.52121
35,Volkswagen Automobile Berlin,"Oberlandstraße 36-41, 12099 Berlin",12099,52.46366,13.40447
36,Europcar,"Karl-Marx-Straße 260, 12057 Berlin",12057,52.46558,13.44202
38,Mercedes-Benz Niederlassung Berlin,"Daimlerstraße 165, 12277 Berlin",12277,52.42575,13.37556
42,Bocars Autovermietung,"Bismarckstraße 17, 12169 Berlin",12169,52.45609,13.33875
43,Autovermietung Am Stadtpark,"Albrechtstraße 41, 12167 Berlin",12167,52.45067,13.33651
44,Autovermietung Petra Rabe,"Sondershauser Straße 69, 12249 Berlin",12249,52.41836,13.34245
0,Hertz,"Adlergestell 327/331, 12489 Berlin",12489,52.42892,13.55142
1,Hertz,"Am Studio 87, 12489 Berlin",12489,52.42697,13.54547
2,Enterprise Rent-a-Car-Berlin-Adlershof,"Am Studio 10, 12489 Berlin",12489,52.42665,13.54483
3,Auto-Adler,"Wendenschloßstraße 290, 12557 Berlin",12557,52.42973,13.58376
4,Sixt Auto-und Transportervermietung Berlin Adlershof,"Rudower Chaussee 11/13, 12489 Berlin",12489,52.43241,13.53599
2,Hertz,"Wunderbrunnen 1, 22457 Hamburg",22457,53.64835,9.92784
4,Auto Wichert,"Holsteiner Chaussee 190, 22457 Hamburg",22457,53.62566,9.90982
9,Star Event Service Cadillac - Vermietung Mit Fahrer Autovermietung Mit Chauffeur,"Hornackswisch 4, 22523 Hamburg",22523,53.60974,9.90343
0,Hertz,"Kurveneck, 22335 Hamburg",22335,53.63549,10.01731
1,Avis Car Pickup,22335 Hamburg,22335,53.63097,10.00666
3,Avis Hamburg Airport,"Flughafenstraße, 22335 Hamburg",22335,53.63112,10.00618
4,Sixt Hamburg Flughafen,"Flughafenstraße 1, 22335 Hamburg",22335,53.62951,10.00496
6,Sixt Share,"Flughafenstraße 1-3, 22335 Hamburg",22335,53.63418,10.00794
7,Enterprise Rent-a-Car,22335 Hamburg,22335,53.63557,10.00526
11,Petschallies Sasel,"Volksdorfer Weg 192, 22393 Hamburg",22393,53.64488,10.12942
12,Petschallies NFA,"Volksdorfer Weg 182, 22393 Hamburg",22393,53.64435,10.12636
13,Rental Car Return,22335 Hamburg,22335,53.62953,10.00781
14,Interrent Hamburg OFF Airport,"Weg beim Jäger 208, 22335 Hamburg",22335,53.6229,10.00639
15,VW Fs Rent-a-Car-Hamburg Fuhlsbüttel,"Röntgenstraße 50, 22335 Hamburg",22335,53.62323,10.01828
17,Mietwagen in Hamburg am Flughafen Mieten Buchbinder,22335 Hamburg,22335,53.62832,10.00582
19,Auto Wichert,"Stockflethweg 30, 22417 Hamburg",22417,53.67938,10.00424
20,Sixt Hamburg Airport,"Flughafenstraße, 22335 Hamburg",22335,53.63122,10.00617
21,Volkswagen Automobile Hamburg,"Röntgenstraße 50, 22335 Hamburg",22335,53.62361,10.01825
22,Starcar,"Langenhorner Chaussee 475, 22419 Hamburg",22419,53.66603,10.00098
23,Parkdeck Car2go/Drive-Now/Miles,"Flughafenstraße, 22335 Hamburg",22335,53.63278,10.00647
24,Nord-Ostsee Automobile,"Poppenbütteler Weg 5, 22339 Hamburg",22339,53.64938,10.03469
25,Hamburg Flughafen,"Flughafenstraße 1, 22335 Hamburg",22335,53.6289,10.00785
26,Car Return Avis,22335 Hamburg,22335,53.62959,10.00684
27,Europcar Hamburg Airport,"Flughafenstraße 5, 22335 Hamburg",22335,53.631,10.00616
28,Sixt,"Heegbarg 6, 22391 Hamburg",22391,53.65282,10.09284
29,Budget Hamburg Airport,"Flughafenstraße, 22335 Hamburg",22335,53.63133,10.00618
30,Petschallies Poppenbüttel,"Poppenbüttler Hauptstraße 13, 22399 Hamburg",22399,53.66228,10.08669
31,Hertz,"Poppenbütteler Weg 15-21, 22339 Hamburg",22339,53.64966,10.03632
32,Europcar Hamburg Nord/Alstertal,"Heegbarg 31, 22391 Hamburg",22391,53.65392,10.09116
33,Mercedes-Benz Niederlassung Hamburg,"Kollaustraße 171, 22453 Hamburg",22453,53.61182,9.95447
35,Hertz,"Flughafenstraße 2, 22335 Hamburg",22335,53.63101,10.00629
36,Budget Autovermietung,"Flughafenstraße, 22335 Hamburg",22335,53.6332,10.00606
38,Auto Wichert,"Langenhorner Chaussee 666, 22419 Hamburg",22419,53.67837,10.00148
39,Enterprise Hamburg Airport,"Flughafenstraße, 22335 Hamburg",22335,53.63107,10.00617
2,Petschallies Volksdorf,"Eulenkrugstraße 59-61, 22359 Hamburg",22359,53.64753,10.1687
0,Auto Wichert,"Bornkampsweg 2-4, 22761 Hamburg",22761,53.5653,9.91891
1,Sixt,"Paul-Nevermann-Platz 15, 22765 Hamburg",22765,53.55213,9.93584
3,Enterprise Rent-a-Car,"Holstenkamp 42, 22525 Hamburg",22525,53.57152,9.92437
4,Europa Service,"Kieler Straße 397, 22525 Hamburg",22525,53.591,9.92982
7,Starcar,"Stresemannstraße 318, 22761 Hamburg",22761,53.56327,9.93018
8,Hertz Autovermietung,"Stresemannstraße, 22769 Hamburg",22769,53.56372,9.93568
9,Sixt,"Stresemannstraße 364, 22761 Hamburg",22761,53.56367,9.92219
12,Hertz,"Stresemannstraße 269, 22769 Hamburg",22769,53.5641,9.93617
13,VW Fs Rent-a-Car-Hamburg Elbvororte,"Rugenbarg 248, 22549 Hamburg",22549,53.58584,9.87149
14,Hertz,"Paul-Nevermann-Platz 15, 22765 Hamburg",22765,53.55213,9.93584
15,Willy Tiedtke,"Griegstraße 69, 22763 Hamburg",22763,53.55539,9.90995
16,Starcar Autovermietung,"Bornheide 8, 22549 Hamburg",22549,53.58363,9.85547
17,Hamburg Bahrenfeld Nutzfahrzeuge,"Bornkampsweg 60, 22761 Hamburg",22761,53.56733,9.91856
18,Europcar,"Bornkampsweg 60, 22761 Hamburg",22761,53.56733,9.91856
19,Avis Deutschland,"Stresemannstraße 269, 22769 Hamburg",22769,53.5641,9.93617
20,Audi Hamburg,"Rugenbarg 248, 22549 Hamburg",22549,53.58615,9.87038
21,Rudeloff Automobile,"Köterdamm 30, 21129 Hamburg",21129,53.52509,9.87833
22,Avr Autovermietung Rousseau,"Langenfelder Damm 65, 22525 Hamburg",22525,53.58088,9.93811
23,Red Cars Autovermietung,"Haydnstraße 6, 22761 Hamburg",22761,53.56647,9.90611
0,Avis Aral Tankstelle,"Wöhlerstraße 4, 22113 Hamburg",22113,53.5381,10.08348
1,Willy Tiedtke,"Friedrich-Ebert-Damm 118, 22047 Hamburg",22047,53.58746,10.09311
2,Buchbinder Autovermietung,"Amsinckstraße 43, 20097 Hamburg",20097,53.5467,10.01545
3,Hertz Autovermietung,"Eilbeker Weg 216, 22089 Hamburg",22089,53.574,10.0584
4,Europa Service,"Bramfelder Straße 40, 22305 Hamburg",22305,53.58433,10.04819
5,Hertz,"Baumeisterstraße 15, 20099 Hamburg",20099,53.55519,10.01025
6,Starcar,"Schiffbeker Weg 85, 22119 Hamburg",22119,53.54727,10.10648
7,Europa Service,"Kuehnstraße 91, 22045 Hamburg",22045,53.58062,10.12431
8,VW Fs Rent-a-Car-Hamburg Lokstedt,"Kollaustraße 41-63, 22529 Hamburg",22529,53.60343,9.96148
9,VW Fs Rent-a-Car-Hamburg Horn,"Horner Landstraße 40, 22111 Hamburg",22111,53.5517,10.07168
10,Hertz,"Theodor-Heuss-Platz 1, 20354 Hamburg",20354,53.56062,9.99017
11,Auto Wichert,"Hoheluftchaussee 153, 20253 Hamburg",20253,53.58499,9.96861
12,Hertz,"Unterer Landweg 77, 22113 Hamburg",22113,53.51318,10.09111
13,Audi Hamburg,"Kollaustraße 41-63, 22529 Hamburg",22529,53.60339,9.96183
14,Sixt Autovermietung,"Buchheisterstraße 16, 20457 Hamburg",20457,53.52933,9.96091
15,Enterprise Rent-a-Car-Hamburg-Eppendorf,"Borsteler Chaussee 13-15, 22453 Hamburg",22453,53.60386,9.98545
16,Willy Tiedtke,"Friedrich-Ebert-Damm 128, 22047 Hamburg",22047,53.58823,10.09641
17,Avis Drehbahn,"Drehbahn 15-25, 20354 Hamburg",20354,53.55655,9.98435
18,Sixt,"Hachmannplatz 16, 20099 Hamburg",20099,53.55408,10.00711
19,Buchbinder Hamburg,"Ahrensburger Straße 138-148, 22045 Hamburg",22045,53.58157,10.10715
20,Europcar Hamburg Winterhude,"Barmbeker Straße 158, 22299 Hamburg",22299,53.59393,10.00046
21,Sixt Autovermietung Hamburg,"Koppelstraße 49G, 22529 Hamburg",22529,53.59324,9.9452
22,Hertz,"Lawaetzweg 7, 22767 Hamburg",22767,53.55091,9.9425
23,Sixt,"Sorbenstraße 8, 20537 Hamburg",20537,53.54912,10.03863
24,Mercedes-Benz Niederlassung Hamburg,"Heidenkampsweg 96, 20097 Hamburg",20097,53.54491,10.03046
25,Willy Tiedtke,"Am Stadtrand 29, 22047 Hamburg",22047,53.58674,10.09965
26,Willy Tiedtke,"Charlottenburger Straße 63, 22045 Hamburg",22045,53.58196,10.13872
27,Mietwagen in Hamburg Hammerbrook bei Autovermietung Buchbinder,"Amsinckstraße 43, 20097 Hamburg",20097,53.5467,10.01545
28,Hamburg Cruise Center Hafencity,"Großer Grasbrook 19, 20457 Hamburg",20457,53.54039,9.99395
29,Mercedes-Benz Niederlassung Hamburg,"Friedrich-Ebert-Damm 115, 22047 Hamburg",22047,53.58869,10.09458
30,Enterprise Rent-a-Car,"Heidenkampsweg 84, 20097 Hamburg",20097,53.54546,10.02978
31,Sixt,"Großer Grasbrook, 20457 Hamburg",20457,53.54307,9.99482
32,SEAT Deutschland Niederlassung,"Osterfeldstraße 20, 22529 Hamburg",22529,53.5984,9.97496
33,Sixt,"Spaldingstraße 110, 20097 Hamburg",20097,53.54954,10.01795
34,Europa Service,"Adenauerallee 76, 20097 Hamburg",20097,53.55213,10.01151
35,HAMBURG CRUISE CENTER STEINWERDER,"Buchheisterstraße 14, 20457 Hamburg",20457,53.52726,9.96918
36,Europa Service,"Süderstraße 282, 20537 Hamburg",20537,53.54756,10.05082
37,Budget Deutschland,"Kirchenallee, 20099 Hamburg",20099,53.55321,10.007
38,Sixt,"Friedrich-Ebert-Damm 160A, 22047 Hamburg",22047,53.58854,10.09948
39,Volkswagen Automobile Hamburg,"Fruchtallee 53, 20259 Hamburg",20259,53.56973,9.95793
40,Hertz Im Hauptbahnhof,"Kirchenallee, 20099 Hamburg",20099,53.55309,10.00775
41,Avis,"Glockengießerwall, 20099 Hamburg",20099,53.55301,10.00629
42,Hamburg Hauptbahnhof,"Hachmannplatz 10, 20099 Hamburg",20099,53.55405,10.00698
43,Car2go,"Jungfernstieg 50, 20354 Hamburg",20354,53.5549,9.99001
44,Starcar,"Eiffestraße 580, 20537 Hamburg",20537,53.55147,10.05286
45,VW Fs Rent-a-Car-Hamburg Eimsbüttel,"Fruchtallee 29, 20259 Hamburg",20259,53.56944,9.95906
46,Starcar,"Jenfelder Allee 2, 22043 Hamburg",22043,53.57119,10.12514
47,Avis Hamburg Wandsbek,"Holstenhofweg 59, 22043 Hamburg",22043,53.57313,10.10521
48,Starcar,"Nedderfeld 70, 22529 Hamburg",22529,53.60103,9.97518
49,VW Fs Rent-a-Car-Hamburg Winterhude,"Wiesendamm 120, 22303 Hamburg",22303,53.58954,10.02307
50,Enterprise Rent-a-Car-Hamburg-Wandsbek,"Friedrich-Ebert-Damm 143/145, 22047 Hamburg",22047,53.58902,10.09758
51,Europa Service,"Nedderfeld 17B, 22529 Hamburg",22529,53.60323,9.96779
52,Europcar,"Brauhausstraße 24-28, 22041 Hamburg",22041,53.57216,10.06007
53,Volkswagen Automobile Hamburg,"Horner Landstraße 40, 22111 Hamburg",22111,53.5517,10.07168
54,Volkswagen Automobile Hamburg,"Wiesendamm 120, 22303 Hamburg",22303,53.58954,10.02307
55,Hertz Nedderfeld,"Nedderfeld 17b, 22529 Hamburg",22529,53.60336,9.9673
56,Sixt,"Millerntorplatz 1, 20359 Hamburg",20359,53.55039,9.96894
57,Auto Wichert,"Wendenstraße 156, 20537 Hamburg",20537,53.54892,10.03306
58,Europcar,"Rödingsmarkt 14, 20459 Hamburg",20459,53.54708,9.98546
59,Europa Service,"Mundsburger Damm 44, 22087 Hamburg",22087,53.56823,10.02433
60,Einfach-Mieten,"Manshardtstraße 78, 22119 Hamburg",22119,53.5581,10.10219
61,Hertz Walddörfer Straße,"Sylter Weg 416, 22047 Hamburg",22047,53.58867,10.10644
62,Switchh,"Beim Strohhause 38, 20097 Hamburg",20097,53.55308,10.02388
63,Avis Deutschland,"Eiffestraße 420, 20537 Hamburg",20537,53.55243,10.04465
64,Jurkoweit Autovermietung,"Harburger Chaussee 37, 20539 Hamburg",20539,53.52062,10.01001
65,Mobilcar Autovermietung,"Louise-Schroeder-Straße 16, 22767 Hamburg",22767,53.55129,9.95356
66,Vip Autovermietung 24,"Valentinskamp 24, 20354 Hamburg",20354,53.55567,9.98451
67,Avis Budget Autovermietung,"Rübenkamp 41, 22307 Hamburg",22307,53.5916,10.03837
68,Stephan Bramfelder Autovermietung Und Abschleppdienst,"Fabriciusstraße 119, 22177 Hamburg",22177,53.60371,10.06431
2,Fleetkonzept Heide,"Merkurring 82, 22143 Hamburg",22143,53.60478,10.18966
0,Starcar,"Buxtehuder Straße 76, 21073 Hamburg",21073,53.46847,9.96766
1,Enterprise Rent-a-Car-Hamburg-Harburg,"Großmoorbogen 15, 21079 Hamburg",21079,53.4566,10.00933
2,Volkswagen Automobile Hamburg,"Großmoorbogen 1, 21079 Hamburg",21079,53.46133,10.01296
3,Sixt Autovermietung Hamburg Harburg Bahnhof,"Hannoversche Straße 85, 21079 Hamburg",21079,53.4561,9.99056
4,Sixt Auto-und Transportervermietung Hamburg Harburg,"Schloßmühlendamm 34, 21073 Hamburg",21073,53.46324,9.98222
5,Starcar Autovermietung,"Buxtehuder Straße 1B, 21073 Hamburg",21073,53.46396,9.98028
6,VW Fs Rent-a-Car-Hamburg Harburg,"Großmoorbogen 1, 21079 Hamburg",21079,53.46133,10.01296
7,Hertz Buxtehuder Straße,"Buxtehuder Straße 112, 21073 Hamburg",21073,53.46952,9.96331
8,Europa Service,"Buxtehuder Straße 41, 21073 Hamburg",21073,53.46818,9.96681
9,Hertz,"Großmoorbogen 6, 21079 Hamburg",21079,53.46074,10.01025
10,Europcar Hamburg Sinstorf,"Winsener Straße 210, 21077 Hamburg",21077,53.42481,9.98043
11,Sixt Buxtehuder Straße,"Buxtehuder Straße 1b, 21073 Hamburg",21073,53.46397,9.98034
12,Karl-Heinz Timmann,"Süderquerweg 651, 21037 Hamburg",21037,53.44359,10.12883
13,Avis Hamburg Harburg,"Stader Straße 20, 21075 Hamburg",21075,53.47028,9.95989
14,Europcar Hamburg Harburg,"Hannoversche Straße 85, 21079 Hamburg",21079,53.4561,9.99056
15,Sternpartner,"Großmoorbogen 23, 21079 Hamburg",21079,53.45457,10.00645
16,Autovermietung Und Pflegedienst Neumann,"Langenbeker Weg 76, 21077 Hamburg",21077,53.43544,9.97864
0,Avis Hamburg Lohbrügge,"Lohbrügger Landstraße 119, 21031 Hamburg",21031,53.50278,10.19306
1,Sixt Autovermietung Hamburg Bergedorf,"Weidenbaumsweg 85, 21035 Hamburg",21035,53.48571,10.2033
4,Autohaus Kath,"Curslacker Neuer Deich 72, 21029 Hamburg",21029,53.47719,10.20537
6,Avis Kampchaussee,"Kurt-Adolf-Körber-Chaussee 121, 21033 Hamburg",21033,53.4903,10.18831
7,HAMBURG BERGEDORF,"Weidenbaumsweg 87, 21035 Hamburg",21035,53.48532,10.20194
8,Starcar Autovermietung,"Kurt-Adolf-Körber-Chaussee 5, 21033 Hamburg",21033,53.48879,10.20237
10,Autovermietung & Vermittlung Am Brink 8,"Serrahnstraße 3, 21029 Hamburg",21029,53.48945,10.20897
0,Sixt,"Am Coloneum 4, 50829 Köln",50829,50.98771,6.89197
1,Avis Köln Bickendorf,"Äußere Kanalstraße 86, 50827 Köln",50827,50.95831,6.9049
2,Europcar Köln Hauptbahnhof,"Trankgasse 11, 50667 Köln",50667,50.94352,6.95872
3,Mercedes-Benz Niederlassung Köln,"Am Gleisdreieck 2, 50823 Köln",50823,50.95362,6.93747
4,Sixt,"Marzellenstraße 13-17, 50668 Köln",50668,50.94296,6.95569
5,Cambio Carsharing-Station Blume,"Blumenthalstraße 33, 50670 Köln",50670,50.9559,6.96372
6,Sixt Share,"Widdersdorfer Straße 369, 50933 Köln",50933,50.9468,6.88909
7,Avis Deutschland,"Äußere Kanalstraße 61, 50827 Köln",50827,50.95827,6.90508
8,Odendahl & Heise,"Robert-Perthel-Straße 65-69, 50739 Köln",50739,50.98941,6.90774
9,Cambio Carsharing-Station Lohse,"Neusser Straße 164, 50733 Köln",50733,50.95856,6.95545
10,Europcar Köln Pkw/Transporter & Lkw,"Robert-Perthel-Straße 28, 50739 Köln",50739,50.98191,6.91831
11,Avk Autovermietung & Kurierdienst Köln,"Liebigstraße 175, 50823 Köln",50823,50.95607,6.93291
12,Sixt,"Widdersdorfer Straße 227, 50933 Köln",50933,50.9468,6.8894
13,Buchbinder Autovermietung,"Oskar-Jäger-Straße 115, 50825 Köln",50825,50.94297,6.9079
14,Flinkster Station Köln Hauptbahnhof,"Goldgasse, 50668 Köln",50668,50.9434,6.96101
15,Avis,"Bahnhofsvorplatz 2, 50668 Köln",50668,50.94266,6.9581
16,Sixt Auto-und Transportervermietung Köln Braunsfeld,"Widdersdorfer Straße 369, 50933 Köln",50933,50.94679,6.88909
17,Starcar,"Oskar-Jäger-Straße 155, 50825 Köln",50825,50.94552,6.90764
18,Hertz,"Breslauer Platz 2, 50668 Köln",50668,50.94368,6.96005
19,Cambio Carsharing-Station Bf Ehrenfeld,"Stammstraße 1, 50823 Köln",50823,50.95143,6.91937
20,Cambio Carsharing-Station Autofrei/Kempener,"Kempener Straße 133, 50733 Köln",50733,50.96534,6.94605
21,Enterprise Rent-a-Car-Köln-Ehrenfeld,"Josef-Lammerting-Allee 1, 50933 Köln",50933,50.94686,6.88836
22,Mercedes-Benz Niederlassung Köln,"Mercedes-Allee 1, 50825 Köln",50825,50.94582,6.89466
23,Enterprise Rent-a-Car-Köln-Bilderstöckchen,"Longericher Straße 205, 50739 Köln",50739,50.98199,6.91992
24,Cambio Carsharing-Station Bahnhof,"Maximinenstraße 1, 50668 Köln",50668,50.94542,6.95636
25,Sixt Autovermietung Köln Nord/Ossendorf,"Am Coloneum 1, 50829 Köln",50829,50.98716,6.89466
26,Kölner Flitzer,"Longericher Straße 239, 50739 Köln",50739,50.98554,6.91443
27,Autohaus Bussmann,"Zypressenstraße 49, 50767 Köln",50767,51.01243,6.90597
28,Hertz,"Robert-Perthel-Straße 14-16, 50739 Köln",50739,50.97955,6.92021
29,Cambio Carsharing-Station Agnes,"Neusser Wall 1, 50670 Köln",50670,50.95533,6.95711
30,Europcar,"Widdersdorfer Straße 213, 50825 Köln",50825,50.94563,6.901
31,Autovermietung Ruhnau,"Hugo-Eckener-Straße 31, 50829 Köln",50829,50.97703,6.89469
32,Dream Car Autovermietung,"Neusser Straße 401-403, 50733 Köln",50733,50.97124,6.95181
0,Europcar Köln Holweide,"Bergisch Gladbacher Straße 696, 51067 Cologne",51067,50.97222,7.05313
1,Reisemobilfieber,"Schanzenstraße 35, 51063 Köln",51063,50.97072,7.01582
2,Starcar,"Kalk-Mülheimer Straße 177, 51103 Köln",51103,50.94369,7.00131
3,Mietwagen in Köln Buchheim bei Autovermietung Buchbinder,"Frankfurter Straße 200, 51065 Köln",51065,50.94945,7.01742
4,Sixt Autovermietung Köln Wiener Platz-Digitale Station,"Genovevastraße 11-15, 51065 Köln",51065,50.9628,7.00548
6,Enterprise Rent-a-Car-Köln-Mülheim,"Düsseldorfer Straße 215, 51063 Köln",51063,50.97964,7.00181
8,Starcar,"Bergisch Gladbacher Straße 1051-1053, 51069 Köln",51069,50.98049,7.07503
9,Sixt Autovermietung Köln Messe/Dorint Hotel,"Deutz-Mülheimer Straße 22-24, 50679 Köln",50679,50.9424,6.98162
10,Autohaus J. Fleischhauer,"Clevischer Ring 45, 51063 Cologne",51063,50.96497,7.00552
0,Cambio Carsharing-Station Aachener/Gürtel,"Aachener Straße 246, 50931 Köln",50931,50.93728,6.90986
2,Trv Reisen,"Ölbergstraße 62, 50939 Köln",50939,50.91071,6.9244
3,Enterprise Rent-a-Car-Marsdorf,"Bayerische Allee 1, 50858 Köln",50858,50.91596,6.85314
4,Cambio Carsharing-Station Lothringer,"Lothringer Straße, 50677 Köln",50677,50.92311,6.95113
5,Europcar Köln Rodenkirchen,"Koblenzer Straße 1-9, 50968 Köln",50968,50.9148,6.96182
6,Köln Süd,"Koblenzer Straße 9, 50968 Köln",50968,50.9144,6.9626
8,Silvertours,"Holzmarkt 2a, 50676 Köln",50676,50.92914,6.96333
11,Sixt Autovermietung Köln Altstadt/Maritim Hotel,"Heumarkt 20, 50667 Köln",50667,50.9354,6.96197
12,Audi Zentrum Köln-Mitte,"Weinsbergstraße, 50823 Köln",50823,50.93987,6.92517
13,Avis Aral Tankstelle,"Zollstockgürtel 39, 50969 Cologne",50969,50.90591,6.93674
15,Enterprise Rent-a-Car-Köln-Zollstock,"Zollstockgürtel 7-15, 50969 Cologne",50969,50.90435,6.94364
16,Starcar,"Luxemburger Straße 181, 50939 Köln",50939,50.92035,6.93266
17,Sixt Köln Messe/Deutz Bahnhof,"Ottoplatz 7, 50679 Köln",50679,50.94045,6.97473
19,Autohaus Jacob Fleischhauer,"Raderberggürtel 31, 50968 Cologne",50968,50.90399,6.96225
21,Starcar,"Bonner Straße 324, 50968 Köln",50968,50.90506,6.9641
22,Hertz,"Max-Planck-Straße 7, 50858 Köln",50858,50.92164,6.85607
23,Cambio Carsharing-Station Maas,"Maastrichter Straße 43, 50672 Köln",50672,50.93841,6.937
25,Avis Clemensstraße,"Clemensstraße 29-31, 50676 Köln",50676,50.93489,6.94566
26,C & D Cash & Drive Autovermietung,"Heribertusstraße 12, 50679 Köln",50679,50.93561,6.97516
0,Europcar,"Willy-Brandt-Platz 2, 50679 Köln",50679,50.9392,6.98026
1,Buchbinder Köln,"Willy-Brandt-Platz 2, 50679 Köln",50679,50.9392,6.98026
2,Sixt Köln Sürth,"Industriestraße 167, 50996 Cologne",50996,50.87414,6.99732
3,Hertz,"André-Citroën-Straße 24, 51149 Köln",51149,50.90196,7.02111
4,Autohaus Fleischhauer,"Frankfurter Straße 665-675, 51145 Cologne",51145,50.89548,7.07893
5,Sixt,"Industriestraße 167, 50999 Cologne",50999,50.8709,7.00017
6,Europcar Köln Porz,"Frankfurter Straße 464, 51145 Cologne",51145,50.87685,7.08312
7,Sixt,"Siegburger Straße 231, 50679 Cologne",50679,50.92353,6.98063
8,Hertz,"Pauline-Christmann-Straße 5, 51107 Köln",51107,50.92686,7.06013
9,Mercedes-Benz Niederlassung Köln,"Maarhäuser Weg 1, 51149 Köln",51149,50.90637,7.06331
10,Sixt,"Ettore-Bugatti-Straße 2, 51149 Köln",51149,50.90996,7.05337
11,Hertz Autovermietung,"Max-Glomsda-Straße 4, 51105 Köln",51105,50.92307,6.99649
12,Flexxrent Autovermietung,"Max-Glomsda-Straße 4, 51105 Köln",51105,50.9232,6.99644
1,Volkswagen Automobile Frankfurt,"Hügelstraße 21, 60435 Frankfurt am Main",60435,50.14966,8.67748
3,Auto-Klein,"Westerbachstraße 234-240, 65936 Frankfurt am Main",65936,50.12385,8.57518
4,Sixt Autovermietung Frankfurt Börse-Digitale Station,"Meisengasse 4, 60313 Frankfurt am Main",60313,50.1153,8.67588
7,Europcar Rödelheim,"Rödelheimer Landstraße, 60489 Frankfurt am Main",60489,50.12111,8.6209
8,Avis Deutschland,"Stiftstraße 9, 60313 Frankfurt am Main",60313,50.11527,8.68249
9,VW Fs Rent-a-Car-Frankfurt Nord,"Hügelstraße 21, 60435 Frankfurt am Main",60435,50.14966,8.67748
10,Mercedes-Benz Niederlassung Frankfurt am Main,"Heerstraße 66, 60488 Frankfurt am Main",60488,50.14773,8.61388
12,Europcar Frankfurt Am Main City West,"Ludwig-Landmann-Straße 399, 60486 Frankfurt am Main",60486,50.12078,8.62247
14,Buchbinder Frankfurt West,"Westerbachstraße 122, 65936 Frankfurt am Main",65936,50.12415,8.5892
15,Autovermietung Demir,"Breitenbachstraße 1, 60487 Frankfurt am Main",60487,50.12635,8.63213
2,Hertz,"Carl-Benz-Straße 5, 60314 Frankfurt am Main",60314,50.12266,8.74675
3,Europcar Frankfurt Am Main Bornheim,"Homburger Landstraße 4, 60389 Frankfurt am Main",60389,50.1413,8.69866
4,SEAT Deutschland Niederlassung,"Carl-Benz-Straße 29, 60386 Frankfurt am Main",60386,50.12027,8.7542
5,Hertz,"Am Erlenbruch 136, 60386 Frankfurt am Main",60386,50.13136,8.74013
6,Sixt,"Hanauer Landstraße 340, 60314 Frankfurt am Main",60314,50.12402,8.74477
7,Starcar,"Hanauer Landstraße 208-216, 60314 Frankfurt am Main",60314,50.11578,8.72535
8,Sixt Frankfurt am Main Konstablerwache,"Konrad-Adenauer-Straße 5-7, 60313 Frankfurt am Main",60313,50.11573,8.6872
9,Avis,"Hanauer Landstraße 575, 60314 Frankfurt am Main",60314,50.11601,8.72867
10,Avis Dortelweiler Straße,"Dortelweiler Straße 5-7, 60389 Frankfurt am Main",60389,50.13115,8.70832
11,Europcar Frankfurt Ost 24H,"Hanauer Landstraße 334, 60314 Frankfurt am Main",60314,50.12261,8.74128
12,Alpha Cars,"Hanauer Landstraße 491, 60386 Frankfurt am Main",60386,50.12884,8.75597
0,Sixt,"Hugo-Eckener-Ring, 60549 Frankfurt am Main",60549,50.05016,8.56927
1,Avis Terminal2 Frankfurt Flughafen,"Kapitän-Lehmann-Straße, 60549 Frankfurt am Main",60549,50.05156,8.58558
2,VW Fs Rent-a-Car-Frankfurt West,"Mainzer Landstraße 406, 60326 Frankfurt am Main",60326,50.1014,8.62467
3,Autohaus Gruber,"Frankenallee 98-102, 60326 Frankfurt am Main",60326,50.10472,8.64075
4,Budget Autovermietung,"Am Hauptbahnhof, 60329 Frankfurt am Main",60329,50.107,8.66377
5,Enterprise Car Rental,"Flughafen Frankfurt am Main, 60549 Frankfurt am Main",60549,50.05206,8.58679
6,Frankfurt am Main Hauptbahnhof,"Im Hauptbahnhof 1, 60329 Frankfurt am Main",60329,50.1075,8.66655
7,Buchbinder Rent-A-Car,"Kapitän-Lehmann-Straße, 60549 Frankfurt am Main",60549,50.05284,8.58559
8,Avis Deutschland,"Gotenstraße 97, 65929 Frankfurt am Main",65929,50.11207,8.53851
9,Schultheis AHG,"Kurmainzer Straße 35, 65929 Frankfurt am Main",65929,50.10688,8.55233
10,Sixt Terminal2 Frankfurt Flughafen,"Kapitän-Lehmann-Straße, 60549 Frankfurt am Main",60549,50.05162,8.58591
11,National Terminal2 Frankfurt Flughafen,"Kapitän-Lehmann-Straße, 60549 Frankfurt am Main",60549,50.05158,8.58567
12,Europcar,"Ankunftbogen 1, 60549 Frankfurt am Main",60549,50.05066,8.56961
13,Audi Frankfurt,"Mainzer Landstraße 410, 60326 Frankfurt am Main",60326,50.10125,8.62303
14,Parkplatz P29-Car2go,60549 Frankfurt am Main,60549,50.04937,8.56738
15,Sixt,"Am Hauptbahnhof, 60329 Frankfurt am Main",60329,50.10694,8.66391
16,Car Rental Return,"Kapitän-Lehmann-Straße, 60549 Frankfurt am Main",60549,50.05272,8.58484
17,Sixt Autovermietung,"Mainzer Landstraße 351-353, 60326 Frankfurt am Main",60326,50.10177,8.63368
19,Buchbinder Terminal2 Frankfurt Flughafen,"Kapitän-Lehmann-Straße, 60549 Frankfurt am Main",60549,50.05154,8.58551
20,Europcar Frankfurt/Main Niederrad,"Lyoner Straße 68, 60528 Frankfurt am Main",60528,50.07807,8.63349
21,Hertz Gutleutstraße,"Gutleutstraße 87, 60329 Frankfurt am Main",60329,50.10434,8.66585
22,Lh Carpool,60549 Frankfurt am Main,60549,50.04897,8.56128
23,Avis Mörfelder Landstraße,"Mörfelder Landstraße 92, 60598 Frankfurt am Main",60598,50.09704,8.68428
24,Car Rental Center,"Ankunftbogen 1, 60549 Frankfurt am Main",60549,50.05081,8.56987
25,Avis,"Am Hauptbahnhof, 60329 Frankfurt am Main",60329,50.10689,8.66366
26,Alamo-Flughafen Frankfurt,60549 Frankfurt am Main,60549,50.05126,8.57009
27,Volkswagen Automobile Frankfurt,"Mainzer Landstraße 406, 60326 Frankfurt am Main",60326,50.1014,8.62467
28,Enterprise Rent-a-Car-Frankfurt-Gallus,"Mainzer Landstraße 292, 60326 Frankfurt am Main",60326,50.10259,8.63744
29,Europcar Frankfurt Am Main Europaviertel,"Europa-Allee 6, 60327 Frankfurt am Main",60327,50.10912,8.65389
30,Sixt Frankfurt am Main West/Messe,"Mainzer Landstraße 351-353, 60326 Frankfurt am Main",60326,50.1018,8.63361
31,Hertz,"Am Hauptbahnhof, 60329 Frankfurt am Main",60329,50.10703,8.66382
32,Avis Deutschland,"Schmidtstraße 39, 60326 Frankfurt am Main",60326,50.102,8.61829
33,Budget Autovermietung,"Schmidtstraße 39, 60326 Frankfurt am Main",60326,50.102,8.61829
35,Autoschmitt Frankfurt,"Königslacher Straße 15-21, 60528 Frankfurt am Main",60528,50.08178,8.64843
36,Starcar,"Mainzer Landstraße 581, 65933 Frankfurt am Main",65933,50.09997,8.59825
37,Sixt,"Lyoner Straße 5, 60528 Frankfurt am Main",60528,50.0851,8.62942
38,Car Rental Return,"Ankunftbogen, 60549 Frankfurt am Main",60549,50.05039,8.56699
39,Budget Deutschland,"Flughafen Frankfurt am Main, 60549 Frankfurt am Main",60549,50.05161,8.58563
40,Budget Autovermietung,"Hugo-Eckener-Ring, 60549 Frankfurt am Main",60549,50.05205,8.57169
41,Hertz,"Camberger Straße 21, 60327 Frankfurt am Main",60327,50.10259,8.6454
42,Hertz Lyoner Straße,"Lyoner Straße 44, 60528 Frankfurt am Main",60528,50.0777,8.62797
43,Europcar Terminal2 Frankfurt Flughafen,"Kapitän-Lehmann-Straße, 60549 Frankfurt am Main",60549,50.05165,8.58586
44,Avis Deutschland,"Schulstraße 7, 60594 Frankfurt am Main",60594,50.10541,8.68637
45,Frankfurt Flughafen Terminal 1,"Ankunftbogen 1, 60549 Frankfurt am Main",60549,50.0504,8.5671
46,Hertz Terminal2 Frankfurt Flughafen,"Kapitän-Lehmann-Straße, 60549 Frankfurt am Main",60549,50.0516,8.58576
47,Autovermietung Pars,"Mainzer Landstraße 116, 60327 Frankfurt am Main",60327,50.10825,8.65701
3,Mietwagen in Frankfurt am Main Ost bei Autovermietung Buchbinder,"Ferdinand-Happ-Straße 3-5, 60314 Frankfurt am Main",60314,50.11373,8.71633
8,Sixt,"Allerheiligenstraße 52, 60313 Frankfurt am Main",60313,50.1138,8.68855
11,Enterprise Rent-a-Car-Frankfurt-Sachsenhausen,"Mailänder Straße 1, 60598 Frankfurt am Main",60598,50.09155,8.69078
13,VW Fs Rent-a-Car-Frankfurt Ost,"Hanauer Landstraße 144, 60314 Frankfurt am Main",60314,50.11202,8.71417
14,Volkswagen Automobile Frankfurt,"Strahlenberger Weg 30, 60599 Frankfurt am Main",60599,50.10371,8.70642
18,Europa Service,"Hanauer Landstraße 208-2, 60314 Frankfurt am Main",60314,50.11334,8.69522
22,Hertz Hanauer Landstraße,"Hanauer Landstraße 117, 60314 Frankfurt am Main",60314,50.11117,8.70912
23,Europa Service,"Gerbermühlstraße 34, 60594 Frankfurt am Main",60594,50.10438,8.69817
26,Avis Deutschland,"Schulstraße 7, 60594 Frankfurt am Main",60594,50.10541,8.68637
28,Audi Frankfurt,"Hanauer Landstraße 144, 60314 Frankfurt am Main",60314,50.11202,8.71417
30,Exit Autovermietung,"Im Bärengarten 15, 60599 Frankfurt am Main",60599,50.10378,8.71002
0,VW Fs Rent-a-Car-München Olympiapark,"Georg-Brauchle-Ring 71, 80992 München",80992,48.17597,11.52836
1,Acquieso-Camper Vermietung,"Lerchenstraße 61B, 80995 München",80995,48.20969,11.53936
2,Sixt Autovermietung München Freiham-Digitale Station,"Hans-Stützle-Straße 20, 81249 München",81249,48.13972,11.40988
3,Mercedes-Benz Niederlassung München,"Arnulfstraße 61, 80636 München",80636,48.14524,11.53648
4,Mahag Automobilhandel & Service,"Landsberger Straße 240, 80687 München",80687,48.14291,11.50871
5,Sixt Autovermietung München/Hotel Bayerischer Hof,"Promenadeplatz 2-6, 80333 München",80333,48.14045,11.57307
6,Europcar,"Lortzingstraße 10, 81241 München",81241,48.14785,11.45433
7,Sunny Cars,"Paul-Gerhardt-Allee 42, 81245 München",81245,48.15344,11.47694
8,Sixt,"Arnulfstraße 61, 80636 München",80636,48.14464,11.53823
9,Sixt München Theresienwiese,"Schwanthalerstraße 45, 80336 München",80336,48.13725,11.55828
10,VW Fs Rent-a-Car-München Neuhausen,"Albrechtstraße 16, 80636 München",80636,48.15478,11.54108
11,Sixt,"Frankfurter Ring 35, 80807 München",80807,48.18824,11.57525
12,Avis,"Hirtenstraße 14, 80335 München",80335,48.14034,11.55942
13,Sixt München Olympiapark/MINI,"Petuelring 124, 80809 München",80809,48.17658,11.56317
14,Avis,"Moosacher Straße 45, 80809 München",80809,48.18654,11.55994
15,MAHAG Automobilhandel und Service,"Detmoldstraße 6, 80935 München",80935,48.19302,11.56323
16,Buchbinder,"Lortzingstraße, 81243 München",81243,48.14687,11.45235
17,Alnaib & Almansoori,"Schwanthalerstraße 41, 80336 München",80336,48.13725,11.55894
18,Muenchen NORD,"Ingolstädter Straße 43, 80807 München",80807,48.18816,11.58373
19,VW Fs Rent-a-Car-München Laim,"Landsberger Straße 240, 80687 München",80687,48.1427,11.50913
20,Mietwagen in München West bei Autovermietung Buchbinder,"Lortzingstraße 22, 81241 München",81241,48.14924,11.45552
21,Avis Deutschland,"Nymphenburger Straße 61, 80335 München",80335,48.14932,11.54753
22,Mietwagenzentrum,"Bahnhofplatz 2, 80335 München",80335,48.14046,11.55899
23,Auto & Service Pia,"Landsberger Straße 230, 80687 München",80687,48.14248,11.51277
24,Enterprise Rent-a-Car-München-Laim,"Landsberger Straße 315, 80687 München",80687,48.14324,11.49905
25,Europcar München Maxvorstadt,"Marsstraße 24, 80335 München",80335,48.14367,11.55763
26,Sixt,"Seitzstraße 9-11, 80538 München",80538,48.14091,11.58456
27,Audi München,"Albrechtstraße 16, 80636 München",80636,48.15511,11.54126
28,Maxi-Bus.de,"Trimburgstraße 2, 81249 München",81249,48.13969,11.42869
29,Sixt Autovermietung München Hofbräuhaus-Digitale Station,"Hochbrückenstraße 9, 80331 München",80331,48.13725,11.58138
30,Sixt,"Josef-Felder-Straße 53, 81241 München",81241,48.14886,11.46228
31,Mercedes-Benz Niederlassung München,"Landsberger Straße 382, 80687 München",80687,48.14498,11.48712
32,Sixt München Marienplatz,"Marienplatz 1, 80331 München",80331,48.13708,11.57538
33,Europcar München West Bmw Automag,"Landsberger Straße 170, 80687 München",80687,48.14109,11.52423
34,Europcar,"Bahnhofplatz 2, 80335 München",80335,48.14048,11.55915
35,Hertz München Elisenhof,"Elisenstraße 3, 80335 München",80335,48.14146,11.56255
36,Tangra Enterprise,80687 München,80687,48.1437,11.503
37,Sixt,"Karlsplatz 3, 80335 München",80335,48.14,11.56682
38,Autohaus Spratter,"Bodenseestraße 277, 81249 München",81249,48.14181,11.41965
39,VW Fs Rent-a-Car-München Milbertshofen,"Detmoldstraße 6, 80935 München",80935,48.19307,11.5632
40,Sixt Autovermietung München Westkreuz-Digitale Station,"Haberlandstraße 59, 81241 München",81241,48.14884,11.44591
42,Interrent Munich,"Landsberger Straße 18, 80339 München",80339,48.13955,11.5455
43,Sixt Autovermietung München Theresienwiese-Digitale Station,"Adolf-Kolping-Straße 10, 80336 München",80336,48.13832,11.56312
44,Sixt Autovermietung,"Wotanstraße 9, 80639 München",80639,48.14613,11.50289
45,MAHAG Automobilhandel und Service,"Georg-Brauchle-Ring 71, 80992 München",80992,48.17602,11.52837
46,Swing Autovermietung München,"Frankfurter Ring 85, 80807 München",80807,48.18795,11.58012
47,Mietwagen in München Nord bei Autovermietung Buchbinder,"Triebstraße 3, 80993 München",80993,48.18785,11.52626
48,Enterprise Rent-a-Car-München-Milbertshofen,"Bremer Straße 7, 80807 München",80807,48.18869,11.57101
49,Avis Deutschland,"Anton-Böck-Straße 8, 81249 München",81249,48.139,11.41149
50,Avis Deutschland,"Lassallestraße 3, 80995 München",80995,48.18799,11.53441
51,Sixt Autovermietung,"Bahnhofplatz 2, 80335 München",80335,48.14028,11.56004
52,Autovermietung,"Trimburgstraße 2, 81249 München",81249,48.1394,11.42794
53,KeVia Autovermietung,"Gret-Palucca-Weg 6, 81245 München",81245,48.15562,11.42523
54,Autovermietung Dolangez,"Flunkgasse 24, 81245 München",81245,48.16187,11.41547
55,Autovermietung Schmidt,"Mühlangerstraße 42, 81247 München",81247,48.17417,11.45003
56,Amh Autovermietung,"Huislerstraße 4B, 81245 München",81245,48.15968,11.41928
57,L 'Auto Autovermietung,"Wilhelmstraße 17, 80801 München",80801,48.16017,11.5829
58,Autovermietung Karl Konrad,"Dom-Pedro-Straße 1, 80637 München",80637,48.15937,11.54619
59,Avis Budget Autovermietung,"Moosacher Straße 45, 80809 München",80809,48.18644,11.55958
0,Mietwagen in München Ost bei Autovermietung Buchbinder,"Wamslerstraße 5-9, 81829 München",81829,48.13565,11.66357
1,Auto & Service Pia,"Frankfurter Ring 218, 80807 München",80807,48.18611,11.60462
2,Sixt,"Anni-Albers-Straße 11, 80807 München",80807,48.17758,11.59138
3,München Messe Riem,"Am Messesee 4, 81829 München",81829,48.13551,11.69342
4,Sixt,"Einsteinstraße 106, 81675 München",81675,48.13597,11.60898
5,Active Oldtimer,"Prinzregentenplatz 19, 81675 München",81675,48.13962,11.60772
6,MAHAG Automobilhandel und Service,"Frankfurter Ring 251, 80807 München",80807,48.18667,11.60794
7,Europcar München Transporter & Lkw,"Ingolstädter Straße 172-180, 80939 München",80939,48.20467,11.58731
8,Auto & Service Pia,"Schatzbogen 37, 81829 München",81829,48.1347,11.66477
10,Avis Deutschland,"Denninger Straße 116, 81925 München",81925,48.14794,11.62458
13,Sixt,"Ingolstädter Straße 172, 80939 München",80939,48.20506,11.58694
14,Sixt Autovermietung München Fröttmaning/BMW,"Werner-Heisenberg-Allee 10, 80939 München",80939,48.20868,11.61992
16,Sixt Autovermietung München Studentenstadt-Digitale Station,"Ungererstraße 214, 80805 München",80805,48.18294,11.60803
17,Sixt,"Arabellastraße 5, 81925 München",81925,48.15114,11.61861
19,Richard-Strauss-Tunnel,"Arabellastraße 6, 81925 München",81925,48.15224,11.61757
20,Sixt Autovermietung München/Hotel Park Hilton,"Am Tucherpark 7, 80538 München",80538,48.15273,11.59826
21,Sixt München Fröttmaning/BMW,"Werner-Heisenberg-Allee 10, 80939 München",80939,48.20586,11.61787
22,München Bogenhausen,"Arabellastraße 5, 81925 München",81925,48.1512,11.61848
23,VW Fs Rent-a-Car-München Frankfurter Ring,"Frankfurter Ring 251, 80807 München",80807,48.18701,11.60792
1,Autohaus Westend Gossler,"Westendstraße 219, 80686 München",80686,48.13106,11.51943
2,Europcar,"Boschetsrieder Straße 121 A, 81379 München",81379,48.09874,11.52122
4,Sixt,"Luise-Kiesselbach-Platz 35, 81377 München",81377,48.11316,11.5165
5,Autohaus Riedel,"Wolfratshauser Straße 100, 81379 München",81379,48.0912,11.53808
7,Enterprise Rent-a-Car-München-Obersendling,"Aidenbachstraße 30, 81379 München",81379,48.0988,11.52275
8,Auto und Service PIA,"Meglingerstraße 8, 81477 München",81477,48.09338,11.50621
9,Sixt Autovermietung München Solln/BMW,"Barmseestraße 10, 81477 München",81477,48.09229,11.50458
10,Autohaus Christl,"Filchnerstraße 86-88, 81476 München",81476,48.0878,11.49862
11,Sixt Autovermietung,"Tegernseer Landstraße 163, 81539 München",81539,48.10959,11.57935
12,Buchbinder München Boschetsriederstraße,"Boschetsrieder Straße 46, 81379 München",81379,48.10003,11.53243
13,Muenchen Sendling Selection,"Boschetsrieder Straße 121A, 81379 München",81379,48.09875,11.52122
15,Avis Boschetsrieder Straße,"Geisenhausenerstraße 127, 81379 München",81379,48.09857,11.5189
17,A1 Autovermietung München,"Aidenbachstraße 54, 81379 München",81379,48.09676,11.52303
18,Bavaria Autovermietung Klaus Hoyer,"Waakirchner Straße 35, 81379 München",81379,48.10062,11.53689
0,MAHAG Automobilhandel und Service,"Karl-Schmid-Straße 12, 81829 München",81829,48.1336,11.66761
2,Europcar,"Chiemgaustraße 161, 81549 München",81549,48.10911,11.60695
4,Sixt Autovermietung München Trudering,"Kreillerstraße 210, 81825 München",81825,48.12177,11.66227
6,Europcar,"Wasserburger Landstraße, 81827 München",81827,48.11805,11.68492
8,Mahag Services,"Hochstraße 5, 81669 München",81669,48.13004,11.58917
11,Euromobil Autovermietung,"Hochstraße 5, 81669 München",81669,48.13004,11.58917
12,MAHAG Automobilhandel und Service,"Wasserburger Landstraße 7, 81825 München",81825,48.12136,11.6664
13,Europcar München Trudering,"Bajuwarenstraße 118, 81825 München",81825,48.12087,11.6644
14,Europcar Munich City Au-Haidhausen,81669 München,81669,48.13006,11.58925
15,Sixt Autovermietung München/Hotel City Hilton,"Rosenheimer Straße 15, 81667 München",81667,48.12995,11.59284
16,Thrifty Car Rental,"Schatzbogen 86, 81829 München",81829,48.13056,11.65773
18,VW Fs Rent-a-Car-Audi Hochstraße,"Hochstraße 15, 81669 München",81669,48.12818,11.58925
19,Europcar München Ost Bmw Automag,"Wasserburger Landstraße 81, 81827 München",81827,48.11911,11.68233
20,Hertz,"Otto-Hahn-Ring 6, 81739 München",81739,48.09172,11.64874
21,Hertz,"Schatzbogen 86, 81829 München",81829,48.13057,11.65773
22,Europcar München Haidhausen Ostbahnhof,"FriedenStraße 17, 81671 München",81671,48.12692,11.60641
23,Auto & Service Pia,"Ballaufstraße 37, 81735 München",81735,48.11292,11.62833
24,Avis Deutschland,"Grafinger Straße 2, 81671 München",81671,48.12561,11.6056
25,VW Fs Rent-a-Car-München City Gasteig,"Hochstraße 15, 81669 München",81669,48.12818,11.58925
26,Avis Balanstraße,"Balanstraße 74, 81541 München",81541,48.11795,11.60072
27,Hertz,"Ampfingstraße 31-35, 81671 München",81671,48.1287,11.61401
28,Sixt Autovermietung München Messestadt Riem,"Willy-Brandt-Platz 5, 81829 München",81829,48.13224,11.69025
29,Sixt,"Werner-Eckert-Straße 11, 81829 München",81829,48.13429,11.68853
30,Starcar,"Ottobrunner Straße 116, 81737 München",81737,48.10262,11.62512
31,Secker & Filardi,"Rappenweg 120, 81829 München",81829,48.122,11.68801
33,Enterprise Rent-a-Car-München-Trudering,"Kreillerstraße 216, 81825 München",81825,48.12164,11.66277
34,Sixt,"Otto-Hahn-Ring 20, 81739 München",81739,48.094,11.6465
35,VW Fs Rent-a-Car-Trudering München,"Wasserburger Landstraße 7, 81825 München",81825,48.12135,11.6664
36,Sixt Auto-und Transportervermietung Neuperlach,"Otto-Hahn-Ring 6, 81739 München",81739,48.09152,11.64898
37,MAHAG Automobilhandel und Service,"Schleibingerstraße 12-16, 81669 München",81669,48.12825,11.59112
39,Avesa Autovermietung,"Hippelstraße 31, 81827 München",81827,48.10146,11.67025
40,Re-Car Autovermietung,"Stahlgruberring 36, 81829 München",81829,48.13374,11.67047
