,name,address,postcode,latitude,longitude
1,Berlin Ruppiner Chaussee.,"Ruppiner Chaussee 339, 13503 Berlin",13503,52.62073,13.23623
2,Aral,"Berliner Straße 67, 13507 Berlin",13507,52.58157,13.29116
3,Pro D.Systemdienstleistungen,"Berliner Straße 68, 13507 Berlin",13507,52.58207,13.29081
5,Shell,"Scharnweberstraße 79-81, 13405 Berlin",13405,52.56776,13.30979
6,Berlin Hermsdorfer Damm 141-143,"Hermsdorfer Damm 141-143, 13467 Berlin",13467,52.61608,13.30063
8,Tiger Steam Wash,"Reiherallee 58A, 13503 Berlin",13503,52.60579,13.23999
10,Max AutoWasch,"Holzhauser Straße 36, 13509 Berlin",13509,52.57842,13.29909
11,Car Royal Pflege-Service,"Kurt-Schumacher-Damm 36, 13405 Berlin",13405,52.56116,13.32497
12,Jost Car Clean Service,"Jacobsenweg 51, 13509 Berlin",13509,52.58216,13.29594
13,Berlin Scharnweberstr79/81.,"Scharnweberstraße 79/81, 13405 Berlin",13405,52.56777,13.3098
14,Aral,"Berliner Straße 24, 13507 Berlin",13507,52.58435,13.28788
0,Aral,"Pasewalker Straße 110, 13127 Berlin",13127,52.58612,13.43021
1,Car Royal Pflege-Service,"Kapweg 2, 13405 Berlin",13405,52.56221,13.32927
2,Berlin Berliner Str. 32.,"Berliner Straße 32, 13127 Berlin",13127,52.6011,13.43243
3,AGIP PANKOW,"Dietzgenstraße 127, 13158 Berlin",13158,52.59449,13.40245
4,Aral,"Roedernallee 179, 13407 Berlin",13407,52.57893,13.3464
5,Aral,"Mühlenstraße 26, 13187 Berlin",13187,52.56383,13.40783
7,R Und H Kfz- Pflegecenter,"Hauptstraße 24, 13127 Berlin",13127,52.60893,13.43355
8,Shell,"Karower Damm 35, 13129 Berlin",13129,52.59673,13.46629
10,Berlin Oranienburger Str,"Oranienburger Straße 61, 13437 Berlin",13437,52.58988,13.33464
11,Aral,"Residenzstraße 29, 13409 Berlin",13409,52.56821,13.3613
12,Berlin Ollenhauerstr.101.,"Ollenhauerstraße 101, 13403 Berlin",13403,52.57123,13.32903
13,Berlin Damerowstrasse.,"Damerowstraße 22/23, 13187 Berlin",13187,52.57286,13.42118
15,Erwin Smukowski,"Wittenauer Straße 88, 13435 Berlin",13435,52.60512,13.33949
16,Cosy Wash,"Flottenstraße 4, 13407 Berlin",13407,52.57879,13.34791
17,Total Wash,"Am Feuchten Winkel 11, 13129 Berlin",13129,52.58209,13.43257
18,Service Pflegecenter Berlin,"Eichhorster Weg 93, 13435 Berlin",13435,52.60316,13.33457
19,Cosy-Wasch Autoservice Betriebe,"Roedernallee, 13407 Berlin",13407,52.58181,13.34474
0,Car Royal Pflege-Service,"Brunsbütteler Damm 87-89, 13581 Berlin",13581,52.53415,13.18454
1,Aral,"Messedamm 6, 14057 Berlin",14057,52.50837,13.28064
2,Cosy-Wasch Autoservice Betriebe,"Messedamm 8-10, 14057 Berlin",14057,52.50671,13.28033
3,Cosy-Wasch Autoservice Betriebe,"Nonnendammallee 42-43, 13599 Berlin",13599,52.53809,13.24632
4,Aral,"Blissestraße 21, 10713 Berlin",10713,52.48439,13.32056
5,Aral,"Heerstraße 136, 14055 Berlin",14055,52.50721,13.22761
6,Autoreinigung Berlin - Car Wellness Berlin,"Mecklenburgische Straße 76, 10713 Berlin",10713,52.4798,13.31266
7,Berlin Kaiserdamm.,"Kaiserdamm 34, 14057 Berlin",14057,52.50999,13.27695
8,Autopflege Meinekestraße,"Meinekestraße 21, 10719 Berlin",10719,52.50139,13.32922
9,LKW-WASCHHALLE,"Beusselstrasse 44 N-Q, 10553 Berlin",10553,52.53438,13.31492
10,Safolia,"Brunsbütteler Damm 82, 13581 Berlin",13581,52.53439,13.18587
11,C. Thiemann Powertank,"Bundesallee 200, 10717 Berlin",10717,52.49284,13.33152
12,Berlin Bundesallee.,"Bundesallee 200, 10717 Berlin",10717,52.49284,13.33152
13,CleanCar,"Charlottenburger Chaussee 53A, 13597 Berlin",13597,52.52658,13.23257
14,Aral,"Bismarckstraße 2, 10625 Berlin",10625,52.5127,13.31928
15,Aral,"Westfälische Straße 9-10, 10709 Berlin",10709,52.49247,13.30904
16,Aral,"Hohenzollerndamm 97, 14199 Berlin",14199,52.47613,13.27923
17,Aral,"Gartenfelder Straße 71, 13599 Berlin",13599,52.54372,13.24363
18,Berlin Kaiser-Friedr.Str95.,"Kaiser-Friedrich-Straße 95, 10585 Berlin",10585,52.51588,13.30137
19,Aral,"Heerstraße 325, 13593 Berlin",13593,52.5164,13.17777
20,Klaus Ihmann,"Staakener Straße 90, 13583 Berlin",13583,52.53615,13.19086
21,Aral,"Falkenseer Damm 16, 13585 Berlin",13585,52.54268,13.19948
22,Aral,"Kaiser-Friedrich-Straße 45B, 10627 Berlin",10627,52.50765,13.30172
23,Esso,"Falkenseer Chaussee 50, 13583 Berlin",13583,52.54905,13.17894
24,Pro D.Systemdienstleistungen,"Franklinstraße 28-30, 10587 Berlin",10587,52.5177,13.32514
25,Cosy-Wasch Autoservice Betriebe,"Staakener Straße 90, 13583 Berlin",13583,52.53615,13.19086
26,Ask Service,"Pascalstraße 10, 10587 Berlin",10587,52.52341,13.32244
27,Lkw-Waschhalle,"Beusselstraße 44N, 10553 Berlin",10553,52.53598,13.32685
28,Aral,"Reichsstraße 13-14, 14052 Berlin",14052,52.51352,13.26613
29,Berlin Hohenzollern- Damm.,"Hohenzollerndamm 41, 10713 Berlin",10713,52.48871,13.30667
30,Berlin Heerstr. 326-328,"Heerstraße 326-328, 13593 Berlin",13593,52.51704,13.17902
31,A & P Car Cleaning Company,"Flughafen Tegel, 13405 Berlin",13405,52.55252,13.29325
32,Pedro Lopez,"Bleibtreustraße 26, 10707 Berlin",10707,52.50034,13.31907
33,Berlin Kaiserin-Aug.- Allee.,"Kaiserin-Augusta-Allee 9-9 A, 10553 Berlin",10553,52.52556,13.32434
34,Berlin Letterhausweg.,"Letterhausweg 2, 13627 Berlin",13627,52.53438,13.28303
35,Cosy-Wasch Autoservice Betriebe,"Mecklenburgische Straße 76, 10713 Berlin",10713,52.4798,13.31266
36,Berlin Am Juliusturm,"Am Juliusturm 33, 13599 Berlin",13599,52.53667,13.22195
37,Sprint,"Ruhlebener Straße 1A, 13597 Berlin",13597,52.5294,13.20709
38,Motus Vermietungsservice,"Katharinenstraße 26, 10711 Berlin",10711,52.49817,13.2923
39,Aral,"Halenseestraße, 14055 Berlin",14055,52.50187,13.27812
40,Berlin Spandauer Damm.,"Spandauer Damm 151, 14050 Berlin",14050,52.51918,13.27225
0,Autopflege Berlin,"Rhinstraße 54a, 12681 Berlin",12681,52.51882,13.52034
1,Nikolaos Kolias Car Wash Center,"Alvenslebenstraße 12, 10783 Berlin",10783,52.49519,13.36546
2,Aral,"Hauptstraße 86, 12159 Berlin",12159,52.474,13.33876
3,Berlin Buchberger Str,"Buchberger Straße 30, 10365 Berlin",10365,52.50705,13.48502
4,Amatron Automotive,"Börnestraße 26, 13086 Berlin",13086,52.54977,13.44874
5,Lutz Werner Autopflege,"Plauener Straße 161, 13053 Berlin",13053,52.54322,13.5157
6,CleanCar,"Siegfriedstraße 80, 10365 Berlin",10365,52.53171,13.5026
7,Berlin Prinzenallee 20.,"Prinzenallee 20, 13357 Berlin",13357,52.55519,13.38442
8,Berlin Skalitzer Str. 48.,"Skalitzer Straße 48, 10997 Berlin",10997,52.49918,13.43329
9,Total Wash,"Tempelhofer Ufer 33-35, 10963 Berlin",10963,52.50057,13.37672
10,Car-Cosmetic-Berlin,"Kulmer Straße 2, 10783 Berlin",10783,52.49492,13.36588
11,Berlin Oranienstr,"Oranienstraße 138, 10969 Berlin",10969,52.50407,13.40841
12,Car Wash Profis Ali Yilmaz,"Passauer Straße 10-11, 10789 Berlin",10789,52.50027,13.33924
13,Berlin Rummelsbur.Ldstr.16.,"Rummelsburger Landstraße 16, 12459 Berlin",12459,52.48092,13.50214
14,Total Wash,"Margarete-Sommer-Straße 2, 10407 Berlin",10407,52.53083,13.44094
15,Ecoshine Deutschland,"Hirtenstraße 12, 10178 Berlin",10178,52.52611,13.4102
16,Berlin Sachsendamm 90-92.,"Sachsendamm 90-92, 10829 Berlin",10829,52.47865,13.35507
17,Eckhard Böhm,"Buchberger Straße 30, 10365 Berlin",10365,52.50705,13.48502
18,Aral,"Frankfurter Allee 214, 10365 Berlin",10365,52.51123,13.49352
19,Berlin Paulstrasse 20.,"Paulstraße 20, 10557 Berlin",10557,52.51981,13.35503
20,Aral,"Prinzenstraße 29, 10969 Berlin",10969,52.50206,13.40988
21,Cosy-Wasch Autoservice Betriebe,"Holzmarktstraße, 10243 Berlin",10243,52.51179,13.42782
22,Berlin Hauptstr,"Hauptstraße 91, 12159 Berlin",12159,52.47589,13.3413
23,Aral,"Seestraße 18-19, 13353 Berlin",13353,52.54643,13.34543
24,Cosy Autowasch,"Wilhelm-Kabus-Straße 9, 10829 Berlin",10829,52.48411,13.36913
25,Autopflege Konopatzki,"Salzmannstraße 24, 10319 Berlin",10319,52.49763,13.49897
26,Aps Enterprise,"Alte Jakobstraße 83-84, 10179 Berlin",10179,52.50966,13.4073
27,Aral,"Rathenower Straße 8, 10559 Berlin",10559,52.52535,13.35702
28,Aral,"Dudenstraße 19, 10965 Berlin",10965,52.48461,13.38143
29,City Car Wash,"Karl-Marx-Straße 66, 12043 Berlin",12043,52.48202,13.4328
30,Cosy-Wasch Autoservice Betriebe,"Am Tierpark 126, 10319 Berlin",10319,52.49492,13.52457
31,Aral,"Holzmarktstraße 12-14, 10179 Berlin",10179,52.51386,13.42189
32,Vitali Knaus Autopflege,"Ferdinand-Schultze-Straße 85, 13055 Berlin",13055,52.54216,13.50864
33,Berlin Martin-Luther-Str,"Martin-Luther-Straße 29, 10777 Berlin",10777,52.49639,13.34654
34,Berlin Muellerstr,"Müllerstraße 22 B-23, 13353 Berlin",13353,52.54533,13.3616
0,Aral,"Alt-Friedrichsfelde 64, 12683 Berlin",12683,52.51033,13.53866
1,Mfs Muemelts Reinigungs Service,"Luzinstraße 24, 12619 Berlin",12619,52.52716,13.5863
2,Cosy Wasch,"Riesaer Straße 121, 12627 Berlin",12627,52.53031,13.62461
5,Berlin Stendaler Str,"Stendaler Straße 176, 12627 Berlin",12627,52.5454,13.60398
6,Total Wash,"Alt-Mahlsdorf 60, 12623 Berlin",12623,52.50437,13.6246
7,Aral,"Landsberger Allee 534, 12681 Berlin",12681,52.54628,13.5743
8,Cosy-Wasch Autoservice Betriebe,"Tychyer Straße 2, 12683 Berlin",12683,52.50719,13.56538
11,Berlin Hultschiner Damm,"Hultschiner Damm 129/131, 12623 Berlin",12623,52.48654,13.60407
12,CleanCar,"Marzahner Chaussee 232, 12681 Berlin",12681,52.53119,13.53332
13,Mobile Fahrzeugpflege Harald Niemand,"Blumberger Damm 211, 12687 Berlin",12687,52.55219,13.57255
14,Sprint,"Landsberger Allee 534, 12679 Berlin",12679,52.54621,13.57402
0,Autoservice Albert,"Landweg 31, 12207 Berlin",12207,52.41073,13.3176
1,G & R Autoreinigung,"Brüderstraße 8, 12205 Berlin",12205,52.44042,13.29378
6,Aral,"Königstraße 58, 14109 Berlin",14109,52.4192,13.15887
7,Agip CarWash,"Ostpreußendamm 89, 12207 Berlin",12207,52.41555,13.30268
8,Berlin Koenigsberger Str.,"Königsberger Straße 8, 12207 Berlin",12207,52.42964,13.32216
9,Cosy-Wasch Autoservice Betriebe,"Potsdamer Straße 11B, 14163 Berlin",14163,52.43314,13.24208
10,Aral,"Drakestraße 26A, 12205 Berlin",12205,52.44097,13.29943
11,Aral,"Argentinische Allee 49, 14163 Berlin",14163,52.44457,13.24259
12,Logistics Wash,"Vopeliuspfad 10, 14169 Berlin",14169,52.43497,13.26734
13,Aral,"Schloßstraße 63-64, 12165 Berlin",12165,52.45304,13.31523
15,Pro D.Systemdienstleistungen,"Goerzallee 251, 14167 Berlin",14167,52.4162,13.28264
0,Taw Tankanlagen,"Michael-Brückner-Straße 25, 12439 Berlin",12439,52.45323,13.51337
1,Otto Christ Autowaschanlage,"Volkmarstraße 1, 12099 Berlin",12099,52.45448,13.39871
2,Berlin Karl-Marx-Str,"Karl-Marx-Straße 267, 12057 Berlin",12057,52.46537,13.44332
3,Sau-Bär-Service,"Segelfliegerdamm 89, 12487 Berlin",12487,52.43911,13.50761
4,Carspa,"Lichtenrader Damm 18A, 12305 Berlin",12305,52.41258,13.40187
5,Cosy-Wasch Autoservice Betriebe,"Karl-Marx-Straße 259, 12057 Berlin",12057,52.46574,13.44256
6,Aral,"Schnellerstraße 20, 12439 Berlin",12439,52.45985,13.50441
7,Star,"Johannisthaler Chaussee 263, 12351 Berlin",12351,52.43179,13.46086
8,Swash Sb-Waschplätze Betriebs,"Mollnerweg 19, 12353 Berlin",12353,52.41956,13.44299
9,Berlin Tempelhofer Weg.,"Tempelhofer Weg 102, 12347 Berlin",12347,52.45041,13.43449
10,Berlin Buckower Damm.,"Buckower Damm 225, 12349 Berlin",12349,52.42346,13.43732
11,Mr. Chic Autopflege,"Schnellerstraße 21, 12439 Berlin",12439,52.45641,13.50921
12,Cosy-Wasch Autoservice Betriebe,"Rudower Straße 146-150, 12351 Berlin",12351,52.43304,13.47183
13,Berlin Rudower Str.,"Rudower Straße 102, 12351 Berlin",12351,52.43617,13.46534
14,Shell,"Bergstraße 31-32, 12169 Berlin",12169,52.45836,13.33886
15,KOM Reparaturdienst Berlin GmbH,"Ordensmeisterstraße 40, 12099 Berlin",12099,52.4588,13.39546
16,Cosy-Wasch Autoservice Betriebe,"Großbeerenstraße 82-88, 12107 Berlin",12107,52.43337,13.37751
17,Wasch Park Röblingstraße,"Röblingstraße 118, 12105 Berlin",12105,52.45211,13.3617
18,Berlin Manteuffelstr,"Manteuffelstraße 6, 12103 Berlin",12103,52.46455,13.37709
20,Aral,"Neuköllner Straße 219, 12357 Berlin",12357,52.4287,13.47967
21,Esso Station Lichtenrader Damm 274,"Lichtenrader Damm 274, 12305 Berlin",12305,52.3878,13.40854
22,ALLROUND AutovermietungHerman Weisner,"Kolonie Morgenrot 53, 12109 Berlin",12109,52.45289,13.39971
23,Cosy-Wasch Autoservice Betriebe,"Körnerstraße 48A, 12157 Berlin",12157,52.46434,13.33468
24,Aral,"Mariendorfer Damm 195, 12107 Berlin",12107,52.43384,13.39071
25,Clean Car One,"Britzer Damm 12, 12347 Berlin",12347,52.4617,13.43402
26,Aral,"Britzer Damm 202-204, 12347 Berlin",12347,52.44519,13.43313
27,Aral,"Buschkrugallee 84-92, 12359 Berlin",12359,52.45582,13.44954
28,Berlin Johannisth.Ch.411.,"Johannisthaler Chaussee 411, 12351 Berlin",12351,52.42491,13.4422
30,Berlin Bergstr,"Bergstraße 31/32, 12169 Berlin",12169,52.45836,13.33886
31,Sprint,"Barnetstraße 67a, 12305 Berlin",12305,52.39469,13.40005
0,Berlin Lindenstr. 21,"Lindenstraße 21, 12555 Berlin",12555,52.4552,13.56729
1,Aral,"An der Wuhlheide 240-242, 12459 Berlin",12459,52.45525,13.55573
2,Fahrzeugpflege May,"Fürstenwalder Damm 375, 12587 Berlin",12587,52.45397,13.61088
3,Clean-Car Autowaschanlagen,"Adlergestell 305, 12489 Berlin",12489,52.4307,13.54873
4,Beverlycars Limousinen Service,"Schulzendorfer Straße 14, 12526 Berlin",12526,52.40278,13.5766
5,CleanCar,"Glienicker Weg 182, 12489 Berlin",12489,52.43102,13.55299
6,Shell,"Wendenschloßstraße 292, 12557 Berlin",12557,52.4294,13.5841
7,Aral,"Fürstenwalder Damm 445-447, 12587 Berlin",12587,52.4563,13.62115
8,Swizöl Berlin Ralf Thiele,"Hirseländerweg 166, 12559 Berlin",12559,52.42513,13.67639
2,Aral,"Holsteiner Chaussee 55, 22523 Hamburg",22523,53.61434,9.90589
3,Aral,"Schleswiger Damm 173, 22457 Hamburg",22457,53.64134,9.91696
8,Clean Park Sb Autowaschanlage,"Holsteiner Chaussee 85, 22523 Hamburg",22523,53.61646,9.90683
12,Aral,"Pinneberger Straße 1-3, 22457 Hamburg",22457,53.63252,9.91008
0,Angela Gitta Schäfer,"Neubergerweg 181, 22419 Hamburg",22419,53.66867,10.01597
1,Ccc Nanocentrum,"Sperberhorst 6, 22459 Hamburg",22459,53.63364,9.95558
2,Classic Tankstelle,"Langenhorner Chaussee 216, 22415 Hamburg",22415,53.6498,10.01006
3,Rus Vermietungs,"König-Heinrich-Weg 164, 22455 Hamburg",22455,53.63447,9.96479
5,CleanCar,"Steilshooper Allee 5, 22309 Hamburg",22309,53.60845,10.04565
8,Sb-Autowaschpark Niendorf,"Sperberhorst 12D, 22459 Hamburg",22459,53.63372,9.95784
9,Aral,"Langenhorner Chaussee 53, 22335 Hamburg",22335,53.63853,10.01354
12,Hamburg Paul-Sorge-Str.150.,"Paul-Sorge-Straße 150, 22455 Hamburg",22455,53.63509,9.95298
14,Car-Cleaner-Crew,"Sperberhorst 8, 22459 Hamburg",22459,53.63382,9.95566
18,AP Optik,"Bramfelder Chaussee 362, 22175 Hamburg",22175,53.62121,10.08283
19,Hamburg Bramfelder Chaussee.,"Bramfelder Chaussee 370, 22175 Hamburg",22175,53.62221,10.08397
20,Aral,"Meiendorfer Mühlenweg 6A, 22393 Hamburg",22393,53.64439,10.12213
21,Hamburg Saseler Chauss,"Saseler Chaussee 209, 22393 Hamburg",22393,53.65381,10.1065
22,Hamburg Harksheider Str.,"Harksheider Straße 35, 22399 Hamburg",22399,53.66276,10.07863
23,Hamburg Steilshooper Allee.,"Steilshooper Allee 55, 22309 Hamburg",22309,53.60883,10.05145
25,Hamburg Alsterkrugch,"Alsterkrugchaussee 431, 22335 Hamburg",22335,53.62108,10.00987
1,Hamburg Eulenkrugstr. 72.,"Eulenkrugstraße 72, 22359 Hamburg",22359,53.64765,10.17076
7,Star,"Höhenkamp 3, 22145 Braak",22145,53.60915,10.24158
11,Agha Deutschland,"Hofstückenstieg 7A, 22145 Hamburg",22145,53.62412,10.17075
12,Hamburg Claus-Ferck-Str.,"Claus-Ferck-Straße 31, 22359 Hamburg",22359,53.65173,10.16439
0,Hamburg Schnackenburg- Alle.,"Schnackenburgallee 12, 22525 Hamburg",22525,53.57357,9.9191
1,Cwh Car-Wash Hamburg,"Osdorfer Landstraße 157, 22549 Hamburg",22549,53.57191,9.85553
2,Wash Park B&h,"Volksparkstraße 44-46, 22525 Hamburg",22525,53.59158,9.92193
3,Hanna Car Wash Vertriebs,"Kronprinzenstraße 54, 22587 Hamburg",22587,53.56549,9.83194
4,Aral,"Kieler Straße 560, 22525 Hamburg",22525,53.59983,9.91785
5,Aral,"Ostfrieslandstraße 80, 21129 Hamburg",21129,53.52658,9.88491
6,Shell Station,"Behringstraße, 22763 Hamburg",22763,53.55454,9.90902
7,CleanCar,"Kieler Straße 195, 22525 Hamburg",22525,53.57667,9.93596
8,Aral,"Kieler Straße 285, 22525 Hamburg",22525,53.58379,9.93289
9,Aral,"Sülldorfer Landstraße 91, 22589 Hamburg",22589,53.57785,9.80959
10,Hamburg Rissener Landstr,"Rissener Landstraße 1A, 22587 Hamburg",22587,53.56654,9.79624
11,Hamburg Osdorfer Landstr. 1.,"Osdorfer Landstraße 1, 22607 Hamburg",22607,53.56992,9.87676
12,Hamburg Volksparkstr.44-46.,"Volksparkstraße 44-46, 22525 Hamburg",22525,53.59167,9.92147
0,LKWash Ernst Pfaff,"Liebigstraße 32, 22113 Hamburg",22113,53.53397,10.08471
1,Aral,"Königstraße 9, 22767 Hamburg",22767,53.54928,9.95279
2,Hamburg Kollaustr,"Kollaustraße 39, 22529 Hamburg",22529,53.60277,9.96157
3,Aral,"Schimmelmannstraße 97, 22043 Hamburg",22043,53.57267,10.10546
4,Hamburg Max-Brauer-Alle.,"Max-Brauer-Allee 216, 22769 Hamburg",22769,53.56201,9.9571
5,Steamwash Ökologische Fahrzeugreinigung,"Anckelmannstraße 13, 20537 Hamburg",20537,53.55256,10.02905
6,Hamburg Bundesstr,"Bundesstraße 66, 20144 Hamburg",20144,53.56995,9.9737
7,Fresh Car Kohrs,"Usedomstraße 14, 22047 Hamburg",22047,53.5879,10.10198
8,Shell,"Heidenkampsweg 54, 20097 Hamburg",20097,53.54864,10.02734
9,Clean & Green LKW-Waschanlage,"Lagerstrasse 26, 20357 Hamburg",20357,53.56275,9.96904
10,Lkw-Waschanlage Pfaff,"Liebigstraße 32, 22113 Hamburg",22113,53.53432,10.08464
11,Hamburg Amsinckstr,"Amsinckstraße 60, 20097 Hamburg",20097,53.54338,10.0214
12,Hamburg Koenigstrasse.,"Königstraße 22, 22767 Hamburg",22767,53.54865,9.94412
13,Aral,"Winterhuder Weg 25, 22085 Hamburg",22085,53.57383,10.02205
14,OMED GERMANY,"Moorfleeter Straße 43, 22113 Hamburg",22113,53.52517,10.09215
15,Joachim Hinze,"Im Gehölz 9, 20255 Hamburg",20255,53.57713,9.96177
16,Aral,"Nordschleswiger Straße 91, 22049 Hamburg",22049,53.5798,10.07
17,Awa Autowasch Best Carwash,"Spaldingstraße 105, 20097 Hamburg",20097,53.55022,10.01877
18,AutoChic,"Sievekingsallee 13, 20535 Hamburg",20535,53.56085,10.04134
19,Shell,"Georgswerder Bogen 12, 21109 Hamburg",21109,53.51833,10.02241
20,Aral,"Eiffestraße 506, 20537 Hamburg",20537,53.55135,10.05189
21,Hamburg Georgswerder Bogen,"Georgswerder Bogen 12, 21109 Hamburg",21109,53.51899,10.02224
22,Hamburg Eiffestr,"Eiffestraße 626, 20537 Hamburg",20537,53.55059,10.05973
23,Hamburg Friedrich-Ebert-Damm 171,"Friedrich-Ebert-Damm 171, 22047 Hamburg",22047,53.58943,10.09988
24,Car-Tex Autopflege,"Süderstraße 167, 20537 Hamburg",20537,53.5479,10.0393
25,Clean Car Autowaschanlagen,"Königstraße 24, 22767 Hamburg",22767,53.5484,9.94415
26,Aral,"Amsinckstraße 48, 20097 Hamburg",20097,53.54614,10.0149
27,Kpr Gebäudedienste,"Katharinenstraße 30A, 20457 Hamburg",20457,53.54541,9.99247
28,"Sb-Autowaschanlagen, Arff Renate U. Heino","Alter Teichweg 69, 22049 Hamburg",22049,53.58424,10.0589
29,Hamburg Schiffbeker Weg 90.,"Schiffbeker Weg 90/92, 22119 Hamburg",22119,53.5485,10.10848
30,Heger Autopflege,"Timmendorfer Stieg 34B, 22147 Hamburg",22147,53.60384,10.13482
31,Hamburg Hegestrasse,"Hegestraße 26, 20251 Hamburg",20251,53.58286,9.9816
32,Culap Autoglanz,"Nedderfeld 55, 22529 Hamburg",22529,53.60192,9.97263
33,Shell Station,"Hammer Deich, 20537 Hamburg",20537,53.54653,10.03994
34,Hanse Cleaner,"Osterbekstraße 90B, 22083 Hamburg",22083,53.58289,10.02841
35,Hamburg Carl-Petersen-Str. 76,"Carl-Petersen-Straße 76, 20535 Hamburg",20535,53.55746,10.04721
36,Shell Station,"Georgswerder Bogen 12, 21109 Hamburg",21109,53.51855,10.02329
37,Aral,"Dehnhaide 49, 22081 Hamburg",22081,53.57925,10.04494
38,Hamburg Ahrensburger Str,"Ahrensburger Straße 35, 22041 Hamburg",22041,53.57818,10.09333
39,ARAL Station,20539 Hamburg,20539,53.53655,10.0641
40,Aral,"Sievekingsallee 30, 20535 Hamburg",20535,53.56094,10.04791
41,Aral,"Habichtstraße 72-78, 22305 Hamburg",22305,53.59236,10.05473
42,Aral,"Habichtstraße 39, 22305 Hamburg",22305,53.59069,10.05657
43,Hamburg Luebecker Str,"Lübecker Straße 86, 22087 Hamburg",22087,53.5611,10.03167
44,Imo Autowaschanlage,"Haldesdorfer Straße 102, 22179 Hamburg",22179,53.60005,10.07893
45,Euro Shell Autohof,"Hammer Deich 3, 20537 Hamburg",20537,53.5466,10.04088
46,Fahrzeugrein Dabelstein,"Stegerwaldring 15, 22119 Hamburg",22119,53.55064,10.09966
47,Hamburg Juethornstr,"Jüthornstraße 49, 22043 Hamburg",22043,53.56679,10.07529
48,Aral,"Bundesstraße 38, 20146 Hamburg",20146,53.56587,9.97974
49,Tcc Trucks & Cars Cleaning Ali,"Andreas-Meyer-Straße 31-35, 22113 Hamburg",22113,53.51938,10.07712
50,Car Gloss Autopflege,"Wandalenweg 30, 20097 Hamburg",20097,53.55027,10.02527
51,HTR GmbH,"Berzeliusstraße 59, 22113 Hamburg",22113,53.534,10.09884
52,Mr. Your Cars,"Walddörferstraße 334, 22047 Hamburg",22047,53.58383,10.09885
53,Cotac Complete Tank Care,"Wendenstraße 414-424, 20537 Hamburg",20537,53.54943,10.04924
54,Shell,"Winterhuder Weg 72, 22085 Hamburg",22085,53.57411,10.02324
55,Aral,"Osterfeldstraße 30, 22529 Hamburg",22529,53.59851,9.97376
56,Reinigungsservice Durani,"Heckenpfad 2A, 22111 Hamburg",22111,53.54428,10.0827
57,Hamburg Doormannsweg.,"Doormannsweg 45, 20259 Hamburg",20259,53.56758,9.953
58,Aw-Consulting,"Sievekingdamm 72, 20535 Hamburg",20535,53.56005,10.05172
59,CleanCar,"Wandsbeker Zollstraße 117, 22041 Hamburg",22041,53.57716,10.08323
60,Hamburg Fruchtallee,"Fruchtallee 95, 20259 Hamburg",20259,53.57058,9.95411
61,Aral Tankstelle Bremer,"Großmannstraße 195-211, 20539 Hamburg",20539,53.5365,10.06465
62,Aral,"Schiffbeker Weg 228, 22119 Hamburg",22119,53.56232,10.12006
2,Auto-Glanz Töllner,"Stapelfelder Straße 140, 22143 Hamburg",22143,53.60254,10.18258
3,Eurowash International Service Management,"Schmahlsweg 16, 22143 Hamburg",22143,53.60587,10.16131
5,Aral,"Bargteheider Straße 100, 22143 Hamburg",22143,53.60482,10.14797
6,Starwash Waschstrasse,"Willinghusener Weg 1, 22113 Oststeinbek",22113,53.54555,10.1526
7,Nordoel,"Möllner Landstraße 83, 22113 Oststeinbek",22113,53.54254,10.17145
10,Aral,"Rahlstedter Straße 87, 22149 Hamburg",22149,53.59784,10.1529
0,JET Wäsche,"Großer Schippsee 37, 21073 Hamburg",21073,53.4624,9.9847
1,ARAL Station,"Wilhelm-Iwan-Ring, 21035 Hamburg",21035,53.48994,10.11459
2,Aral,"Winsener Straße 38, 21077 Hamburg",21077,53.44847,9.98825
3,Kaya Star Wash Center,"Wilhelm-Iwan-Ring 1, 21035 Hamburg",21035,53.49002,10.11476
4,Kaya Star Wash,"Wilhelm-Iwan-Ring 1, 21035 Hamburg",21035,53.48997,10.11477
5,TWS Truck Wash GmbH & Co.KG,"König-Georg-Deich 8, 21107 Hamburg",21107,53.47773,9.99501
6,Curt Richter SE,"Billwerder Ring 13, 21035 Hamburg",21035,53.49668,10.11917
7,Aral,"Mengestraße 14, 21107 Hamburg",21107,53.5004,9.99426
8,Hamburg Weusthoffstr,"Weusthoffstraße 30, 21075 Hamburg",21075,53.45643,9.95542
9,Hamburg Bremer Str. 112,"Bremer Straße 112, 21073 Hamburg",21073,53.45162,9.971
10,Hamburg Grossmoorbogen 1.,"Großmoorbogen 1, 21079 Hamburg",21079,53.46133,10.01296
11,Oil!,"Winsener Straße 158, 21077 Hamburg",21077,53.43093,9.98256
12,Bremsen-Service GmbH,"Pollhornbogen 17, 21107 Hamburg",21107,53.48549,9.98945
13,Hamburg Winsener Str. 91.,"Winsener Straße 91, 21077 Hamburg",21077,53.44468,9.99113
0,Nordoel,21033 Hamburg,21033,53.48912,10.19501
2,Hamburg Kirchwerder Landweg.,"Kirchwerder Landweg 546, 21037 Hamburg",21037,53.42098,10.14873
3,Avia Tankstelle,"Lauenburger Landstraße 8, 21039 Börnsen",21039,53.46999,10.27541
5,Aral,"Nettelnburger Landweg 2, 21035 Hamburg",21035,53.48671,10.18407
6,Aral,"Curslacker Neuer Deich 34, 21029 Hamburg",21029,53.48174,10.208
0,Koeln Escher Str,"Escher Straße 170, 50739 Cologne",50739,50.96559,6.93272
1,Koeln H.-Eckener-Str,"Hugo-Eckener-Straße 27 A, 50829 Köln",50829,50.97732,6.89515
2,Koeln Venloer Str. 771.,"Venloer Straße 771, 50827 Cologne",50827,50.96049,6.89373
3,Auto-Jet Waschstraßen Betriebsges.,"Oskar-Jäger-Straße 52, 50825 Köln",50825,50.94467,6.90935
4,Hjd-,"Liebigstraße 1, 50823 Köln",50823,50.95284,6.92528
5,Easy Clean,"Venloer Straße 405, 50825 Köln",50825,50.95187,6.91388
6,Koeln Neusser Str,"Neusser Straße 153, 50733 Cologne",50733,50.95843,6.95439
7,Aral,"Widdersdorfer Straße 427-431, 50933 Köln",50933,50.94698,6.88038
8,Koeln Venloer Str.166.,"Venloer Straße 166, 50823 Cologne",50823,50.94566,6.92741
9,Koeln Brauweiler Str,"Brauweilerstraße 30-32, 50859 Cologne",50859,50.94529,6.83137
10,Autowaschanlage Araksi Karanfiloglu,"Neusser Landstraße 2, 50735 Köln",50735,50.99875,6.93652
11,Aral,"Maarweg 126, 50825 Köln",50825,50.94341,6.89871
12,Aral,"Äußere Kanalstraße 90, 50827 Köln",50827,50.95859,6.90529
0,Aral,"Bergisch Gladbacher Straße 781, 51069 Cologne",51069,50.97436,7.05763
2,Aral,"Olpener Straße 1026, 51109 Köln",51109,50.94679,7.08489
4,Franz Rosmann,"Im Weidenbruch 118a, 51061 Köln",51061,50.98143,7.03363
5,Aral,"Bergisch Gladbacher Straße 417, 51067 Köln",51067,50.96771,7.03468
6,Aral,"Olpener Straße 498, 51109 Köln",51109,50.94298,7.05124
7,Aral,"Frankfurter Straße 198, 51065 Köln",51065,50.95033,7.01704
0,Onebus,"Aachener Straße 485, 50933 Köln",50933,50.93691,6.90244
1,Aral,"Aachener Straße 1100, 50858 Köln",50858,50.93828,6.84819
2,Aral,"Dürener Straße 407, 50858 Köln",50858,50.92313,6.86948
4,Aral,"Am Verteilerkreis, 50997 Köln",50997,50.89204,6.9663
5,Aral,"Aachener Straße 203-209, 50931 Köln",50931,50.93642,6.92228
8,Koeln Bonner Str,"Bonner Straße 98, 50677 Köln",50677,50.91578,6.96085
9,Mr. Wash Autoservice,"Weyerstraßerweg 1, 50969 Köln",50969,50.91902,6.94062
11,Cologne Truck Wash Eifeltor,"Am Eifeltor 1, 50997 Köln",50997,50.88781,6.92452
12,Aral,"Vogelsanger Weg 46, 50858 Köln",50858,50.93519,6.85349
13,SVG Station,50997 Cologne,50997,50.88764,6.92434
0,Aral,"Rolshover Straße 183, 51105 Köln",51105,50.92727,7.00019
1,Koeln Frankfurter Str.,"Frankfurter Straße 531, 51145 Cologne",51145,50.88212,7.08173
2,Aral,"Kölner Straße 255, 51149 Köln",51149,50.90364,7.02093
3,Starwash Waschstrasse,"Rudolf-Diesel-Straße 32, 51149 Köln",51149,50.90247,7.07315
4,Star,"Siegburger Straße 406, 51105 Köln",51105,50.91429,6.99433
5,Aral,"Rösrather Straße 521B, 51107 Cologne",51107,50.92369,7.07938
6,Cologne Truck Wash Köln-Porz,"Ettore-Bugatti-Straße 49, 51149 Köln",51149,50.90882,7.05407
7,Avia Tankstelle,"Walther-Rathenau-Straße 1, 50996 Köln",50996,50.89147,6.99727
8,Koeln Koelner Str,"Kölner Straße 108, 51149 Cologne",51149,50.89781,7.03612
9,Ferdl Röder,"Sürther Straße 76, 50996 Köln",50996,50.88528,6.99795
10,Dilman Autocenter Autowaschanlage,"Siegburger Straße 490, 51105 Köln",51105,50.91304,6.99765
11,Aral,"Kölnstraße 1, 50999 Köln",50999,50.86971,7.00531
12,Cologne Truck Wash A7,"Ettore-Bugatti-Straße 49, 51149 Köln",51149,50.9086,7.054
13,Irene Kaschel,"Leostraße 40, 51145 Köln",51145,50.89377,7.07359
0,TOP WASH Frankfurt,"Karl-von-Drais-Straße 15, 60435 Frankfurt am Main",60435,50.14867,8.67826
1,Top Wash Autopflege,"An den Postwiesen 9, 60488 Frankfurt am Main",60488,50.13939,8.62337
2,Hobby - Waschcenter,"Bockenheimer Landstraße 98-100, 60323 Frankfurt am Main",60323,50.11951,8.65815
3,Maincarcleaner,"Langweidenstraße 34, 60488 Frankfurt am Main",60488,50.13224,8.63222
5,Autowaschanlagen Haxholli,"Eckenheimer Landstraße 179, 60320 Frankfurt am Main",60320,50.13228,8.68345
7,Frankfurt,"Erich-Ollenhauer-Ring 8, 60439 Frankfurt am Main",60439,50.15893,8.63396
8,Aral,"Ludwig-Landmann-Straße 90, 60488 Frankfurt am Main",60488,50.14134,8.60972
9,BFT,"In der Römerstadt 74, 60439 Frankfurt am Main",60439,50.15584,8.64178
10,Frankfurt Eschersheimer Landstr,"Eschersheimer Landstraße 328, 60320 Frankfurt am Main",60320,50.14375,8.66918
11,Auto-Wasch-Center Wildemann,"Rödelheimer Landstraße 85, 60487 Frankfurt am Main",60487,50.1212,8.62176
12,Amores Car Polish Team,"Rödelheimer Landstraße 75-85, 60487 Frankfurt am Main",60487,50.1212,8.62176
13,Francesco Davino,"Konrad-Broßwitz-Straße 42, 60487 Frankfurt am Main",60487,50.12659,8.64183
14,Top Wash Autopflege,"Georg-Wolff-Straße 22, 60439 Frankfurt am Main",60439,50.16161,8.64432
16,Kerry Reddington,"Eschenheimer Anlage 23, 60318 Frankfurt am Main",60318,50.11902,8.68378
20,Shell,"Westerbachstraße 204, 65936 Frankfurt am Main",65936,50.1239,8.57922
22,Peter Burk,"Karl-von-Drais-Straße 15, 60435 Frankfurt am Main",60435,50.14867,8.67826
23,Autopflege Lukas,"Dunantring 125, 65936 Frankfurt am Main",65936,50.11638,8.55718
24,Frankfurt Huegelstr,"Hügelstraße 145 A, 60431 Frankfurt am Main",60431,50.14715,8.66268
25,Aral,65929 Frankfurt am Main,65929,50.11812,8.54175
0,Klöss,"Am Dachsberg 202, 60435 Frankfurt am Main",60435,50.15979,8.68902
1,Frankfurt/m. Hanauer Landst.,"Hanauer Landstraße 334, 60314 Frankfurt am Main",60314,50.12291,8.74224
3,Aral,"Ratsweg 12, 60386 Frankfurt am Main",60386,50.12354,8.72351
4,Harkan Pakoeren,"Hanauer Landstraße 334, 60314 Frankfurt am Main",60314,50.12261,8.74128
6,Aral,"Friedberger Landstraße 325, 60389 Frankfurt am Main",60389,50.14041,8.69814
7,Aral,"Friedberger Landstraße 300, 60389 Frankfurt am Main",60389,50.13362,8.69638
9,Shell,"Friedberger Landstraße 152, 60389 Frankfurt am Main",60389,50.12988,8.69434
11,MrDetail,"Friedberger Landstraße 314, 60389 Frankfurt am Main",60389,50.13456,8.69657
12,Karl Schmidt Spedition,"Uhlfelderstraße 14, 60314 Frankfurt am Main",60314,50.1177,8.74785
13,Car Beauty Shop,"Voltenseestraße 24, 60388 Frankfurt am Main",60388,50.14478,8.74139
0,Frankfurt Bolongarostr,"Bolongarostraße 63, 65934 Frankfurt am Main",65934,50.10222,8.55758
1,Autowaschanlage Ahmed Choukri,"Lärchenstraße 7, 65933 Frankfurt am Main",65933,50.09653,8.60642
2,Softy-Wash,"Goldsteinstraße 221, 60528 Frankfurt am Main",60528,50.08426,8.62369
3,Frankfurt Moerfelder Landst.,"Mörfelder Landstraße 230, 60598 Frankfurt am Main",60598,50.08887,8.66907
4,Aral,"Lyoner Straße 70, 60528 Frankfurt am Main",60528,50.07802,8.63412
5,Blitz & Blank Autoservice,"Mainzer Landstraße 371, 60326 Frankfurt am Main",60326,50.10176,8.63302
6,Frankfurt Niederraederufer.,"Niederräder Ufer 51, 60528 Frankfurt am Main",60528,50.08854,8.63585
7,Aqua Autowasch,"Schmidtstraße 49, 60326 Frankfurt am Main",60326,50.10375,8.61691
8,Aral,60528 Frankfurt am Main,60528,50.07979,8.65501
9,Frankfurt Moerfelder Land 3.,"Mörfelder Landstraße 377, 60528 Frankfurt am Main",60528,50.07552,8.65409
5,Aral,"Darmstädter Landstraße 304, 60598 Frankfurt am Main",60598,50.08979,8.69075
7,Frankfurt / Main Moerfelder.,"Mörfelder Landstraße 16, 60598 Frankfurt am Main",60598,50.10042,8.69033
10,Aral,"Hanauer Landstraße 34-40, 60314 Frankfurt am Main",60314,50.11278,8.70001
0,Helmut Westenhuber Kfz-Reinigung,"Georg-Pickl-Weg 5, 80995 München",80995,48.19445,11.52564
1,Tip-Top Autopflege,"Ponkratzstraße 1, 80995 München",80995,48.21163,11.54014
2,Muenchen Nymphenburger Str,"Nymphenburger Straße 57-59, 80335 München",80335,48.14938,11.54801
3,Shell,"Bodenseestraße 40, 81243 München",81243,48.14701,11.45139
4,Aral,"Lochhausener Straße 229, 81249 München",81249,48.1787,11.4047
5,Aral,"Schwere-Reiter-Straße 26, 80797 München",80797,48.16114,11.5566
6,Nymphenburger Kfz-Service,"Nymphenburger Straße 59, 80335 München",80335,48.14926,11.54794
7,Muenchen Frankfurter Ring.,"Frankfurter Ring 87, 80807 München",80807,48.18807,11.5807
8,Muenchen Schleissheimer Str,"Schleißheimer Straße 272, 80809 München",80809,48.17446,11.56637
9,Waldhof Ltd.,"Amalienstraße 71, 80799 München",80799,48.15055,11.57837
10,Muenchen Menziger Str,"Menzinger Straße 10, 80638 München",80638,48.16009,11.5118
11,Muenchen Schwere-Reiter- St.,"Schwere-Reiter-Straße 26, 80797 München",80797,48.16114,11.5566
12,Laslo Tarnok,"Schwere-Reiter-Straße 39, 80797 München",80797,48.16168,11.55963
13,Dollinger August Kfz-Aufbereitung,"Landsberger Straße 83-87, 80339 München",80339,48.13985,11.53522
14,Autowaschanlage Sivri,"Brieger Straße 27, 80997 München",80997,48.18216,11.4918
15,Esso,"Arnulfstraße 279, 80639 München",80639,48.15233,11.51426
16,Aral,"Landshuter Allee 163, 80637 München",80637,48.16362,11.53719
18,Cars Perfect,"Bodenseestraße 207, 81243 München",81243,48.14311,11.4301
19,Muenchen W.-Hale-Str,"Wilhelm-Hale-Straße 55, 80639 München",80639,48.14959,11.51998
20,Aral,"Nymphenburger Straße 205, 80639 München",80639,48.15747,11.52817
21,Igs-Autopflege,"Landsberger Straße 294, 80687 München",80687,48.14306,11.50204
22,Muenchen Moosacher Str,"Moosacher Straße 25, 80809 München",80809,48.18647,11.56121
23,Mandalinic Waschanlage,"Triebstraße 11, 80993 München",80993,48.18766,11.52898
24,OMV Station,"Triebstraße, 80993 München",80993,48.18668,11.53433
25,Aral,"Georg-Brauchle-Ring 27, 80992 München",80992,48.17603,11.53601
26,Mikel's Autopflegeservice,"Wiesenstraße 4, 80993 München",80993,48.18228,11.51774
27,Autohaus Forster,"Lerchenstraße 20, 80995 München",80995,48.20299,11.54379
28,Total Wash,"Moosacher Straße 36, 80809 München",80809,48.18693,11.55617
29,Muenchen Verdistr,"Verdistraße 96, 81247 München",81247,48.16513,11.46725
30,Muenchen Gundermannstr.6.,"Gundermannstraße 6, 80935 München",80935,48.20463,11.55892
31,Aral,"Landsberger Straße 423-425, 81241 München",81241,48.14504,11.47867
32,Aral,"Triebstraße 11E, 80993 München",80993,48.18771,11.53063
0,BFT Station,"Hofbräuallee, 81829 München",81829,48.14384,11.70325
1,Aral,"Otto-Perutz-Straße 1-3, 81829 München",81829,48.13794,11.71185
2,OMV Station,"Cosimastraße, 81927 München",81927,48.15545,11.62973
5,Sprint,"Riemer Straße 339, 81829 München",81829,48.14061,11.67999
7,Muenchen Ungererstr,"Ungererstraße 65, 80805 München",80805,48.1714,11.59449
8,Muenchen Leopoldstr,"Leopoldstraße 140, 80804 München",80804,48.16851,11.58673
10,Bp,"Freischützstraße 4, 81927 München",81927,48.15749,11.6423
11,Starwash Waschstraße 3363,"Maria-Probst-Straße 6, 80939 München",80939,48.19193,11.58848
12,Bp,"Riemer Straße 360, 81829 München",81829,48.14045,11.68393
13,Peter Jahrstorfer,"Joseph-Dollinger-Bogen 30, 80807 München",80807,48.1856,11.60591
14,Auto-Doc,"Domagkstraße 33, 80807 München",80807,48.1837,11.59597
15,Muenchen Grillparzerstr,"Grillparzerstraße 15, 81675 München",81675,48.13471,11.60972
16,Aral,"Richard-Strauss-Straße 70, 81679 München",81679,48.14576,11.61647
1,Muenchen Tegernseer Landstr.,"Tegernseer Landstraße 181, 81539 München",81539,48.10796,11.5803
2,Aral,"Plinganserstraße 70, 81369 München",81369,48.11226,11.53909
3,Muenchen Liesl-Karlstadts.2.,"Liesl-Karlstadt-Straße 25, 81476 München",81476,48.08456,11.49061
5,Autopflege Maul,"Kistlerhofstraße 255, 81379 München",81379,48.09397,11.50641
8,Bietsch Dienstleistungen,"Zenettistraße 11, 80337 München",80337,48.12258,11.55638
10,Aral,"Waldwiesenstraße 31, 81375 München",81375,48.11879,11.47851
11,Freunds Autopflege,"Kolumbusstraße 5A, 81543 München",81543,48.12238,11.57641
12,Aral,"Tegernseer Landstraße 174, 81539 München",81539,48.10778,11.57927
13,Ps-Sk-Reinigung,"Levkojenstraße 18, 80689 München",80689,48.1297,11.48227
14,Aral,"Kapuzinerstraße 46, 80469 München",80469,48.12384,11.56485
16,Wagenpflege Angelika Maria Schmid,"Danklstraße 16, 81371 München",81371,48.1189,11.54653
17,Aral,"Garmischer Straße 138, 81373 München",81373,48.12689,11.52189
18,1 A Car Care,"Fürstenrieder Straße 244, 81377 München",81377,48.1177,11.50205
19,Mark Brodeßer Und Hüseyin Koyun,"Kemptener Straße 27, 81475 München",81475,48.08061,11.48381
20,Polymers Fahrzeugaufbereitung,"Leutstettener Straße 35, 81477 München",81477,48.09303,11.51735
21,Aral,"Garmischer Straße 197, 81377 München",81377,48.1212,11.51927
0,Ledi Autopflege Fa. Miljaim Aliti,"Grafinger Straße 29, 81671 München",81671,48.12491,11.61095
4,OMV Topwash,"Innsbrucker Ring 153, 81669 München",81669,48.11374,11.61736
5,OMV Station,"Heinrich-Wieland-Straße, 81735 München",81735,48.11212,11.64723
6,OMV Station,"Innsbrucker Ring, 81669 München",81669,48.11268,11.61696
7,Roelko,"Hohenaschauer Straße 80, 81669 München",81669,48.11188,11.60752
8,Car Clean Station,"Rosenheimer Straße 125, 81667 München",81667,48.12588,11.59849
9,Allguth Autopflegecenter München,"Kreillerstraße 219, 81825 München",81825,48.12195,11.6641
10,Bp,"Heinrich-Wieland-Straße 2, 81735 München",81735,48.11831,11.63082
