,name,address,postcode,latitude,longitude
1,Star,"Heiligenseestraße 28, 13503 Berlin",13503,52.60183,13.24339
3,Shell,"Eichborndamm 91, 13403 Berlin",13403,52.5763,13.31452
5,Shell Berlin Scharnweberstr79/81.,"Scharnweberstraße 79/81, 13405 Berlin",13405,52.56771,13.30976
6,Shell Berlin Hermsdorfer Damm 141-143.,"Hermsdorfer Damm 141-143, 13467 Berlin",13467,52.61622,13.30069
7,Hager Autogas Service - Sven Hager,"Holzhauser Straße 158 a, 13509 Berlin",13509,52.58378,13.3162
8,JET,"Holzhauser Straße 34, 13509 Berlin",13509,52.57842,13.29909
9,Shell Berlin Ruppiner Chaussee.,"Ruppiner Chaussee 339, 13503 Berlin",13503,52.62073,13.23623
12,SPREVES-Station,"Hermsdorfer Damm 180.0, 13467 Berlin",13467,52.61938,13.30429
13,TotalEnergies Berlin Eichborndamm 91,"Eichborndamm 91, 13403 Berlin",13403,52.5763,13.31452
14,Star,"Oraniendamm 28, 13469 Berlin",13469,52.61103,13.31901
15,Hem Tankstelle,"Berliner Straße 140, 13467 Berlin",13467,52.61344,13.31529
17,JET,"Kurt-Schumacher-Damm 36, 13405 Berlin",13405,52.5611,13.3241
18,Aral,"Berliner Straße 24, 13507 Berlin",13507,52.5842,13.28789
20,Aral,"Berliner Straße 67, 13507 Berlin",13507,52.58157,13.29116
21,Hem Tankstelle,"Wittestraße 16, 13509 Berlin",13509,52.57757,13.30642
22,TotalEnergies Konradshöhe Habichtstraße,"Habichtstraße 11, 13505 Berlin",13505,52.586,13.2318
23,Esso,"Hermsdorfer Damm 221, 13467 Berlin",13467,52.62256,13.31228
24,Star,"Waidmannsluster Damm 54, 13509 Berlin",13509,52.59814,13.29876
25,Nord-Tanke LPG-Tankstelle,"Antonienstraße 34N, 13403 Berlin",13403,52.57735,13.31418
26,Tankstelle mit Geldausgabeautomat,"Hermsdorfer Damm 141-143, 13467 Berlin",13467,52.61595,13.30049
27,Tankstelle mit Geldausgabeautomat,"Ruppiner Chaussee 339, 13503 Berlin",13503,52.62074,13.2362
30,Tankstelle mit Geldausgabeautomat,"Scharnweberstraße 79-81, 13405 Berlin",13405,52.5662,13.31909
0,Star,"Hansastraße 220, 13051 Berlin",13051,52.55976,13.49662
1,Aral,"Roedernallee 179, 13407 Berlin",13407,52.57893,13.3464
2,TotalEnergies Niederschönhausen Wackenbergstraße,"Wackenbergstraße 2-6, 13156 Berlin",13156,52.5829,13.4043
3,TotalEnergies Berlin Wackenbergstr. 2-6,"Wackenbergstraße 2-6, 13156 Berlin",13156,52.58289,13.40428
4,Shell Berlin Berliner Str. 32.,"Berliner Straße 32, 13127 Berlin",13127,52.6011,13.43243
5,Hem Tankstelle,"Schönerlinder Straße 60-61, 13127 Berlin",13127,52.61324,13.4333
6,TotalEnergies Markstraße,"Markstraße 43-44, 13409 Berlin",13409,52.56263,13.36477
7,TotalEnergies Berlin Am Feuchten Winkel 11,"Am Feuchten Winkel 11, 13129 Berlin",13129,52.58205,13.43254
9,Hoyer Reinickendorf Kopenhagener Straße,"Kopenhagener Straße 36-58, 13407 Berlin",13407,52.57716,13.36154
10,Sprint Heinersdorf Blankenburger Straße,"Blankenburger Straße 96-99, 13089 Berlin",13089,52.5713,13.4427
11,Star Station,"Prenzlauer Promenade 70, 13089 Berlin",13089,52.56869,13.42825
12,Agip,"Dannenwalder Weg 69, 13439 Berlin",13439,52.59176,13.34678
13,Agip,"Dietzgenstraße 127, 13158 Berlin",13158,52.59438,13.40249
14,Aral,"Mühlenstraße 26, 13187 Berlin",13187,52.56383,13.40783
15,Shell Berlin Damerowstrasse.,"Damerowstraße 22/23, 13187 Berlin",13187,52.5729,13.42116
16,Autohaus Koschnick,"Gehringstraße 17-18, 13088 Berlin",13088,52.56247,13.46229
19,Shell Berlin Rothenbachstr.,"Rothenbachstraße 1, 13089 Berlin",13089,52.57153,13.42985
20,Star,"Malchower Chaussee 1, 13088 Berlin",13088,52.56601,13.4711
21,Star,"Prenzlauer Promenade 72-73, 13089 Berlin",13089,52.5692,13.42891
22,Star,"Berliner Allee 257, 13088 Berlin",13088,52.56081,13.46682
23,BarMalGas LPG-Tankstelle,"Bucher Straße 23, 13125 Berlin",13125,52.61794,13.45002
24,TotalEnergies Station,"Zepernicker Straße 9-10, 13125 Berlin",13125,52.64088,13.514
25,Parlak Mega Car Service,"Residenzstraße 62.0, 13409 Berlin",13409,52.5616,13.36684
26,Q1 Niederschönhausen Blankenburger Straße,"Blankenburger Straße 36-38, 13156 Berlin",13156,52.5818,13.4096
27,Aral,"Pasewalker Straße 110, 13127 Berlin",13127,52.58612,13.43021
28,Hem Tankstelle,"Prenzlauer Promenade 68, 13089 Berlin",13089,52.5679,13.42856
29,TotalEnergies BERLIN RIBNITZER STR,"Darßer Straße 42, 13051 Berlin",13051,52.56553,13.49171
30,Esso,"Wilhelmsruher Damm 160, 13435 Berlin",13435,52.59639,13.3472
31,SUN Oranienburger Straße Berlin,"Oranienburger Straße 181, 13437 Berlin",13437,52.59893,13.33198
32,TotalEnergies Weißensee Roelckestraße,"Roelckestraße 74-76, 13088 Berlin",13088,52.5623,13.4591
33,Esso,"Holländerstraße 52, 13407 Berlin",13407,52.56459,13.33564
34,Shell Berlin Ollenhauerstr.101.,"Ollenhauerstraße 101, 13403 Berlin",13403,52.57123,13.32903
36,Shell Berlin Oranienburger Str.,"Alt-Wittenau 61, 13437 Berlin",13437,52.58989,13.33464
37,Hem Tankstelle,"Straße vor Schönholz 3, 13158 Berlin",13158,52.57657,13.37864
38,Tamoil Straße vor Schönholz,"Straße vor Schönholz 2/3, 13158 Berlin",13158,52.57629,13.37861
39,Hem Tankstelle,"Romain-Rolland-Straße 2, 13089 Berlin",13089,52.56482,13.44885
40,TotalEnergies Berlin Zepernicker Str. 9-10,"Zepernicker Straße 9-10, 13125 Berlin",13125,52.64098,13.51427
41,Shell Berlin Karower Damm 35.,"Karower Damm 35, 13129 Berlin",13129,52.59673,13.46629
42,Sprint Reinickendorf Kapweg,"Kapweg, 13405 Berlin",13405,52.5618,13.3291
43,HEM Französisch Buchholz Schönerlinder Straße,"Schönerlinder Straße 3, 13127 Berlin",13127,52.6134,13.4334
44,Aral,"Residenzstraße 29, 13409 Berlin",13409,52.56821,13.3613
45,Bft Tankstelle,"Blankenburger Straße 36, 13156 Berlin",13156,52.5817,13.40999
46,Aral,"Scharnweberstraße 12-13, 13405 Berlin",13405,52.56337,13.32989
47,JET,"Hauptstraße 70 A, 13127 Berlin",13127,52.6036,13.4321
48,Hem Tankstelle,"Berliner Allee 320, 13088 Berlin",13088,52.56558,13.47246
49,Peter Lindner Vertrieb techn. Gase,"Bahnhofstraße 7.0, 13127 Berlin",13127,52.5948,13.43464
51,Tankstelle mit Geldausgabeautomat,"Karower Damm 35, 13129 Berlin",13129,52.59675,13.46653
52,Tankstelle mit Geldausgabeautomat,"Berliner Straße 32, 13127 Berlin",13127,52.60116,13.43247
53,Tankstelle mit Geldausgabeautomat,"Ollenhauerstraße 101, 13403 Berlin",13403,52.57095,13.32986
54,Tankstelle mit Geldausgabeautomat,"Rothenbachstraße 1, 13089 Berlin",13089,52.57165,13.42959
55,Tankstelle mit Geldausgabeautomat,"Damerowstraße 22-23, 13187 Berlin",13187,52.57288,13.42116
56,Tankstelle mit Geldausgabeautomat,"Oranienburger Straße 61-62, 13437 Berlin",13437,52.58994,13.33479
1,Agip,"Ahrensfelder Chaussee 152, 12689 Berlin",12689,52.57215,13.56503
0,Shell Berlin Spandauer Damm.,"Spandauer Damm 151, 14050 Berlin",14050,52.51914,13.27455
1,Aral,"Gartenfelder Straße 71, 13599 Berlin",13599,52.54365,13.24339
2,Aral,"Heerstraße 325, 13593 Berlin",13593,52.5164,13.17777
3,Star Spandau Brunsbütteler Damm,"Brunsbütteler Damm 82-102, 13581 Berlin",13581,52.5344,13.1844
4,Aral Avus,"Nordschleife, 14055 Berlin",14055,52.5019,13.27806
5,Star,"Kaiser-Friedrich-Straße 102, 10585 Berlin",10585,52.51733,13.30114
6,Star,"Gatower Straße 173, 13595 Berlin",13595,52.50476,13.18055
7,Tankstelle Götelstrasse,"Götelstraße 132-140, 13595 Berlin",13595,52.5228,13.2036
8,Tankstelle Sophie Charlotten Straße,"Sophie-Charlotten-Straße 5.0, 14059 Berlin",14059,52.522,13.2849
9,JET,"Charlottenburger Chaussee 47, 13597 Berlin",13597,52.5272,13.2343
10,Hem Tankstelle,"Saatwinkler Damm 62, 13627 Berlin",13627,52.54737,13.31012
11,Shell Berlin Kaiserdamm.,"Kaiserdamm 34, 14057 Berlin",14057,52.50999,13.27695
12,Esso Wilhelmstadt Ruhlebener Straße,"Ruhlebener Straße 183, 13597 Berlin",13597,52.5273,13.21089
13,Shell Berlin Kaiser-Friedr.Str95.,"Kaiser-Friedrich-Straße 95, 10585 Berlin",10585,52.51588,13.30137
14,Esso,"Hubertusallee 1-3, 14193 Berlin",14193,52.49431,13.28482
15,BAVARIA petrol Halensee Heilbronner Straße,"Heilbronner Straße 14-15, 10711 Berlin",10711,52.5018,13.2943
16,Aral,"Messedamm 6, 14057 Berlin",14057,52.50837,13.28064
17,Shell Berlin Hohenzollern- Damm.,"Hohenzollerndamm 41, 10713 Berlin",10713,52.48871,13.30667
18,Sprint Haselhorst Nonnendammallee,"Nonnendammallee 42.0, 13599 Berlin",13599,52.5376,13.2473
19,Sprint Wilmersdorf Mecklenburgische Straße,"Mecklenburgische Straße 76.0, 10713 Berlin",10713,52.4798,13.31241
20,Aral,"Kaiser-Friedrich-Straße 45B, 10627 Berlin",10627,52.50765,13.30172
21,Sprint Charlottenburg Kantstraße,"Kantstraße 126-127, 10625 Berlin",10625,52.50609,13.31204
22,CleanCar Spandau Charlottenburger Chaussee,"Charlottenburger Chaussee 51-55, 13597 Berlin",13597,52.52578,13.24086
23,Shell Berlin Heerstr. 326-328.,"Heerstraße 326-328, 13593 Berlin",13593,52.51707,13.1787
24,TotalEnergies Streitstraße Berlin,"Streitstraße 84, 13587 Berlin",13587,52.55459,13.20718
25,HEM Charlottenburg-Nord Saatwinkler Damm,"Saatwinkler Damm 62, 13627 Berlin",13627,52.5474,13.30985
26,Esso Wilmersdorf Bundesallee,"Bundesallee 176, 10715 Berlin",10715,52.4866,13.3315
27,Aral,"Bismarckstraße 2, 10625 Berlin",10625,52.5127,13.31928
28,Aral,"Kurfürstendamm 128, 10711 Berlin",10711,52.49565,13.28758
29,Esso,"Falkenseer Chaussee 50, 13583 Berlin",13583,52.54905,13.17894
30,Esso,"Ruhlebener Straße 185, 13597 Berlin",13597,52.52743,13.21024
31,Sprint Tankstelle,"Ruhlebener Straße 1a, 13597 Berlin",13597,52.52929,13.20729
32,Sprint Spandau Seegefelder Straße,"Seegefelder Straße 41.0, 13583 Berlin",13583,52.5361,13.191
33,Mr Wash Nonnendammallee Berlin,"Nonnendammallee 27.0, 13599 Berlin",13599,52.53822,13.24107
34,Aral,"Beusselstraße 55, 10553 Berlin",10553,52.53091,13.32832
35,CleanCar,"Charlottenburger Chaussee 53, 13597 Berlin",13597,52.52717,13.2326
36,Aral,"Heerstraße 136, 14055 Berlin",14055,52.50721,13.22761
37,Star,"Otto-Suhr-Allee 132, 10585 Berlin",10585,52.51878,13.30321
38,Aral,"Westfälische Straße 9-10, 10709 Berlin",10709,52.49251,13.30928
39,Sprint Station,"Nonnendammallee 42, 13599 Berlin",13599,52.53784,13.24695
40,Esso,"Heerstraße 285, 13595 Berlin",13595,52.51492,13.18502
41,Star,"Brunsbütteler Damm 82-102, 13581 Berlin",13581,52.53421,13.1847
42,Shell Berlin Beusselstr. 44.,"Beusselstraße 44, 10553 Berlin",10553,52.53273,13.32877
43,JET,"Brunsbütteler Damm 87-89, 13581 Berlin",13581,52.5338,13.1848
44,Shell Berlin Letterhausweg.,"Letterhausweg 2, 13627 Berlin",13627,52.5342,13.2828
45,Shell Berlin Bundesallee.,"Bundesallee 200, 10717 Berlin",10717,52.49284,13.33152
46,TotalEnergies Berlin Heerstr.,"Heerstraße 35-37, 14055 Berlin",14055,52.50836,13.26057
47,Aral,"Hohenzollerndamm 97, 14199 Berlin",14199,52.47613,13.27923
48,SUN Klosterstrasse Berlin,"Klosterstraße 19-20, 13581 Berlin",13581,52.5294,13.19532
49,Sprint Charlottenburg Lietzenburger Straße,"Lietzenburger Straße 97.0, 10719 Berlin",10719,52.4995,13.3194
50,Agip Tankstelle,"Paulsborner Straße, 10709 Berlin",10709,52.49322,13.29681
51,SB-Tanktreff Charlottenburg Fraunhoferstraße,"Fraunhoferstraße 33.0, 10587 Berlin",10587,52.5144,13.3219
52,Esso,"Bundesallee 176, 10715 Berlin",10715,52.48642,13.33155
53,Aral,"Falkenseer Damm 16, 13585 Berlin",13585,52.54268,13.19948
54,GO Reichsstraße Berlin,"Reichsstraße 86.0, 14052 Berlin",14052,52.5146,13.2628
55,Aral,"Reichsstraße 13/14, 14052 Berlin",14052,52.51365,13.26604
56,Shell Berlin Kaiserin-Aug.- Allee.,"Kaiserin-Augusta-Allee 9-9 A, 10553 Berlin",10553,52.5255,13.3245
57,Aral,"Blissestraße 21, 10713 Berlin",10713,52.48439,13.32056
58,Hoyer Automatenstation,"Otternbuchtstraße 20A, 13599 Berlin",13599,52.5341,13.24851
59,Aral,"Klosterstraße 20, 13581 Berlin",13581,52.52944,13.19523
60,Shell Berlin Am Juliusturm.,"Am Juliusturm 33, 13599 Berlin",13599,52.53667,13.22195
61,TotalEnergies Berlin Heerstr. 324,"Heerstraße 324, 13593 Berlin",13593,52.5168,13.18005
62,Spreves Tankstelle,"Zeppelinstraße 51.0, 13583 Berlin",13583,52.54015,13.18309
63,Agip,"Heerstraße 343, 13593 Berlin",13593,52.51704,13.1749
64,Tankstelle mit Geldausgabeautomat,"Kaiser-Friedrich-Straße 95, 10585 Berlin",10585,52.5159,13.30108
65,Tankstelle mit Geldausgabeautomat,10553 Berlin,10553,52.53381,13.31662
66,Tankstelle mit Geldausgabeautomat,"Letterhausweg 2, 13627 Berlin",13627,52.53444,13.28285
67,Tankstelle mit Geldausgabeautomat,"Kaiserdamm 34, 14057 Berlin",14057,52.51005,13.27712
68,Tankstelle mit Geldausgabeautomat,"Spandauer Damm 151, 14050 Berlin",14050,52.51919,13.2722
69,Tankstelle mit Geldausgabeautomat,"Kaiserin-Augusta-Allee 9-9a, 10553 Berlin",10553,52.52567,13.32429
70,Tankstelle mit Geldausgabeautomat,"Am Juliusturm 33, 13599 Berlin",13599,52.53671,13.22193
71,Tankstelle mit Geldausgabeautomat,"Heerstraße 326-328, 13593 Berlin",13593,52.51697,13.17904
72,Tankstelle mit Geldausgabeautomat,"Bundesallee 200, 10717 Berlin",10717,52.49292,13.33136
73,Tankstelle mit Geldausgabeautomat,"Hohenzollerndamm 41, 10713 Berlin",10713,52.48881,13.30712
0,TotalEnergies Berlin Tempelhofer Ufer 33-35,"Tempelhofer Ufer 33-35, 10963 Berlin",10963,52.50048,13.3767
1,Tankstelle Werner Voss Damm,"Werner-Voß-Damm 54.0, 12101 Berlin",12101,52.475,13.3703
2,Aral,"Holzmarktstraße 12/14, 10179 Berlin",10179,52.51415,13.42149
3,TotalEnergies Landsberger Allee,"Landsberger Allee 376, 12681 Berlin",12681,52.53559,13.52231
4,JET,10365 Berlin,10365,52.5212,13.4992
5,Agip Service Station,"An der Putlitzbrücke, 13353 Berlin",13353,52.53832,13.34381
6,Shell Berlin Oranienstr.,"Oranienstraße 138, 10969 Berlin",10969,52.50407,13.40841
7,Esso,"Lessingstraße 4, 10555 Berlin",10555,52.51971,13.34143
8,Esso,"Tempelhofer Damm 20, 12101 Berlin",12101,52.48118,13.38556
9,TotalEnergies Berlin Prenzlauer Allee 1-4,"Prenzlauer Allee 1-4, 10405 Berlin",10405,52.5289,13.41808
10,TotalEnergies Mitte Chausseestraße,"Chausseestraße 61-62, 10115 Berlin",10115,52.53709,13.37525
11,Aral,"Skalitzer Straße 26, 10999 Berlin",10999,52.49878,13.42288
12,Shell Berlin Martin-Luther-Str.,"Martin-Luther-Straße 29, 10777 Berlin",10777,52.49639,13.34654
13,JET,"Rhinstraße 240, 13053 Berlin",13053,52.5473,13.5092
14,Aral,"Levetzowstraße 9, 10555 Berlin",10555,52.52077,13.33361
15,Tankcenter Marzhahn,"Bitterfelder Straße 29, 12681 Berlin",12681,52.5565,13.5279
16,Shell Berlin Berliner Str. 83.,"Berliner Straße 83 E, 13189 Berlin",13189,52.5563,13.4152
17,TotalEnergies Holzmarktstraße Berlin,"Holzmarktstraße 36-42, 10243 Berlin",10243,52.51144,13.42887
18,TotalEnergies Alt-Hohenschönhausen Indira-Gandhi-Straße,"Indira-Gandhi-Straße 106-109, 13053 Berlin",13053,52.54764,13.4682
19,TotalEnergies Rhinstraße,"Rhinstraße 175, 13053 Berlin",13053,52.53675,13.51569
20,TotalEnergies Rummelsburg Blockdammweg,"Blockdammweg 6, 10317 Berlin",10317,52.48299,13.50216
21,Esso,"Martin-Luther-Straße 67, 10779 Berlin",10779,52.49009,13.34542
22,Oil,"Genslerstraße 69-72, 13055 Berlin",13055,52.5428,13.5006
23,Shell Berlin Muellerstr.,"Müllerstraße 22 B-23, 13353 Berlin",13353,52.5457,13.3612
24,TotalEnergies Bulgarische Straße Berlin,"Bulgarische Straße 9, 12435 Berlin",12435,52.48371,13.47846
25,Aral,"Brunnenstraße 119, 13355 Berlin",13355,52.54071,13.39321
26,Aral,"Rathenower Straße 8, 10559 Berlin",10559,52.52535,13.35702
27,Shell,"Tempelhofer Ufer 33-35, 10963 Berlin",10963,52.50049,13.37677
28,Mr Wash Rhinstraße,"Rhinstraße 136.0, 12681 Berlin",12681,52.531,13.5201
29,Shell Berlin Skalitzer Str. 48.,"Skalitzer Straße 48, 10997 Berlin",10997,52.49918,13.43329
30,Star,"Siegfriedstraße 170, 10365 Berlin",10365,52.52427,13.49906
31,TotalEnergies Storkower Straße,"Storkower Straße 174, 10369 Berlin",10369,52.52751,13.45804
32,Shell Berlin Prinzenallee 20.,"Prinzenallee 20, 13357 Berlin",13357,52.55519,13.38442
33,Elan Storkower Straße Berlin,"Storkower Straße 116.0, 10407 Berlin",10407,52.53576,13.4505
34,JET,"Storkower Straße 126-130, 10407 Berlin",10407,52.5337,13.4521
35,Star,"Rhinstraße 47, 10315 Berlin",10315,52.52267,13.51906
36,TotalEnergies Berlin Margarete-Sommer-Str. 2,"Margarete-Sommer-Straße 2, 10407 Berlin",10407,52.53086,13.44139
37,Esso,"Gneisenaustraße 104-106, 10961 Berlin",10961,52.49272,13.39058
38,Aral,"Seestraße 18/19, 13353 Berlin",13353,52.5464,13.34519
39,JET,"Herzbergstraße 27, 10365 Berlin",10365,52.5262,13.4886
40,Tankstelle Quitzowstrasse,"Quitzowstraße 33.0, 10559 Berlin",10559,52.5353,13.3501
41,GO Reuterstraße Berlin,"Reuterstraße 18.0, 12043 Berlin",12043,52.48455,13.42915
42,Shell Berlin Buchberger Str,"Buchberger Straße 30, 10365 Berlin",10365,52.50708,13.48595
43,Shell Prenzlauer Berg Berliner Straße,"Berliner Straße 83, 13189 Berlin",13189,52.5563,13.4152
44,Shell Berlin Jülicher Strasse.,"Jülicher Straße 1, 13357 Berlin",13357,52.55472,13.39201
45,Sprint Prenzlauer Berg Kniprodestraße,"Kniprodestraße 25, 10407 Berlin",10407,52.5337,13.4449
46,TotalEnergies Heidestraße,"Heidestraße 18, 10557 Berlin",10557,52.53427,13.36531
47,Shell Berlin Rummelsbur.Ldstr.16.,"Rummelsburger Landstraße 16, 12459 Berlin",12459,52.48093,13.50223
48,Shell Berlin Hauptstr.,"Hauptstraße 91, 12159 Berlin",12159,52.47589,13.3413
49,Star,"Gehrenseestraße 10, 13053 Berlin",13053,52.55076,13.51406
50,JET,"Am Tierpark 126, 10319 Berlin",10319,52.49492,13.52457
51,Hem Tankstelle,"Müllerstraße 168, 13353 Berlin",13353,52.5426,13.36536
52,TotalEnergies Rhinstraße Berlin,"Rhinstraße 52, 12681 Berlin",12681,52.51874,13.51993
53,Aral,"Sonnenallee 113, 12045 Berlin",12045,52.48155,13.44129
54,Aral,"Hauptstraße 86, 12159 Berlin",12159,52.474,13.33876
55,Aral,"Prinzenstraße 29, 10969 Berlin",10969,52.50206,13.40988
56,Shell Berlin Paulstrasse 20.,"Paulstraße 20, 10557 Berlin",10557,52.51989,13.35518
57,Agip,"Westhafenstraße 1, 13353 Berlin",13353,52.53819,13.34392
58,Esso Kreuzberg Gneisenaustraße,"Gneisenaustraße 104-106, 10961 Berlin",10961,52.4926,13.3907
59,Aral,"Frankfurter Allee 214, 10365 Berlin",10365,52.51123,13.49352
60,Shell Berlin Sachsendamm 90-92.,"Sachsendamm 90, 10829 Berlin",10829,52.47861,13.3551
61,Aral,"Dudenstraße 19, 10965 Berlin",10965,52.48461,13.38143
62,JET,10965 Berlin,10965,52.4892,13.3746
63,Star,"Pablo-Picasso-Straße 50, 13057 Berlin",13057,52.55706,13.52742
64,Aral,"Vor dem Schlesischen Tor, 10997 Berlin",10997,52.49686,13.44961
65,Tankstelle mit Geldausgabeautomat,"Bornholmer Straße 48, 13359 Berlin",13359,52.55478,13.39195
66,Tankstelle mit Geldausgabeautomat,"Martin-Luther-Straße 29, 10777 Berlin",10777,52.49653,13.34649
67,Tankstelle mit Geldausgabeautomat,"Berliner Straße 83, 13189 Berlin",13189,52.55635,13.41481
68,Tankstelle mit Geldausgabeautomat,"Hauptstraße 91, 12159 Berlin",12159,52.47602,13.34118
69,Tankstelle mit Geldausgabeautomat,"Oranienstraße 138, 10969 Berlin",10969,52.50408,13.40835
70,Tankstelle mit Geldausgabeautomat,"Sachsendamm 90-92, 10829 Berlin",10829,52.47861,13.35513
71,Tankstelle mit Geldausgabeautomat,"Skalitzer Straße 48, 10997 Berlin",10997,52.50034,13.4417
72,Tankstelle mit Geldausgabeautomat,"Müllerstraße 22b-23, 13353 Berlin",13353,52.54524,13.36164
73,Tankstelle mit Geldausgabeautomat,"Rummelsburger Landstraße 16, 12459 Berlin",12459,52.48124,13.50212
74,Tankstelle mit Geldausgabeautomat,"Paulstraße 20, 10557 Berlin",10557,52.51827,13.35527
75,Tankstelle mit Geldausgabeautomat,"Prinzenallee 20, 13357 Berlin",13357,52.55519,13.38442
76,Tankstelle mit Geldausgabeautomat,"Buchberger Straße 30, 10365 Berlin",10365,52.50674,13.48471
0,JET,"Köpenicker Straße 108, 12683 Berlin",12683,52.49588,13.56291
1,Aral,"Landsberger Allee 534, 12681 Berlin",12681,52.54628,13.5743
2,TotalEnergies Alt-Mahlsdorf,"Alt-Mahlsdorf 60, 12623 Berlin",12623,52.50411,13.62428
3,Star,"Alt-Mahlsdorf 117, 12623 Berlin",12623,52.50446,13.61114
4,JET,"Blumberger Damm 111, 12685 Berlin",12685,52.5346,13.5661
5,HEM,"Alt-Friedrichsfelde 61, 10315 Berlin",10315,52.50972,13.5314
6,Hoyer Tankstellen,"Waldbacher Weg 63B, 12683 Berlin",12683,52.51267,13.54323
7,Sprint Berlin Landsberger,"Landsberger Allee 534, 12681 Berlin",12681,52.54629,13.5743
8,Autogastankstelle Grit Jarling,"Alt-Biesdorf 52 a, 12683 Berlin",12683,52.50507,13.57503
9,SB Berlin Marzahn,"Märkische Allee 61, 12681 Berlin",12681,52.52144,13.54039
11,Aral,"Alt-Friedrichsfelde 64, 12683 Berlin",12683,52.51031,13.53849
13,SB Märkische Allee,"Märkische Allee 61.0, 12681 Berlin",12681,52.52154,13.54058
14,CleanCar Marzahn Marzahner Chaussee,"Marzahner Chaussee 230.0, 12681 Berlin",12681,52.5306,13.5334
15,TotalEnergies Berlin Alt Mahlsdorf 60,"Alt-Mahlsdorf 60, 12623 Berlin",12623,52.50429,13.62453
16,TotalEnergies Landsberger Allee,"Landsberger Allee 526, 12681 Berlin",12681,52.54502,13.56892
17,Tamoil Tankstelle,"Alt-Friedrichsfelde 61, 10315 Berlin",10315,52.50972,13.5314
18,Shell Berlin Hultschiner Damm.,"Hultschiner Damm 129/131, 12623 Berlin",12623,52.48634,13.60363
19,Agip,"Alt-Mahlsdorf 94, 12623 Berlin",12623,52.50428,13.61899
20,Hem Tankstelle,"Alt-Mahlsdorf 40, 12623 Berlin",12623,52.50521,13.61682
21,Star,"Altentreptower Straße 2, 12683 Berlin",12683,52.51325,13.56358
22,Aral,"Märkische Allee 248, 12679 Berlin",12679,52.55373,13.55159
23,Hem Tankstelle,"Riesaer Straße 121, 12627 Berlin",12627,52.53031,13.62461
24,Agip,"Gülzower Straße 15A, 12621 Berlin",12621,52.51413,13.58181
25,JET,"Märkische Allee 246, 12679 Berlin",12679,52.55205,13.55015
28,Flüssiggasvertrieb Marzahn Inh. Frank Kelch,"Am Schmeding 69.0, 12685 Berlin",12685,52.54222,13.55076
29,Esso Kaulsdorf Chemnitzer Straße,"Chemnitzer Straße 179-181, 12621 Berlin",12621,52.48952,13.57581
30,SB Alt-Kaulsdorf Berlin,"Alt-Kaulsdorf 45-49, 12621 Berlin",12621,52.50537,13.58799
32,Aral,"Märkische Allee 155, 12681 Berlin",12681,52.53181,13.53632
35,Shell Berlin Stendaler Str.,"Stendaler Straße 176, 12627 Berlin",12627,52.5454,13.6039
37,Tankstelle mit Geldausgabeautomat,"Märkische Allee 61, 12681 Berlin",12681,52.52148,13.54034
38,Tankstelle mit Geldausgabeautomat,"Hultschiner Damm 129-131, 12623 Berlin",12623,52.48634,13.60381
39,Tankstelle mit Geldausgabeautomat,"Alt-Kaulsdorf 45-49, 12621 Berlin",12621,52.50519,13.5855
40,Tankstelle mit Geldausgabeautomat,"Stendaler Straße 176, 12627 Berlin",12627,52.54535,13.60403
0,Sprint Potsdamer Straße Berlin,"Potsdamer Straße 11.0, 14163 Berlin",14163,52.4332,13.2424
3,Aral,"Königstraße 58, 14109 Berlin",14109,52.41921,13.15854
4,JET,"Goerzallee 281, 14167 Berlin",14167,52.41343,13.27772
5,Star,"Lindenthaler Allee 42, 14163 Berlin",14163,52.43144,13.23027
7,Aral,"Schloßstraße 63-64, 12165 Berlin",12165,52.45308,13.31508
9,Agip,"Potsdamer Straße 31, 14163 Berlin",14163,52.43429,13.24912
10,Agip,"Ostpreußendamm 89, 12207 Berlin",12207,52.41555,13.30268
12,Aral,"Argentinische Allee 49, 14163 Berlin",14163,52.44457,13.24259
13,Elan Teltower Damm Berlin,"Teltower Damm 173.0, 14167 Berlin",14167,52.4182,13.2658
14,Markenfreie Tankstelle,"Argentinische Allee 47, 14163 Berlin",14163,52.44409,13.24195
16,Shell Berlin Potsdamer Chaussee.,"Potsdamer Chaussee 24, 14129 Berlin",14129,52.4297,13.2231
18,Star,"Königin-Luise-Straße 22A, 14195 Berlin",14195,52.45749,13.29755
19,Aral,"Potsdamer Chaussee 6, 14163 Berlin",14163,52.43312,13.23794
20,Esso,"Berliner Straße 20-22, 14169 Berlin",14169,52.43568,13.26657
21,Esso,"Unter den Eichen 67-69, 12203 Berlin",12203,52.44548,13.29209
22,Shell Berlin Koenigsberger Str.,"Königsberger Straße 8, 12207 Berlin",12207,52.42964,13.32216
26,Star,"Königsberger Straße 25A, 12207 Berlin",12207,52.43,13.31279
27,Aral,"Drakestraße 26A, 12205 Berlin",12205,52.44097,13.29943
28,Star,"Teltower Damm 164, 14167 Berlin",14167,52.41938,13.26479
29,Sprint Lichterfelde Barnackufer,"Barnackufer 25.0, 12207 Berlin",12207,52.4299,13.3119
30,Hoyer Tank-Treff,"Albrechtstraße 112a, 12167 Berlin",12167,52.45489,13.32788
31,ARAL Kronprinzessinnenweg,"Kronprinzessinnenweg 120, 14129 Berlin",14129,52.43462,13.19166
32,TotalEnergies Berlin Berliner Str 15A,"Berliner Straße 15A, 14169 Berlin",14169,52.4362,13.26576
34,Star,"Finckensteinallee 133, 12205 Berlin",12205,52.43241,13.28674
36,Tankstelle mit Geldausgabeautomat,"Potsdamer Chaussee 24, 14129 Berlin",14129,52.42975,13.22335
37,Tankstelle mit Geldausgabeautomat,"Königsberger Straße 8, 12207 Berlin",12207,52.42964,13.32216
0,JET,"Michael-Brückner-Straße 25, 12439 Berlin",12439,52.45317,13.51385
2,Aral,"Neuköllner Straße 219, 12357 Berlin",12357,52.4287,13.47967
3,Aral,"Buschkrugallee 84-92, 12359 Berlin",12359,52.45589,13.44964
4,Star,"Steglitzer Damm 77, 12169 Berlin",12169,52.44984,13.35019
5,Esso,"Tempelhofer Weg 32, 12347 Berlin",12347,52.45682,13.42628
6,Sprint Steglitz Körnerstraße,"Körnerstraße 48A, 12157 Berlin",12157,52.46445,13.33446
7,GO Mariendorfer Damm Berlin,"Mariendorfer Damm 306.0, 12107 Berlin",12107,52.426,13.3942
8,Star,"Johannisthaler Chaussee 263-273, 12351 Berlin",12351,52.43184,13.4607
9,JET,"Karl-Marx-Straße 259-263, 12057 Berlin",12057,52.4659,13.443
10,Shell Berlin BAHNHOFSTRAßE 1.,"Bahnhofstraße 1, 12305 Berlin",12305,52.38693,13.40771
11,Shell Berlin Buckower Damm.,"Buckower Damm 225, 12349 Berlin",12349,52.42346,13.43732
12,TotalEnergies BERLIN MICHAEL-BRUECKNER-STR,"Michael-Brückner-Straße 26-31, 12439 Berlin",12439,52.45385,13.51313
14,TotalEnergies Schöneberg Arnulfstraße,"Arnulfstraße 98-99, 12105 Berlin",12105,52.45531,13.36719
15,Autogastankstelle Rathausstraße Berlin,"Rathausstraße 42.0, 12105 Berlin",12105,52.44053,13.38114
16,Automatenstation Hoyer,"Ordensmeisterstraße 24-28, 12099 Berlin",12099,52.4586,13.39709
17,Shell Berlin Johannisth.Ch.411.,"Johannisthaler Chaussee 411, 12351 Berlin",12351,52.42491,13.4422
18,Q1 Mariendorfer Damm,"Mariendorfer Damm 11-13, 12109 Berlin",12109,52.45187,13.38498
19,JET,12277 Berlin,12277,52.4122,13.3879
20,Star,"Adlergestell 121, 12439 Berlin",12439,52.44548,13.52703
21,Shell Berlin Bergstr.,"Bergstraße 31/32, 12169 Berlin",12169,52.4584,13.3386
22,TotalEnergies Britz Späthstraße,"Späthstraße 158, 12359 Berlin",12359,52.45311,13.45681
23,Gas & More Berlin,"Gradestraße 91.0, 12347 Berlin",12347,52.45188,13.42451
24,Agip,"Belßstraße 51, 12249 Berlin",12249,52.427,13.365
25,Sprint Marienfelde Hildburghauser Straße,"Hildburghauser Straße 27c, 12279 Berlin",12279,52.41298,13.35483
26,Shell Berlin Manteuffelstr.,"Manteuffelstraße 6, 12103 Berlin",12103,52.46455,13.37709
28,Sprint Berlin Barnetstr,"Barnetstraße 67a, 12305 Berlin",12305,52.3948,13.40008
29,Hem Tankstelle,"Attilastraße 124, 12105 Berlin",12105,52.44896,13.366
30,Esso,"Mariendorfer Damm 44, 12109 Berlin",12109,52.44893,13.38498
31,TotalEnergies Berlin Spaethstrasse 158,"Späthstraße 158, 12359 Berlin",12359,52.45309,13.45707
32,Shell Berlin Tempelhofer Weg.,"Tempelhofer Weg 102, 12347 Berlin",12347,52.45049,13.43449
33,Hans Engelke Tankstelle,"Tempelhofer Weg 10, 12099 Berlin",12099,52.45869,13.42237
34,Aral,"Britzer Damm 202-204, 12347 Berlin",12347,52.44537,13.43341
35,Star,"Mariendorfer Damm 306, 12107 Berlin",12107,52.42585,13.39411
36,Shell Berlin Mariendorfer Damm.,"Mariendorfer Damm 170/172, 12107 Berlin",12107,52.4361,13.3882
37,Sprint Britz Grüner Weg,"Grüner Weg 75.0, 12359 Berlin",12359,52.4384,13.4523
38,Star,"Hildburghauser Straße 7, 12279 Berlin",12279,52.41267,13.35903
39,Esso Gropiusstadt Fritz-Erler-Allee,"Fritz-Erler-Allee 154, 12353 Berlin",12353,52.4255,13.4741
40,Aral,"Köpenicker Landstraße 294, 12437 Berlin",12437,52.46522,13.4967
41,TotalEnergies Rudow Neuköllner Straße,"Neuköllner Straße 294, 12357 Berlin",12357,52.42238,13.48699
42,Aral,"Mariendorfer Damm 341, 12107 Berlin",12107,52.42326,13.39657
43,Hem Tankstelle,"Lichterfelder Ring 96, 12279 Berlin",12279,52.4123,13.34726
44,Aral,"Schnellerstraße 20, 12439 Berlin",12439,52.45985,13.50441
45,spree-mobile,"Bessemerstraße 56, 12103 Berlin",12103,52.465,13.36722
46,Aral,"Neuköllner Straße 250-256, 12357 Berlin",12357,52.42599,13.48233
48,Aral,"Mariendorfer Damm 195, 12107 Berlin",12107,52.43384,13.39071
49,Flüssiggas Ritter Automatentankstelle,"Schnellerstraße 18a, 12439 Berlin",12439,52.46071,13.50299
50,Shell Berlin Karl-Marx-Str.,"Karl-Marx-Straße 267, 12057 Berlin",12057,52.46525,13.44326
51,CITTI-TANK Schöneberg Bessemerstraße,"Bessemerstraße 57.0, 12103 Berlin",12103,52.4627,13.3674
52,Shell Berlin Grossbeerenstr.82-88.,"Großbeerenstraße 82-88, 12107 Berlin",12107,52.4337,13.3771
53,Aral,"Kaiser-Wilhelm-Straße 117, 12247 Berlin",12247,52.43961,13.35157
54,Sprint Buckow Rudower Straße,"Rudower Straße 148-150, 12351 Berlin",12351,52.433,13.4708
55,Esso Lichtenrade Lichtenrader Damm,"Lichtenrader Damm 274, 12305 Berlin",12305,52.38776,13.40858
56,Star Marienfelde Hildburghauser Straße,"Hildburghauser Straße 7, 12279 Berlin",12279,52.4127,13.3588
57,Shell Berlin Rudower Str.,"Rudower Straße 102, 12351 Berlin",12351,52.43617,13.46534
58,Esso,"Kaiser-Wilhelm-Straße 34, 12247 Berlin",12247,52.43243,13.33865
59,Esso,"Marienfelder Chaussee 171, 12349 Berlin",12349,52.41437,13.4023
60,Esso,"Fritz-Erler-Allee 154, 12353 Berlin",12353,52.42544,13.47425
62,Tankstelle mit Geldausgabeautomat,"Rudower Straße 102, 12351 Berlin",12351,52.43603,13.46521
63,Esso Tankstelle Radtke,"Mariendorfer Damm 44, 12109 Berlin",12109,52.44893,13.38498
64,Tankstelle mit Geldausgabeautomat,"Johannisthaler Chaussee 411, 12351 Berlin",12351,52.42497,13.44262
65,Tankstelle mit Geldausgabeautomat,"Bergstraße 31-32, 12169 Berlin",12169,52.45849,13.3376
66,Tankstelle mit Geldausgabeautomat,"Manteuffelstraße 6-7, 12103 Berlin",12103,52.4646,13.37705
67,Tankstelle mit Geldausgabeautomat,"Buckower Damm 225, 12349 Berlin",12349,52.42346,13.43732
68,Tankstelle mit Geldausgabeautomat,"Großbeerenstraße 82-88, 12277 Berlin",12277,52.43352,13.37705
69,Tankstelle mit Geldausgabeautomat,"Tempelhofer Weg 102, 12347 Berlin",12347,52.45048,13.43426
70,Tankstelle mit Geldausgabeautomat,"Bahnhofstraße 1, 12305 Berlin",12305,52.38695,13.40764
71,Tankstelle mit Geldausgabeautomat,"Mariendorfer Damm 170-172, 12107 Berlin",12107,52.43634,13.3882
72,Tankstelle mit Geldausgabeautomat,"Karl-Marx-Straße 267, 12057 Berlin",12057,52.46537,13.44332
0,Hem Tankstelle,"Adlergestell 305, 12489 Berlin",12489,52.4307,13.54873
1,JET,"Bellevuestraße 14, 12555 Berlin",12555,52.454,13.5926
2,Shell,"Wendenschloßstraße 292, 12557 Berlin",12557,52.4294,13.5841
3,TotalEnergies Berlin Adlergestell 543,"Adlergestell 543, 12527 Berlin",12527,52.41443,13.57284
4,Elan Fürstenwalder Damm Berlin,"Fürstenwalder Damm 418.0, 12587 Berlin",12587,52.4549,13.6169
5,TotalEnergies Grünau Adlergestell,"Adlergestell 543, 12527 Berlin",12527,52.4144,13.5733
6,Shell Berlin Lindenstr. 21,"Lindenstraße 21, 12555 Berlin",12555,52.45504,13.56709
7,JET,"Glienicker Weg 105, 12489 Berlin",12489,52.43508,13.55923
8,Aral,"Fürstenwalder Damm 445-447, 12587 Berlin",12587,52.4563,13.62116
9,Tankstelle Berlin-Köpenick,"Friedrichshagener Straße 3, 12555 Berlin",12555,52.45221,13.57828
10,CleanCar,"Glienicker Weg 182, 12489 Berlin",12489,52.43102,13.55299
11,TotalEnergies Berlin Adlergestell 623,"Adlergestell 623, 12527 Berlin",12527,52.38777,13.63065
12,TotalEnergies Köpenick Oberspreestraße,"Oberspreestraße 138, 12555 Berlin",12555,52.44581,13.56179
13,Aral,"An der Wuhlheide 240-242, 12459 Berlin",12459,52.45521,13.55577
14,Star,"Adlergestell 391, 12527 Berlin",12527,52.42372,13.55948
15,Autogas Adlershof,"Adlergestell 327-331, 12489 Berlin",12489,52.4292,13.55177
16,Sprint Müggelheim Gosener Damm,"Gosener Damm 13-15, 12559 Berlin",12559,52.4099,13.6664
17,Agip,"Adlergestell 289A, 12489 Berlin",12489,52.43185,13.54707
18,Tankstelle mit Geldausgabeautomat,"Lindenstraße 21, 12555 Berlin",12555,52.45516,13.56725
19,Tankstelle mit Geldausgabeautomat,"Wendenschloßstraße 292, 12557 Berlin",12557,52.42925,13.58411
0,Aral,"Schleswiger Damm 173, 22457 Hamburg",22457,53.64134,9.91696
8,Aral,"Holsteiner Chaussee 55, 22523 Hamburg",22523,53.61434,9.90589
18,Aral,"Pinneberger Straße 1-3, 22457 Hamburg",22457,53.63254,9.91066
23,Wohnwagen Feil,"Holsteiner Chaussee 373, 22457 Hamburg",22457,53.64441,9.90845
30,Star,"Pinneberger Chaussee 74, 22523 Hamburg",22523,53.61477,9.89431
32,Star,"Holsteiner Chaussee 182, 22457 Hamburg",22457,53.62492,9.90986
2,CleanCar,"Steilshooper Allee 5, 22309 Hamburg",22309,53.60845,10.04565
3,Shell Hamburg Alsterkrugch.,"Alsterkrugchaussee 431, 22335 Hamburg",22335,53.62108,10.00986
5,Aral,"Poppenbütteler Weg 126, 22399 Hamburg",22399,53.64987,10.06467
7,Shell Hamburg Bramfelder Chaussee.,"Bramfelder Chaussee 370, 22175 Hamburg",22175,53.62194,10.08374
9,Shell Hamburg Steilshooper Allee.,"Steilshooper Allee 55, 22309 Hamburg",22309,53.60883,10.05145
10,JET,"Bergstedter Chaussee 175, 22395 Hamburg",22395,53.6735,10.1318
12,JET,"Langenhorner Chaussee 393, 22419 Hamburg",22419,53.6605,10.0023
13,Oil,"Rolfinckstraße 48, 22391 Hamburg",22391,53.6392,10.08922
16,Hoyer Tank-Treff,"Duvenstedter Damm 48.0, 22397 Hamburg",22397,53.70772,10.11024
18,Oil,"Tangstedter Landstraße 65, 22415 Hamburg",22415,53.65008,10.01753
19,JET,"Poppenbütteler Weg 92, 22339 Hamburg",22339,53.64748,10.05746
20,SB-Tanktreff Rahlstedt Alter Zollweg,"Alter Zollweg 132.0, 22147 Hamburg",22147,53.60835,10.13738
21,JET,"Steilshooper Allee 44, 22309 Hamburg",22309,53.60809,10.05625
22,Aral,"Langenhorner Chaussee 53, 22335 Hamburg",22335,53.63853,10.01354
23,TotalEnergies Langenhorn Krohnstieg,"Krohnstieg 71, 22415 Hamburg",22415,53.6484,10.00626
26,Shell Hamburg Paul-Sorge-Str.150.,"Paul-Sorge-Straße 150, 22455 Hamburg",22455,53.63509,9.95298
27,Tankstelle Maienweg,"Maienweg 139.0, 22297 Hamburg",22297,53.6165,10.0125
28,Aral,"Meiendorfer Mühlenweg 6A, 22393 Hamburg",22393,53.64439,10.12213
29,Esso Bramfeld Pezolddamm,"Pezolddamm 136, 22159 Hamburg",22159,53.62352,10.11159
31,Star,"Berner Heerweg 407, 22159 Hamburg",22159,53.62743,10.13895
32,Aral,"Hummelsbüttler Hauptstraße 14, 22339 Hamburg",22339,53.63731,10.03491
34,Star,"Kollaustraße 170, 22453 Hamburg",22453,53.61307,9.95341
35,Hem Tankstelle,"Kollaustraße 179-181, 22453 Hamburg",22453,53.61268,9.9528
36,JET,"Tangstedter Landstraße 433, 22417 Hamburg",22417,53.6712,10.026
37,Esso,"Langenhorner Chaussee 38, 22335 Hamburg",22335,53.6374,10.01513
38,Shell,"Suhrenkamp 71-77, 22335 Hamburg",22335,53.62089,10.01557
39,TotalEnergies Hamburg Krohnstieg 71-75,"Krohnstieg 71-75, 22415 Hamburg",22415,53.64833,10.00596
40,Aral,"Kollaustraße 200, 22453 Hamburg",22453,53.61568,9.95156
42,Shell Hamburg Saseler Chauss.,"Saseler Chaussee 209, 22393 Hamburg",22393,53.65385,10.10661
43,JET,"Saseler Chaussee 24, 22391 Hamburg",22391,53.6356,10.0925
44,JET,"Steilshooper Allee 9, 22309 Hamburg",22309,53.6086,10.04686
45,Shell Hamburg Harksheider Str.,"Harksheider Straße 35, 22399 Hamburg",22399,53.66276,10.07863
47,Classic,"Langenhorner Chaussee 216, 22415 Hamburg",22415,53.6498,10.01006
48,HEM Niendorf Kollaustraße,"Kollaustraße 179-181, 22453 Hamburg",22453,53.6128,9.95276
49,Esso,"Pezolddamm 136, 22159 Hamburg",22159,53.62385,10.11196
51,Shell Hamburg Weg Beim Jäger 193.,"Weg beim Jäger 193, 22335 Hamburg",22335,53.62164,9.9995
53,Star,"Langenhorner Chaussee 141, 22415 Hamburg",22415,53.64455,10.01256
54,Classic Tankstelle,"Langenhorner Chaussee 216, 22415 Hamburg",22415,53.6498,10.01006
55,Tankstelle mit Geldausgabeautomat,"Harksheider Straße 35, 22399 Hamburg",22399,53.66281,10.07855
56,Tankstelle mit Geldausgabeautomat,"Steilshooper Allee 55, 22309 Hamburg",22309,53.60898,10.05128
59,Tankstelle mit Geldausgabeautomat,"Alsterkrugchaussee 431, 22335 Hamburg",22335,53.6211,10.00976
60,Tankstelle mit Geldausgabeautomat,"Bramfelder Chaussee 370, 22175 Hamburg",22175,53.62171,10.08292
61,Tankstelle mit Geldausgabeautomat,"Paul-Sorge-Straße 150, 22455 Hamburg",22455,53.63507,9.95293
62,Tankstelle mit Geldausgabeautomat,"Saseler Chaussee 209, 22393 Hamburg",22393,53.65392,10.10704
63,Tankstelle mit Geldausgabeautomat,"Alter Zollweg 132, 22147 Hamburg",22147,53.60833,10.13745
2,Nordoel Rahlstedt Meiendorfer Straße,"Meiendorfer Straße 168.0, 22145 Hamburg",22145,53.6297,10.18096
6,Tankstelle Bargkoppelweg,"Bargkoppelweg 50.0, 22145 Hamburg",22145,53.62052,10.15307
7,Shell,"Ringstraße 2, 22145 Hamburg",22145,53.63018,10.14717
8,Star,"Höhenkamp 3, 22145 Braak",22145,53.60915,10.24158
9,Esso Rahlstedt Meiendorfer Straße,"Meiendorfer Straße 81, 22145 Hamburg",22145,53.62131,10.164
10,Esso,"Fasanenweg 24, 22145 Hamburg",22145,53.62436,10.14551
12,Esso Rahlstedt Fasanenweg,"Fasanenweg 24, 22145 Hamburg",22145,53.62451,10.14554
15,Shell Hamburg Claus-Ferck-Str.,"Claus-Ferck-Straße 31, 22359 Hamburg",22359,53.65173,10.16439
16,Shell Hamburg Eulenkrugstr. 72.,"Eulenkrugstraße 72, 22359 Hamburg",22359,53.64765,10.17076
19,SB-Tanktreff Rahlstedt Ringstraße,"Ringstraße 2.0, 22145 Hamburg",22145,53.63005,10.14712
24,Oil,"Meiendorfer Straße 81, 22145 Hamburg",22145,53.62137,10.16371
30,Tankstelle mit Geldausgabeautomat,"Eulenkrugstraße 72, 22359 Hamburg",22359,53.64758,10.17061
31,Tankstelle mit Geldausgabeautomat,"Ringstraße 2, 22145 Hamburg",22145,53.63022,10.1472
32,Tankstelle mit Geldausgabeautomat,"Claus-Ferck-Straße 31, 22359 Hamburg",22359,53.65181,10.1645
0,Hem Tankstelle,"Luruper Hauptstraße 70, 22547 Hamburg",22547,53.58635,9.87872
1,Aral,"Kieler Straße 560, 22525 Hamburg",22525,53.59983,9.91785
3,Esso,"Rissener Landstraße 266, 22559 Hamburg",22559,53.58104,9.76358
4,Shell,"Schnackenburgallee 12, 22525 Hamburg",22525,53.57357,9.9191
5,Shell Hamburg Osdorfer Landstr. 1.,"Osdorfer Landstraße 1, 22607 Hamburg",22607,53.56992,9.87676
6,Hem Tankstelle,"Kieler Straße 361-365, 22525 Hamburg",22525,53.58875,9.93077
7,Mr Wash Stresemannstraße,"Stresemannstraße 349.0, 22761 Hamburg",22761,53.564,9.92393
8,JET,"Osdorfer Landstraße 170-172, 22549 Hamburg",22549,53.5723,9.8542
9,Shell,"Von-Sauer-Straße 27, 22761 Hamburg",22761,53.5654,9.90646
10,Aral,"Stresemannstraße 329, 22761 Hamburg",22761,53.56395,9.92575
12,Shell Hamburg Behringstr,"Behringstraße 112, 22763 Hamburg",22763,53.55467,9.90912
13,Aral,"Ostfrieslandstraße 80, 21129 Hamburg",21129,53.52658,9.88487
14,Shell Hamburg Rissener Landstr.,"Rissener Landstraße 1A, 22587 Hamburg",22587,53.56654,9.79624
15,Bft Tankstelle,"Osdorfer Landstraße 5, 22607 Hamburg",22607,53.57003,9.87606
16,Esso,"Theodorstraße 1, 22761 Hamburg",22761,53.566,9.89703
17,Star Luruper Chaussee,"Luruper Chaussee 18-22, 22761 Hamburg",22761,53.57279,9.89535
18,Aral,"Sülldorfer Landstraße 91, 22589 Hamburg",22589,53.57785,9.80959
19,Shell Hamburg Altenwerder Hauptde.,"Altenwerder Hauptdeich 22, 21129 Hamburg",21129,53.5132,9.91337
20,JET,"Rugenbarg 266-268, 22549 Hamburg",22549,53.5873,9.8746
21,TotalEnergies Hamburg Von Sauerstr.,"Von-Sauer-Straße 27, 22761 Hamburg",22761,53.5654,9.90646
23,Oil,"Baron-Voght-Straße 2, 22609 Hamburg",22609,53.5482,9.86442
24,Star Othmarschen Bernadottestraße,"Bernadottestraße 131, 22605 Hamburg",22605,53.54916,9.89808
25,Esso,"Ostfrieslandstraße 97, 21129 Hamburg",21129,53.52659,9.88658
26,TotalEnergies Von-Sauer-Straße Hamburg,"Von-Sauer-Straße 27, 22761 Hamburg",22761,53.56559,9.90652
27,JET,"Rugenbarg 83, 22549 Hamburg",22549,53.57949,9.85254
28,Star,"Farnhornweg 46A, 22547 Hamburg",22547,53.59347,9.89069
29,TotalEnergies Hamburg Aluminiumstr. 5,"Aluminiumstraße 5, 21129 Hamburg",21129,53.51728,9.89025
31,Star,"Luruper Chaussee 18-22, 22761 Hamburg",22761,53.57286,9.89457
33,Esso Rissen Rissener Landstraße,"Rissener Landstraße 266, 22559 Hamburg",22559,53.58104,9.76384
34,Star,"Kieler Straße 206, 22525 Hamburg",22525,53.57744,9.93755
35,Aral,"Kieler Straße 285, 22525 Hamburg",22525,53.58379,9.93289
36,SB-Tanktreff Bahrenfeld Kohlentwiete,"Kohlentwiete 14.0, 22761 Hamburg",22761,53.56006,9.93014
38,Schroeder Gas,"Ruhrstraße 36.0, 22761 Hamburg",22761,53.5644,9.92619
39,Shell Hamburg Volksparkstr.44-46.,"Volksparkstraße 44-46, 22525 Hamburg",22525,53.5917,9.92193
40,Aral,"Kieler Straße 314, 22525 Hamburg",22525,53.58587,9.93326
41,JET,"Kieler Straße 234, 22525 Hamburg",22525,53.57911,9.93656
42,CleanCar Stellingen Kieler Straße,"Kieler Straße 195.0, 22525 Hamburg",22525,53.57684,9.93734
43,Tankstelle mit Geldausgabeautomat,"Behringstraße 112, 22763 Hamburg",22763,53.55467,9.9091
45,Tankstelle mit Geldausgabeautomat,"Hohenzollernring 1, 22763 Hamburg",22763,53.54667,9.91706
46,Tankstelle mit Geldausgabeautomat,"Volksparkstraße 44-46, 22525 Hamburg",22525,53.59189,9.92157
47,Tankstelle mit Geldausgabeautomat,"Schnackenburgallee 12, 22525 Hamburg",22525,53.57358,9.91927
48,Tankstelle mit Geldausgabeautomat,"Osdorfer Landstraße 1, 22607 Hamburg",22607,53.56947,9.87769
49,Tankstelle mit Geldausgabeautomat,"Rissener Landstraße 1a, 22587 Hamburg",22587,53.56649,9.79616
0,Esso Hammerbrook Wendenstraße,"Wendenstraße 25-29, 20097 Hamburg",20097,53.54765,10.02597
1,JET,"Amsinckstraße 73, 20097 Hamburg",20097,53.5428,10.0258
2,Oil,"Rödingsmarkt 14, 20459 Hamburg",20459,53.54708,9.98546
3,Shell Hamburg Koenigstrasse.,"Königstraße 22, 22767 Hamburg",22767,53.54865,9.94412
4,Avia,"Gustav-Kunst-Straße 23, 20539 Hamburg",20539,53.53935,10.05853
5,Esso,"Schiffbeker Weg 299, 22043 Hamburg",22043,53.56915,10.12295
6,Gas Meier,"Pappelallee 53.0, 22089 Hamburg",22089,53.56818,10.06008
7,Esso Tonndorf Ahrensburger Straße,"Ahrensburger Straße 183-187, 22045 Hamburg",22045,53.58256,10.11397
8,Esso Barmbek-Nord Fuhlsbüttler Straße,"Fuhlsbüttler Straße 2, 22305 Hamburg",22305,53.58476,10.04763
9,Esso,"Billhorner Röhrendamm 119, 20539 Hamburg",20539,53.53623,10.03634
10,Shell Hamburg Hammer Deich.,"Hammer Deich 3, 20537 Hamburg",20537,53.54672,10.04102
11,Star,"Hermannstal 121, 22119 Hamburg",22119,53.55022,10.09896
12,Aral,"Amsinckstraße 48, 20097 Hamburg",20097,53.54614,10.0149
13,JET,"Deelböge 21, 22297 Hamburg",22297,53.60269,9.98937
14,Aral,"Osterfeldstraße 30, 22529 Hamburg",22529,53.59851,9.97376
15,Freie Tankstelle Meinen & Söhne,"Papenstraße 37-39, 22089 Hamburg",22089,53.56537,10.04107
16,Shell Hamburg Amsinckstr,"Amsinckstraße 60, 20097 Hamburg",20097,53.54338,10.0214
17,Shell Hamburg Georgswerder Bogen.,"Georgswerder Bogen 12, 21109 Hamburg",21109,53.51899,10.02224
18,Mr Wash Friedrich-Ebert-Damm Hamburg,"Friedrich-Ebert-Damm 170.0, 22047 Hamburg",22047,53.58918,10.10132
19,Oil,"Wendenstraße 23-29, 20097 Hamburg",20097,53.5471,10.0255
20,TotalEnergies Hamburg Hammer Landstr. 204,"Hammer Landstraße 204, 20537 Hamburg",20537,53.55384,10.06349
21,Aral,"Schiffbeker Weg 228, 22119 Hamburg",22119,53.56232,10.12006
22,Shell Hamburg Juethornstr.,"Jüthornstraße 49, 22043 Hamburg",22043,53.56679,10.07529
23,Shell Hamburg Eiffestr.,"Eiffestraße 626, 20537 Hamburg",20537,53.5506,10.0593
24,TotalEnergies Hamburg Bramfelder Str. 86A,"Bramfelder Straße 86A, 22305 Hamburg",22305,53.58778,10.05303
25,Shell Hamburg Ahrensburger Str.,"Ahrensburger Straße 35, 22041 Hamburg",22041,53.57818,10.09333
26,JET,"Wandsbeker Chaussee 224, 22089 Hamburg",22089,53.5693,10.0567
27,Shell Hamburg Luebecker Str.,"Lübecker Straße 86, 22087 Hamburg",22087,53.5611,10.03167
28,Esso,"Billstraße 31, 20539 Hamburg",20539,53.54181,10.03424
29,Shell Hamburg Carl-Petersen-Str. 76.,"Carl-Petersen-Straße 76, 20535 Hamburg",20535,53.55746,10.04721
30,Aral,"Dehnhaide 49, 22081 Hamburg",22081,53.57925,10.04494
31,JET,"Neuer Kamp 31, 20359 Hamburg",20359,53.55684,9.96681
32,Autogastankstelle Bullenkoppel Hamburg,"Bullenkoppel 20.0, 22047 Hamburg",22047,53.59557,10.09347
33,Shell Hamburg Bundesstr.,"Bundesstraße 66, 20144 Hamburg",20144,53.56995,9.9737
34,Aral,"Königstraße 9, 22767 Hamburg",22767,53.54928,9.95279
35,Esso Hamm Sievekingsallee,"Sievekingsallee 75, 20535 Hamburg",20535,53.5609,10.0584
36,JET,21107 Hamburg,21107,53.5198,10.0004
37,SB-Tanktreff Dulsberg Alter Teichweg,"Alter Teichweg 71.0, 22049 Hamburg",22049,53.5847,10.0595
38,Markant Tankstelle,"Wandsbeker Zollstraße 117-123, 22041 Hamburg",22041,53.5771,10.0838
39,Esso,"Überseering 1, 22297 Hamburg",22297,53.60126,10.0243
40,Shell Hamburg Kollaustr.,"Kollaustraße 39, 22529 Hamburg",22529,53.60277,9.96157
41,Hem Tankstelle,"Rahlstedter Straße 22, 22149 Hamburg",22149,53.59314,10.14176
42,Shell Hamburg Hegestrasse.,"Hegestraße 26, 20251 Hamburg",20251,53.58286,9.9816
43,Wasserstoffstation Vattenfall HafenCity,"Oberbaumbrücke 3, 20457 Hamburg",20457,53.54618,10.00309
44,Shell Hamburg Doormannsweg.,"Doormannsweg 45, 20259 Hamburg",20259,53.56758,9.953
45,Aral,"Spaldingstraße 107, 20097 Hamburg",20097,53.55039,10.01977
46,Esso Uhlenhorst Mundsburger Damm,"Mundsburger Damm 24, 22087 Hamburg",22087,53.5661,10.0213
47,TotalEnergies Bramfelder Straße,"Bramfelder Straße 86A, 22305 Hamburg",22305,53.58803,10.05254
48,Aral,"Winterhuder Weg 25, 22085 Hamburg",22085,53.57383,10.02205
49,Aral,"Habichtstraße 72-78, 22305 Hamburg",22305,53.59231,10.05492
50,Hoyer Tank-Treff,"Billbrookdeich 165.0, 22113 Hamburg",22113,53.5362,10.099
51,Shell,"Max-Herz-Ring, 22159 Hamburg",22159,53.59424,10.1011
52,Aral,"Eiffestraße 506, 20537 Hamburg",20537,53.55135,10.05189
53,Esso,"Fabriciusstraße 46, 22177 Hamburg",22177,53.59686,10.06056
54,JET,"Horner Landstraße 380, 22111 Hamburg",22111,53.5438,10.0918
55,Aral,"Großmannstraße 195-211, 20539 Hamburg",20539,53.53675,10.0642
56,Esso Bramfeld Fabriciusstraße,"Fabriciusstraße 46, 22177 Hamburg",22177,53.59705,10.06043
57,Star,"Baumeisterstraße 4, 20099 Hamburg",20099,53.55499,10.01003
58,Shell Hamburg Friedrich-Ebert-Damm 171.,"Friedrich-Ebert-Damm 171, 22047 Hamburg",22047,53.58943,10.09988
59,Aral,"Schimmelmannstraße 97, 22043 Hamburg",22043,53.57267,10.10546
60,Aral,"Hoheluftchaussee 78, 20253 Hamburg",20253,53.583,9.97132
61,TotalEnergies Billstedt Billstedter Hauptstraße,"Billstedter Hauptstraße 21, 22111 Hamburg",22111,53.5415,10.0989
62,Tankstelle Kühnstrasse,"Kuehnstraße 91.0, 22045 Hamburg",22045,53.58084,10.12373
63,Markant Wandsbek Wandsbeker Zollstraße,"Wandsbeker Zollstraße 117-123, 22041 Hamburg",22041,53.57711,10.08382
64,Esso,"Ahrensburger Straße 183, 22045 Hamburg",22045,53.58277,10.11407
65,Aral,"Bramfelder Chaussee 66, 22177 Hamburg",22177,53.59737,10.065
66,TotalEnergies Hamburg Andreas Meyer Strasse,"Andreas-Meyer-Straße 63, 22113 Hamburg",22113,53.51235,10.08885
67,TotalEnergies Wilhelmsburg Neuhöfer Straße,"Neuhöfer Straße 28, 21107 Hamburg",21107,53.51082,9.98476
68,Star,"Wöhlerstraße 4, 22113 Hamburg",22113,53.53759,10.08327
69,Esso,"Barmbeker Straße 86, 22303 Hamburg",22303,53.59045,10.01223
70,Shell Hamburg Heidenkampsweg.,"Heidenkampsweg 54, 20097 Hamburg",20097,53.54864,10.02734
71,Shell Hamburg Th.-Heuss-Platz.,"Theodor-Heuss-Platz, 20354 Hamburg",20354,53.5612,9.99088
72,Shell Hamburg Tonnd. Hauptstr.110.,"Tonndorfer Hauptstraße 110, 22045 Hamburg",22045,53.58777,10.12991
73,Esso,"Sievekingsallee 4, 20535 Hamburg",20535,53.55981,10.04056
74,Star,"Kattensteert 36, 22119 Hamburg",22119,53.54772,10.10596
75,Aral,"Sievekingsallee 30, 20535 Hamburg",20535,53.56094,10.04791
76,Markant-Tankstelle Hamburg,"Wandsbeker Zollstraße 117, 22041 Hamburg",22041,53.57716,10.08323
77,Pink Tank,"Julius-Vosseler-Straße 107a, 22529 Hamburg",22529,53.58968,9.94781
78,Esso,"Winterhuder Weg 35, 22085 Hamburg",22085,53.57535,10.02049
79,Hoyer Tank-Treff,"Spaldingstraße 77.0, 20097 Hamburg",20097,53.5493,10.0159
80,Aral,"Bundesstraße 38, 20146 Hamburg",20146,53.56597,9.97967
81,Shell Hamburg Max-Brauer-Alle.,"Max-Brauer-Allee 216, 22769 Hamburg",22769,53.56201,9.9571
82,Shell Hamburg Andreas Meyer Str44.,"Andreas-Meyer-Straße 44, 22113 Hamburg",22113,53.51516,10.08256
83,Shell Hamburg Winterhuder Weg.,"Winterhuder Weg 72, 22085 Hamburg",22085,53.57411,10.02324
84,Mr Wash Kollaustraße,"Kollaustraße 71.0, 22529 Hamburg",22529,53.605,9.9612
85,Aral,"Nordschleswiger Straße 91, 22049 Hamburg",22049,53.5798,10.07
86,Shell Hamburg Fruchtallee,"Fruchtallee 95, 20259 Hamburg",20259,53.57058,9.95411
87,Aral,"Peutestraße 2, 20539 Hamburg",20539,53.52761,10.02451
88,Propan-Gesellschaft,"Eschelsweg 8, 22767 Hamburg",22767,53.55003,9.94628
89,Shell Hamburg Schiffbeker Weg 90.,"Schiffbeker Weg 90/92, 22119 Hamburg",22119,53.5483,10.1086
90,Esso,"Fuhlsbüttler Straße 2, 22305 Hamburg",22305,53.58501,10.04721
91,Go Tankstelle,"Charlottenburger Straße 61, 22045 Hamburg",22045,53.58175,10.13859
92,SVG Hammerbrook Bullerdeich,"Bullerdeich 36.0, 20537 Hamburg",20537,53.5443,10.0387
93,TotalEnergies Uhlenhorst Mundsburger Damm,"Mundsburger Damm 47, 22087 Hamburg",22087,53.56863,10.02405
94,TotalEnergies Hamburg Billstedter Hauptstrasse 21,"Billstedter Hauptstraße 21, 22111 Hamburg",22111,53.54161,10.09885
95,Aral,"Habichtstraße 39, 22305 Hamburg",22305,53.59069,10.05657
96,Sportpub Tankstelle,"Herbertstraße, 20359 Hamburg",20359,53.54808,9.96123
97,Tankstelle mit Geldausgabeautomat,"Friedrich-Ebert-Damm 171, 22047 Hamburg",22047,53.5895,10.09992
98,Tankstelle mit Geldausgabeautomat,"Amsinckstraße 60, 20097 Hamburg",20097,53.54325,10.02125
99,Tankstelle mit Geldausgabeautomat,"Eiffestraße 626, 20537 Hamburg",20537,53.55092,10.05901
1,Esso Rahlstedt Rahlstedter Straße,"Rahlstedter Straße 211-213, 22143 Hamburg",22143,53.60585,10.16471
2,Aral,"Rahlstedter Straße 87, 22149 Hamburg",22149,53.59784,10.1529
3,Oil,"Feiningerstraße 1, 22115 Hamburg",22115,53.52844,10.14907
4,Hem Tankstelle,"Möllner Landstraße 4, 22113 Oststeinbek",22113,53.54204,10.15713
5,Esso,"Rahlstedter Straße 211-213, 22143 Hamburg",22143,53.60579,10.16436
6,Esso,"Hauptstraße 8, 22145 Stapelfeld",22145,53.60527,10.2143
9,Hem Tankstelle,"Rahlstedter Straße 22, 22149 Hamburg",22149,53.59314,10.14176
10,Aral,"Bargteheider Straße 100, 22143 Hamburg",22143,53.60482,10.14797
12,Star,"Reinbeker Redder 104, 21031 Hamburg",21031,53.51144,10.18393
14,JET,"Möllner Landstraße 56 A, 22113 Oststeinbek",22113,53.5421,10.1726
15,HEM Rahlstedt Rahlstedter Straße,"Rahlstedter Straße 22, 22149 Hamburg",22149,53.59286,10.14202
17,Tankcenter Lohbrügge,"Reinbeker Redder 98, 21031 Hamburg",21031,53.5116,10.1828
19,Star,"Bargteheider Straße 67, 22143 Hamburg",22143,53.60176,10.14435
21,EDEKA Lohbrügge Havighorster Weg,"Havighorster Weg 8.0, 21031 Hamburg",21031,53.51364,10.20947
22,Supermarkt-Tankstelle am real,"Willinghusener Weg 1.0, 22113 Oststeinbek",22113,53.54657,10.15538
0,Hoyer Tank-Treff,"Hohe-Schaar-Straße 335.0, 21107 Hamburg",21107,53.48091,9.99207
1,TotalEnergies Hamburg Harburger Berge West/ A7,21077 Hamburg,21077,53.42439,9.96294
2,Shell Hamburg Weusthoffstr.,"Weusthoffstraße 30, 21075 Hamburg",21075,53.45643,9.95542
4,Hem Tankstelle,"Winsener Straße 183, 21077 Hamburg",21077,53.42812,9.98269
5,Aral,"Otto-Brenner-Straße 6, 21109 Hamburg",21109,53.4898,10.01897
6,Shell Hamburg Bremer Str. 112,"Bremer Straße 112, 21073 Hamburg",21073,53.45162,9.971
7,Nordoel Wilhelmsburg Georg-Wilhelm-Straße,"Georg-Wilhelm-Straße 205.0, 21107 Hamburg",21107,53.49435,9.98984
8,JET,"Großer Schippsee 37, 21073 Hamburg",21073,53.4624,9.9847
9,Star,"Buxtehuder Straße 1A, 21073 Hamburg",21073,53.46396,9.97978
10,Shell,"Ernst-Bergeest-Weg, 21077 Hamburg",21077,53.44525,9.95608
11,Aral Hamburg-Stillhorn Ost AH,21109 Hamburg,21109,53.4829,10.0257
12,Star,"Brennerhof 6, 22113 Hamburg",22113,53.50645,10.0819
13,JET,"Buxtehuder Straße 76-80, 21073 Hamburg",21073,53.4686,9.9674
14,Aral,"Mengestraße 14, 21107 Hamburg",21107,53.5004,9.99426
15,Hoyer Tank-Treff,"Nartenstraße 31.0, 21079 Hamburg",21079,53.4683,9.99194
16,Shell Hamburg Grossmoorbogen 1.,"Großmoorbogen 1, 21079 Hamburg",21079,53.46143,10.01133
17,Aral,"Amandus-Stubbe-Straße 6, 22113 Hamburg",22113,53.50574,10.08967
18,PROGAS,"Auf der Hohen Schaar 6.0, 21107 Hamburg",21107,53.49589,9.97132
20,Aral Wilhelm-Iwan-Ring,"Wilhelm-Iwan-Ring 1, 21035 Hamburg",21035,53.4899,10.11512
21,BFT Hamburg-Stillhorn West,"Altenfelder Weg 17c, 21109 Hamburg",21109,53.48455,10.02521
22,Esso,"König-Georg-Deich 8, 21107 Hamburg",21107,53.47766,9.99517
24,Aral,"Winsener Straße 38, 21077 Hamburg",21077,53.44847,9.98825
25,Shell Hamburg Winsener Str. 91.,"Winsener Straße 91, 21077 Hamburg",21077,53.44468,9.99113
26,Oil!,"Winsener Straße 158, 21077 Hamburg",21077,53.43093,9.98255
27,Tankstelle mit Geldausgabeautomat,"Weusthoffstraße 30, 21075 Hamburg",21075,53.4564,9.95549
29,Tankstelle mit Geldausgabeautomat,"Bremer Straße 112, 21073 Hamburg",21073,53.45154,9.97085
30,Tankstelle mit Geldausgabeautomat,"Winsener Straße 91, 21077 Hamburg",21077,53.44471,9.99093
31,Tankstelle mit Geldausgabeautomat,"Großmoorbogen 1, 21079 Hamburg",21079,53.46143,10.01135
1,LOTHEROL Bergedorf Holtenklinker Straße,"Holtenklinker Straße 128a, 21029 Hamburg",21029,53.4809,10.2273
3,Nordoel Bergedorf,21033 Hamburg,21033,53.4891,10.1952
4,Oil,"Kirchenheerweg 162, 21037 Hamburg",21037,53.4045,10.1859
5,Hem Tankstelle,"Bergedorfer Straße 43, 21033 Hamburg",21033,53.49317,10.19814
8,Hem Tankstelle,"Bergedorfer Straße 48, 21033 Hamburg",21033,53.49291,10.19761
9,Shell Hamburg Kirchwerder Landweg.,"Kirchwerder Landweg 546, 21037 Hamburg",21037,53.42124,10.14851
10,Aral,"Nettelnburger Landweg 2, 21035 Hamburg",21035,53.4867,10.18387
11,JET,"Bergedorfer Straße 76, 21033 Hamburg",21033,53.4902,10.203
12,Esso,"Bergedorfer Straße 75, 21033 Hamburg",21033,53.49156,10.20223
13,Hoyer Tank-Treff,"Norderquerweg 15.0, 21037 Hamburg",21037,53.4362,10.1897
14,Aral,"Curslacker Neuer Deich 34, 21029 Hamburg",21029,53.48178,10.20812
20,Oil,"Am Beckerkamp 21, 21031 Hamburg",21031,53.4973,10.2092
22,Avia,"Lauenburger Landstraße 8, 21039 Börnsen",21039,53.46986,10.27539
23,Avia Tankstelle,"Lauenburger Landstraße 8, 21039 Börnsen",21039,53.46999,10.27541
24,AVIA-Tankstelle-Börnsen Dieter Löding,"Lauenburger Landstraße 8, 21039 Börnsen",21039,53.46986,10.27539
0,Aral,"Neusser Straße 856, 50737 Cologne",50737,50.99327,6.94043
1,Shell Koeln Venloer Str. 771.,"Venloer Straße 771, 50827 Cologne",50827,50.96049,6.89373
2,Tankstelle Subbelrather Straße,"Subbelrather Straße 192.0, 50823 Köln",50823,50.95314,6.92295
3,Esso,"Boltensternstraße 353, 50735 Köln",50735,50.98044,6.96896
4,Aral,"Maarweg 126, 50825 Köln",50825,50.94341,6.89871
5,Sb Freie Tankstelle,"Liebigstraße 56, 50823 Köln",50823,50.9531,6.92819
6,Westfalen Tankstelle,"Zusestraße 1, 50859 Köln",50859,50.94798,6.8473
7,Aral,"Boltensternstraße 350, 50735 Köln",50735,50.98044,6.96994
8,Tankstelle Maybachstrasse,"Maybachstraße 171-173, 50670 Köln",50670,50.94938,6.94993
9,AVEX Pesch Konrad-Hausmann-Straße,"Konrad-Hausmann-Straße 2.0, 50767 Köln",50767,50.99965,6.87974
10,Star,"Volkhovener Weg 117, 50767 Köln",50767,51.00747,6.89759
11,Aral,"Escher Straße 273, 50739 Köln",50739,50.96925,6.92709
12,TotalEnergies Ehrenfeld Ehrenfeldgürtel,"Ehrenfeldgürtel 2, 50823 Cologne",50823,50.9484,6.91535
13,SB-Tanktreff Ossendorf Rochusstraße,"Rochusstraße 353.0, 50827 Köln",50827,50.973,6.90433
14,AVEX Tankstelle,"Konrad-Hausmann-Straße 2.0, 50767 Köln",50767,50.99963,6.87956
15,Esso,"Neusser Landstraße 16, 50735 Köln",50735,51.00564,6.93182
16,Aral,"Riehler Straße 12-14, 50668 Köln",50668,50.95238,6.96164
17,Westfalen Tankstelle,"Kölner Straße 111, 50859 Köln",50859,50.94785,6.84844
18,Bft,"Friedrich-Karl-Straße 90, 50735 Köln",50735,50.97419,6.95785
19,Aral,"Donatusstraße 20, 50767 Cologne",50767,51.00347,6.87489
20,Shell Koeln H.-Eckener-Str.,"Hugo-Eckener-Straße 27 A, 50829 Köln",50829,50.9773,6.89533
21,Star,"Sebastianstraße 22-24, 50735 Köln",50735,50.98853,6.96135
22,Aral,"Amsterdamer Straße 194, 50735 Köln",50735,50.97475,6.97032
23,Shell Koeln Neusser Str.,"Neusser Straße 153, 50733 Cologne",50733,50.95843,6.95439
24,Tankstelle Marzellenstraße,"Marzellenstraße 86.0, 50668 Köln",50668,50.94493,6.95614
25,McGas LPG-Tankstelle,"Waffenschmidtstraße 2, 50767 Köln",50767,51.00454,6.87153
26,Gerhard von Umbscheiden,"Von-Hünefeld-Stra��e 4a, 50829 Köln",50829,50.98023,6.88485
27,Aral,"Äußere Kanalstraße 90, 50827 Köln",50827,50.95859,6.90529
28,Auto Service Ungewitter,"Brauweilerstraße 1.0, 50859 Köln",50859,50.94325,6.83321
29,JET,"Amsterdamer Straße 236, 50735 Köln",50735,50.97944,6.96898
30,Aral,"Widdersdorfer Straße 427, 50933 Köln",50933,50.94707,6.8806
31,McGas,"Neusser Landstraße 2, 50735 Köln",50735,50.99999,6.93587
32,Shell Koeln Escher Str.,"Escher Straße 170, 50739 Köln",50739,50.96559,6.93272
33,Aral,"Longericher Straße 543, 50739 Köln",50739,50.99898,6.91204
34,Tankstelle Iltisstrasse,"Iltisstraße 140, 50825 Köln",50825,50.96404,6.91365
35,Shell Koeln Venloer Str.166.,"Venloer Straße 166, 50823 Cologne",50823,50.94556,6.92732
36,Esso,"Erftstraße 38-40, 50672 Köln",50672,50.94672,6.93967
37,Shell Koeln Brauweiler Str.,"Brauweilerstraße 30-32, 50859 Cologne",50859,50.9452,6.83126
38,Westfalen Tankstelle,"Spenrather Weg 1, 50829 Köln",50829,50.9799,6.84652
39,Bft Köln,"Neusser Straße 460, 50733 Cologne",50733,50.97331,6.95119
40,JET,"Widdersdorfer Straße 165, 50825 Köln",50825,50.94532,6.90632
41,Star Niehl Sebastianstraße,"Sebastianstraße 22-24, 50735 Köln",50735,50.983,6.96099
42,Tankstelle mit Geldausgabeautomat,"Venloer Straße 771, 50827 Köln",50827,50.96048,6.89373
43,Tankstelle mit Geldausgabeautomat,"Escher Straße 170, 50739 Köln",50739,50.96564,6.93253
44,Tankstelle mit Geldausgabeautomat,"Venloer Straße 166, 50823 Köln",50823,50.94577,6.92726
45,Tankstelle mit Geldausgabeautomat,"Hugo-Eckener-Straße 27a, 50829 Köln",50829,50.9772,6.89508
46,Tankstelle mit Geldausgabeautomat,"Brauweilerstraße 30-32, 50859 Köln",50859,50.94545,6.83102
47,Tankstelle mit Geldausgabeautomat,"Neusser Straße 153, 50733 Köln",50733,50.9584,6.95439
0,Tankstelle Edmund Ter Meer Straße,"Edmund-ter-Meer-Straße 1a, 51061 Köln",51061,50.99825,6.996
1,Aral,"Olpener Straße 102, 51109 Cologne",51109,50.94688,7.08523
2,Aral,"Bergisch Gladbacher Straße 781, 51069 Cologne",51069,50.97456,7.05785
3,Tankstelle Bertoldistrasse,"Bertoldistraße 15.0, 51065 Köln",51065,50.95439,7.00386
4,Aral,"Olpener Straße 498, 51109 Cologne",51109,50.94298,7.05124
5,Esso,"Düsseldorfer Straße 200, 51063 Köln",51063,50.97889,7.00255
6,Aral,"Frankfurter Straße 390, 51103 Cologne",51103,50.9426,7.0272
8,Agri V Raiffeisen,"Bergisch Gladbacher Straße 1051- 1053, 51069 Köln",51069,50.98065,7.0751
9,JET,"Bergisch Gladbacher Straße 114, 51069 Cologne",51069,50.9815,7.0799
10,Aral,"Honschaftsstraße 417, 51067 Köln",51067,50.96779,7.03392
11,TotalEnergies Brück Olpener Straße,"Olpener Straße 690, 51109 Cologne",51109,50.945,7.06229
12,SH Tank,"Broichstraße 28-32, 51109 Köln",51109,50.94601,7.06176
13,SB-Tanktreff Dellbrück Dellbrücker Hauptstraße,"Dellbrücker Hauptstraße, 51069 Köln",51069,50.9725,7.07542
14,Tankstelle Bergisch Gladbacher Straße,"Bergisch Gladbacher Straße 244.0, 51063 Köln",51063,50.9653,7.02536
15,Aral,"Frankfurter Straße 198, 51065 Cologne",51065,50.95033,7.01704
17,Aral,"Mülheimer Zubringer 140, 51063 Köln",51063,50.97701,7.00742
19,Star,"Odenthaler Straße 1, 51069 Cologne",51069,51.0018,7.04184
20,JET,"Berliner Straße 462, 51061 Cologne",51061,50.98467,7.02826
22,JET,"Clevischer Ring 49, 51063 Cologne",51063,50.96559,7.00589
23,JET,"Bergisch Gladbacher Straße 388, 51067 Cologne",51067,50.9672,7.034
24,Esso,"Rendsburger Platz 2, 51065 Köln",51065,50.95589,7.00122
25,Aral,"Berliner Straße 111, 51063 Köln",51063,50.97392,7.01227
26,Aral,"Düsseldorfer Straße 491, 51061 Köln",51061,50.9897,6.99877
28,Shell Köln Messekreisel 1.,"Messe-Kreisel 1, 50679 Köln",50679,50.9439,6.98357
29,Jet Tankstelle,"Bergisch Gladbacher Straße, 51069 Köln",51069,50.98155,7.08005
0,TotalEnergies Koeln Rondorf Kapellenstr. 29,"Kapellenstraße 29, 50997 Cologne",50997,50.87453,6.94976
1,Star,"Brühler Straße 223, 50968 Köln",50968,50.90003,6.95398
3,Aral,"Dürener Straße 407, 50858 Cologne",50858,50.92313,6.86948
4,Shell Koeln Marktstr. 10.,"Marktstraße 10, 50968 Köln",50968,50.91203,6.95957
5,Aral,50997 Cologne,50997,50.89209,6.96633
9,Shell Koeln Bonner Str.,"Bonner Straße 98, 50677 Köln",50677,50.91578,6.96085
10,Star,"Brühler Straße 274, 50968 Köln",50968,50.8986,6.95187
11,SVG-Autohof Eifeltor,"Am Eifeltor 1, 50997 Köln",50997,50.88776,6.92492
12,Esso,"Aachener Straße 544, 50933 Köln",50933,50.93783,6.88895
13,Star,"Berrenrather Straße 138, 50937 Köln",50937,50.92186,6.92934
15,Tankstelle Holzmarkt,"Holzmarkt 75.0, 50676 Köln",50676,50.93258,6.9626
17,TotalEnergies Altstadt-Süd Holzmarkt,"Holzmarkt 49, 50676 Cologne",50676,50.93133,6.96235
18,JET,"Aachener Straße 109, 50858 Köln",50858,50.9379,6.8476
20,TotalEnergies Marienburg Bonner Straße,"Bonner Straße 417-425, 50968 Köln",50968,50.90107,6.96578
21,Globus Günstig Tanken,"Max-Planck-Straße 9.0, 50858 Köln",50858,50.92141,6.85192
22,Esso,"Dürener Straße 287, 50935 Cologne",50935,50.92726,6.90366
25,Esso,"Melatengürtel 12-16, 50933 Cologne",50933,50.93827,6.90979
26,Markant Lindenthal Dürener Straße,"Dürener Straße 388-392, 50935 Cologne",50935,50.9251,6.89525
29,Shell Köln Dürenerstr.,"Dürener Straße 415, 50858 Cologne",50858,50.91983,6.85229
30,r. h. Autohaus Amian,"Zollstockgürtel 47, 50969 Köln",50969,50.90636,6.93683
31,Markant Tankstelle,"Dürener Straße 388-392, 50935 Köln",50935,50.9251,6.89525
32,Aral,"Aachener Straße 203-209, 50931 Köln",50931,50.93637,6.92234
33,Aral,"Zollstockgürtel 39, 50969 Cologne",50969,50.90578,6.93786
34,Shell Köln-Junkersdorf Dürenerstr.,"Dürener Straße 413, 50858 Cologne",50858,50.92311,6.86944
35,Esso Braunsfeld Melatengürtel,"Melatengürtel 12-16, 50931 Cologne",50931,50.9381,6.90956
37,Mr Wash Raderthalgürtel,"Raderthalgürtel 1, 50968 Cologne",50968,50.90363,6.95233
38,Aral,"Vogelsanger Weg 46, 50858 Köln",50858,50.93519,6.85349
39,Aral,"Aachener Straße 110, 50858 Köln",50858,50.93839,6.84841
41,Esso Zollstock Höninger Weg,"Höninger Weg 12-14, 50969 Köln",50969,50.91146,6.94112
42,Esso,50969 Cologne,50969,50.92094,6.94045
43,Tankstelle,"Kyffhäuserstraße 19, 50674 Köln",50674,50.92883,6.93952
45,Tankstelle mit Geldausgabeautomat,"Bonner Straße 98, 50677 Köln",50677,50.91614,6.96057
46,Tankstelle mit Geldausgabeautomat,"Dürener Straße 413, 50858 Köln",50858,50.91942,6.8517
47,Tankstelle mit Geldausgabeautomat,"Lindenthalgürtel 100, 50931 Köln",50931,50.92718,6.90963
49,Avis Aral Tankstelle,"Zollstockgürtel 39, 50969 Köln",50969,50.90591,6.93674
0,Aral,"Bergerstraße 108, 51145 Köln",51145,50.89109,7.06777
1,Markant Poll Rolshover Straße,"Rolshover Straße 420, 51105 Köln",51105,50.92046,6.99857
2,Aral,"Rolshover Straße 183, 51105 Köln",51105,50.92727,7.00005
3,Ektra Tank,"Neuenhofstraße 2.0, 51149 Köln",51149,50.911,7.05297
4,Aral,"Kölner Straße 255, 51149 Cologne",51149,50.90364,7.02093
5,Markant Tankstelle,"Olpener Straße 27, 51103 Köln",51103,50.94046,7.019
6,Aral,"Kölnstraße 1, 50999 Köln",50999,50.86971,7.00531
7,Esso,"Deutz-Kalker Straße 103, 50679 Cologne",50679,50.9371,6.99172
8,Star,"Waldstraße 148-150, 51147 Cologne",51147,50.88135,7.09782
9,JET,"Olpener Straße 60, 51103 Cologne",51103,50.94009,7.01918
10,Esso Ostheim Rösrather Straße,"Rösrather Straße 89, 51107 Cologne",51107,50.9299,7.04983
11,Star,"Siegburger Straße 406, 51105 Cologne",51105,50.91436,6.99429
12,Shell Köln Schillingsrotterstr.28.,"Schillingsrotter Straße 28, 50996 Köln",50996,50.89048,6.99194
13,Shell Koeln Frankfurter Str.,"Frankfurter Straße 531, 51145 Cologne",51145,50.88212,7.08173
14,Aral,"Alter Deutzer Postweg 102, 51149 Köln",51149,50.91858,7.04928
15,Westfalen,"Olpener Straße 27, 51103 Cologne",51103,50.94046,7.019
16,JET,"Rudolf-Diesel-Straße 32-36, 51149 Köln",51149,50.9019,7.0754
17,Esso,"Rösrather Straße 89, 51107 Cologne",51107,50.92978,7.0495
18,JET,"Pauline-Christmann-Straße 1, 51107 Köln",51107,50.92726,7.06025
19,Shell Köln Rösrather Str,"Rösrather Straße 724, 51107 Cologne",51107,50.92038,7.0938
20,Avia,"Walther-Rathenau-Straße 1, 50996 Köln",50996,50.89162,6.99727
21,Shell Koeln Koelner Str,"Kölner Straße 108, 51149 Cologne",51149,50.89785,7.03588
22,Tankcenter Siegburger Straße Köln,"Siegburger Straße 490-492, 51105 Cologne",51105,50.91307,6.99777
23,Aral,"Siegburger Straße 116, 50679 Köln",50679,50.92332,6.97952
24,Aral,"Rösrather Straße 521B, 51107 Cologne",51107,50.92369,7.07938
25,Tankstelle Schmittgasse,"Schmittgasse 44.0, 51143 Köln",51143,50.86797,7.0473
26,Shell Schloß Röttgen Ost,51149 Cologne,51149,50.89767,7.08574
27,Dieselstation,"Wankelstraße 37.0, 50996 Köln",50996,50.86985,6.99519
28,Avia Tankstelle,"Walther-Rathenau-Straße 1, 50996 Köln",50996,50.89147,6.99727
29,Tankstelle mit Geldausgabeautomat,"Kölner Straße 108, 51149 Köln",51149,50.89781,7.03607
30,Tankstelle mit Geldausgabeautomat,"Schillingsrotter Straße 28, 50996 Köln",50996,50.89033,6.99219
31,Tankstelle mit Geldausgabeautomat,"Rösrather Straße 724, 51107 Köln",51107,50.92046,7.09329
32,Tankstelle mit Geldausgabeautomat,"Im Falkenhorst, 51145 Köln",51145,50.88642,7.0824
33,Tankstelle mit Geldausgabeautomat,"Frankfurter Straße 531, 51145 Köln",51145,50.88208,7.08213
0,Aral,"Am Industriehof 11, 60487 Frankfurt am Main",60487,50.12911,8.624
2,Autohaus Muth Co.,"Westerbachstraße 295.0, 65936 Frankfurt am Main",65936,50.12262,8.56902
5,Bft,"In der Römerstadt 74, 60439 Frankfurt am Main",60439,50.15573,8.64173
6,Aral Nordseite an der A 66,65929 Frankfurt am Main,65929,50.11973,8.54388
9,Aral,"Grüneburgweg 67, 60323 Frankfurt am Main",60323,50.12197,8.6691
10,TotalEnergies Frankfurt Kurhessenstr. 111,"Kurhessenstraße 111, 60431 Frankfurt am Main",60431,50.14807,8.65657
11,Tankstelle In Der Roemerstadt,"In der Römerstadt 74.0, 60439 Frankfurt am Main",60439,50.1557,8.64157
13,Aral,"Ludwig-Landmann-Straße 90, 60488 Frankfurt am Main",60488,50.14145,8.60989
15,Aral,"Eschersheimer Landstraße 523, 60431 Frankfurt am Main",60431,50.15165,8.66237
16,calpam Rödelheim Westerbachstraße,"Westerbachstraße 60.0, 60489 Frankfurt am Main",60489,50.12291,8.59641
17,TotalEnergies Nordend-West Eckenheimer Landstraße,"Eckenheimer Landstraße 181, 60320 Frankfurt am Main",60320,50.13228,8.6832
18,Shell Frankfurt Huegelstr,"Hügelstraße 145A, 60431 Frankfurt am Main",60431,50.14705,8.66267
19,Reifen Diehl Frankfurter Berg Homburger Landstraße,"Homburger Landstraße 448.0, 60433 Frankfurt am Main",60433,50.17108,8.67455
20,Aral,65929 Frankfurt am Main,65929,50.11808,8.54173
21,Esso Frankfurt am Main-Biegweg Nord,"Wiesbadener Straße, 60486 Frankfurt am Main",60486,50.11563,8.61234
22,Oil,"Eschersheimer Landstraße 458, 60433 Frankfurt am Main",60433,50.152,8.66255
23,Hessol Kalbach Max-Holder-Straße,"Max-Holder-Straße 2.0, 60437 Frankfurt am Main",60437,50.18915,8.65184
24,TotalEnergies Ginnheim Kurhessenstraße,"Kurhessenstraße 111, 60431 Frankfurt am Main",60431,50.14815,8.65636
25,Esso Rödelheim Ludwig-Landmann-Straße,"Ludwig-Landmann-Straße 339, 60488 Frankfurt am Main",60488,50.13148,8.62024
26,Shell Frankfurt Westerbachstr.,"Westerbachstraße 204, 65936 Frankfurt am Main",65936,50.12376,8.57916
27,Shell Frankfurt Eschersheimer Landstr,"Eschersheimer Landstraße 328, 60320 Frankfurt am Main",60320,50.14375,8.66918
29,Esso Wiesbadener Straße Süd,"Wiesbadener Straße, 60486 Frankfurt am Main",60486,50.11467,8.61634
30,Shell Erich-Ollenhauer-Ring,"Erich-Ollenhauer-Ring 8, 60439 Frankfurt am Main",60439,50.15916,8.63415
34,Gase-Soboth,"Morsestraße 28.0, 60486 Frankfurt am Main",60486,50.11951,8.6247
36,Aral,"Oberer Kalbacher Weg 35, 60437 Frankfurt am Main",60437,50.1835,8.65985
37,Metro Günstig Tanken,"Guerickestraße 8, 60488 Frankfurt am Main",60488,50.13446,8.59959
38,Tankstelle mit Geldausgabeautomat,"Hügelstraße 145, 60431 Frankfurt am Main",60431,50.14709,8.66232
40,Tankstelle mit Geldausgabeautomat,"Westerbachstraße 204, 65936 Frankfurt am Main",65936,50.12391,8.57923
41,Tankstelle mit Geldausgabeautomat,"Erich-Ollenhauer-Ring, 60439 Frankfurt am Main",60439,50.15804,8.63513
43,Tankstelle mit Geldausgabeautomat,"Eschersheimer Landstraße 328, 60320 Frankfurt am Main",60320,50.13547,8.6719
0,Aral,"Friedberger Landstraße 300, 60389 Frankfurt am Main",60389,50.13362,8.69638
1,Shell,"Hanauer Landstraße 370, 60314 Frankfurt am Main",60314,50.12738,8.75346
4,Hem Tankstelle,"Vilbeler Landstraße 237-239, 60388 Frankfurt am Main",60388,50.15611,8.74608
6,Aral,"Carl-Benz-Straße 10, 60386 Frankfurt am Main",60386,50.12176,8.74912
7,Roth Tank Borsigallee Frankfurt am Main,"Borsigallee 31, 60388 Frankfurt am Main",60388,50.13901,8.74531
8,Esso,"Spessartstraße 22-24, 60385 Frankfurt am Main",60385,50.12521,8.70973
10,TC Frankfurt,"Vilbeler Landstraße 96.0, 60388 Frankfurt am Main",60388,50.14439,8.75291
11,Aral,"Homburger Landstraße 42, 60435 Frankfurt am Main",60435,50.14298,8.6965
13,Roth Tank Dieselstraße Frankfurt,"Dieselstraße 25-27, 60314 Frankfurt am Main",60314,50.12058,8.74454
14,Mr Wash Hanauer Landstraße,"Hanauer Landstraße 419.0, 60314 Frankfurt am Main",60314,50.12063,8.73481
15,Agip,"Dortelweiler Straße 49, 60389 Frankfurt am Main",60389,50.13385,8.70579
16,Shell Frankfurt/m. Hanauer Landst.,"Hanauer Landstraße 334, 60314 Frankfurt am Main",60314,50.12286,8.74201
18,Shell Frankfurt Friedberger Lan D.,"Friedberger Landstraße 152, 60389 Frankfurt am Main",60389,50.12988,8.69434
19,Aral,"Ratsweg 12, 60386 Frankfurt am Main",60386,50.12354,8.72351
20,Esso Bornheim Spessartstraße,"Spessartstraße 22-24, 60385 Frankfurt am Main",60385,50.12528,8.70945
21,Aral,"Friedberger Landstraße 325, 60389 Frankfurt am Main",60389,50.14041,8.69814
22,Agip,"Vilbeler Landstraße 248, 60388 Frankfurt am Main",60388,50.15752,8.74459
23,JET,"Borsigallee 29, 60388 Frankfurt am Main",60388,50.13847,8.74433
24,Tankstelle mit Geldausgabeautomat,"Hanauer Landstraße 334, 60314 Frankfurt am Main",60314,50.12265,8.74169
26,Tankstelle mit Geldausgabeautomat,"Friedberger Landstraße 152, 60389 Frankfurt am Main",60389,50.12988,8.69435
0,Ringeltaube Tankstelle,"Hugo-Eckener-Ring 1, 60549 Frankfurt am Main",60549,50.05,8.56247
1,Shell Mörfelder Landstraße,"Mörfelder Landstraße 230, 60598 Frankfurt am Main",60598,50.08821,8.66834
2,Esso Unterliederbach Königsteiner Straße,"Königsteiner Straße 144, 65929 Frankfurt am Main",65929,50.11233,8.53695
4,Esso,"Unterschweinstiege, 60549 Frankfurt am Main",60549,50.05778,8.58692
5,Aral,"Lyoner Straße 70, 60528 Frankfurt am Main",60528,50.07802,8.63412
6,Agip,"Industriepark Höchst-Tor-Süd, 65929 Frankfurt am Main",65929,50.082,8.544
7,Aral,60528 Frankfurt am Main,60528,50.08002,8.65526
8,Bft Sossenheim,"Kurmainzer Straße 65, 65936 Frankfurt am Main",65936,50.1109,8.55195
9,Shell Frankfurt Beim Tor 21,60549 Frankfurt am Main,60549,50.049,8.56138
10,Shell Frankfurt Kennedyallee.,"Kennedyallee 120, 60596 Frankfurt am Main",60596,50.09097,8.66222
11,T Tankstelle Goldsteinstrasse Frankfurt,"Goldsteinstraße 221, 60528 Frankfurt am Main",60528,50.08418,8.62457
12,Tankstelle Rheinlandstrasse,"Rheinlandstraße 3.0, 60529 Frankfurt am Main",60529,50.08649,8.59245
13,Esso,"Mainzer Landstraße 378, 60326 Frankfurt am Main",60326,50.10174,8.62655
14,Shell Frankfurt Moerfelder Landst.,"Mörfelder Landstraße 230, 60598 Frankfurt am Main",60598,50.08889,8.66923
15,Shell Frankfurt Bolongarostr.,"Bolongarostraße 63, 65934 Frankfurt am Main",65934,50.10235,8.55773
16,Esso,"Stresemannallee 10, 60596 Frankfurt am Main",60596,50.09846,8.66914
18,Tankstelle Diehl,"Mainzer Landstraße 529.0, 65933 Frankfurt am Main",65933,50.09992,8.60745
19,Esso Schwanheim Rheinlandstraße,"Rheinlandstraße 45, 60529 Frankfurt am Main",60529,50.08346,8.58854
20,Agip,65929 Frankfurt am Main,65929,50.08023,8.54512
21,Shell Frankfurt Niederraederufer.,"Niederräder Ufer 51, 60528 Frankfurt am Main",60528,50.08843,8.63581
22,Shell Frankfurt Moerfelder Land 3.,60528 Frankfurt am Main,60528,50.07531,8.65393
23,Shell Frankfurt Beim Tor 23.,"Flughafen Frankfurt Tor 23 23, 60549 Frankfurt am Main",60549,50.04639,8.55194
24,Tankstelle Königsteinstrasse,"Königsteiner Straße, 65929 Frankfurt am Main",65929,50.11097,8.53757
25,Aral,"Mainzer Landstraße 545, 65933 Frankfurt am Main",65933,50.09999,8.60467
26,Esso,"Rheinlandstraße 45, 60529 Frankfurt am Main",60529,50.08354,8.58836
27,Reifen Diehl Schwanheim Am Kirchholz,"Am Kirchholz 28.0, 60529 Frankfurt am Main",60529,50.08447,8.5823
28,Tankstelle mit Geldausgabeautomat,"Mörfelder Landstraße 230, 60598 Frankfurt am Main",60598,50.08889,8.66924
29,Tankstelle mit Geldausgabeautomat,"Niederräder Ufer 51, 60528 Frankfurt am Main",60528,50.08844,8.63596
30,Tankstelle mit Geldausgabeautomat,"Kennedyallee 120, 60596 Frankfurt am Main",60596,50.09097,8.66223
31,Tankstelle mit Geldausgabeautomat,"Mörfelder Landstraße 377, 60528 Frankfurt am Main",60528,50.07552,8.65417
32,Tankstelle mit Geldausgabeautomat,"Bolongarostraße 63, 65934 Frankfurt am Main",65934,50.10175,8.55737
1,Aral,"Siemensstraße 37, 60594 Frankfurt am Main",60594,50.10239,8.69589
22,Esso,"Hanauer Landstraße 178, 60314 Frankfurt am Main",60314,50.11399,8.72101
26,Aral,"Hanauer Landstraße 34-40, 60314 Frankfurt am Main",60314,50.11292,8.69973
28,Aral,"Darmstädter Landstraße 304, 60598 Frankfurt am Main",60598,50.0897,8.69075
31,Shell Frankfurt / Main Moerfelder.,"Mörfelder Landstraße 16, 60598 Frankfurt am Main",60598,50.1003,8.69015
36,Tankstelle mit Geldausgabeautomat,"Mörfelder Landstraße 16, 60598 Frankfurt am Main",60598,50.10031,8.69016
0,H&H Autogas,"Dachauer Straße 558, 80995 München",80995,48.21554,11.4821
1,BAVARIA petrol Aubing-Lochhausen-Langwied Bodenseestraße,"Bodenseestraße 317, 81249 München",81249,48.14111,11.41359
2,Esso,"Arnulfstraße 279, 80639 München",80639,48.15233,11.51426
3,Omv,"Verdistraße 68, 81247 München",81247,48.16499,11.47186
4,TotalEnergies Muenchen Moosacher Str. 36,"Moosacher Straße 36, 80809 München",80809,48.18693,11.55617
6,Shell Muenchen Moosacher Str.,"Moosacher Straße 25, 80809 München",80809,48.18647,11.56121
8,Agip,"Dachauer Straße 469, 80993 München",80993,48.18443,11.50527
9,Star,"Landsberger Straße 447, 81241 München",81241,48.14503,11.47217
10,JET,"Richildenstraße 85, 80639 München",80639,48.1526,11.5069
11,Omv,"Triebstraße 35A, 80993 München",80993,48.18726,11.53531
12,Aral,"Schwere-Reiter-Straße 26, 80797 München",80797,48.16114,11.5566
13,Agip,"Landsberger Straße 447, 81241 München",81241,48.14523,11.47248
14,Agip,"Verdistraße 141, 81247 München",81247,48.16438,11.45932
15,Oil,"Eversbuschstraße 33, 80999 München",80999,48.18073,11.46077
16,JET,"Limesstraße 72, 81243 München",81243,48.146,11.4218
17,Shell Muenchen Verdistr.,"Verdistraße 96, 81247 München",81247,48.16513,11.46725
18,Shell Muenchen BODENSEESTRAßE 40.,"Bodenseestraße 40, 81243 München",81243,48.14701,11.45139
19,Esso,"Lortzingstraße 20, 81241 Munich",81241,48.14887,11.45509
20,Agip,"Von-Kahr-Straße 62, 80999 München",80999,48.17783,11.46752
21,ALLGUTH Triebstraße München,"Triebstraße 35.0, 80993 München",80993,48.18724,11.5344
22,Aral,"Triebstraße 11e, 80993 München",80993,48.18763,11.53085
24,Aral,"Schleißheimer Straße 257, 80809 München",80809,48.17875,11.56679
25,TotalEnergies Muenchen Detmoldstr. 1,"Detmoldstraße 1, 80935 München",80935,48.19221,11.56469
26,JET,"Verdistraße 142, 81247 München",81247,48.1648,11.4597
27,SB Tankstelle,"Baubergerstraße 16d, 80992 München",80992,48.17922,11.50865
28,BAVARIA petrol Schwabing-Freimann Ingolstädter Straße,"Ingolstädter Straße 59.0, 80939 München",80939,48.1927,11.58354
29,Süd Treibstoff Dülfer Straße,"Dülferstraße 52.0, 80995 München",80995,48.21484,11.54642
30,Aral,"Lochhausener Straße 229, 81249 München",81249,48.1787,11.4047
31,Tankstelle Allacher Straße,"Allacher Straße 78.0, 80997 München",80997,48.17712,11.49722
32,ALLGUTH Am Neubruch München,"Am Neubruch 7.0, 80997 München",80997,48.1923,11.50002
33,TotalEnergies Muenchen Petuelring 92,"Petuelring 92, 80807 München",80807,48.17823,11.57205
34,Shell Muenchen Schwere-Reiter- St.,"Schwere-Reiter-Straße 26, 80797 München",80797,48.16114,11.5566
35,ALLGUTH Von Kahr Straße München,"Von-Kahr-Straße 1.0, 80997 München",80997,48.17888,11.48668
36,Aral,"Georg-Brauchle-Ring 27, 80992 München",80992,48.17603,11.53601
37,Shell Muenchen Frankfurter Ring.,"Frankfurter Ring 87, 80807 München",80807,48.18807,11.5807
38,Shell Muenchen Menziger Str.,"Menzinger Straße 10, 80638 München",80638,48.16016,11.51192
39,Aral,"Landsberger Straße 423-425, 81241 München",81241,48.14511,11.47862
40,Agip,"Josephspitalstraße 12, 80331 München",80331,48.13674,11.56637
41,Tankstelle Allacher Straße,"Allacher Straße 126.0, 80997 München",80997,48.17975,11.48723
42,JET,"Landsberger Straße 184, 80687 München",80687,48.1412,11.52216
43,Esso,"Allacher Straße 20, 80992 München",80992,48.17182,11.50714
44,ALLGUTH Bodenseestrasse München,"Bodenseestraße 231.0, 81243 München",81243,48.14275,11.42487
46,Mr Wash Bahnhof,"Landsberger Straße 420-426, 81241 München",81241,48.14561,11.47676
47,ALLGUTH Georg Brauchle Ring München,"Georg-Brauchle-Ring 30.0, 80992 München",80992,48.17656,11.53553
48,Aral,"Nymphenburger Straße 205, 80639 München",80639,48.15747,11.52817
49,Aral,"Dülferstraße 3, 80933 München",80933,48.21246,11.56037
50,Shell Muenchen Nymphenburger Str.,"Nymphenburger Straße 57-59, 80335 München",80335,48.14944,11.54801
51,Shell Muenchen Gundermannstr.6.,"Gundermannstraße 6, 80935 München",80935,48.20463,11.55892
52,Shell Muenchen W.-Hale-Str.,"Wilhelm-Hale-Straße 55, 80639 München",80639,48.14899,11.51999
53,JET,"Dachauer Straße 240, 80992 München",80992,48.17855,11.51723
54,Tankstelle Baubergerstrasse,"Baubergerstraße 16D, 80992 München",80992,48.17926,11.50857
55,Shell Muenchen Schleissheimer Str.,"Schleißheimer Straße 272, 80809 München",80809,48.17446,11.56637
56,TotalEnergies Detmoldstraße München,"Detmoldstraße 1, 80935 München",80935,48.19237,11.56463
57,Aral,"Landshuter Allee 163, 80637 München",80637,48.16362,11.53719
58,TotalEnergies Muenchen Lerchenauerstr. 75,"Lerchenauer Straße 75, 80809 München",80809,48.18216,11.55399
59,BAVARIA petrol Pasing-Obermenzing Amalienburgstraße,"Amalienburgstraße 20.0, 81247 München",81247,48.16435,11.48852
60,Alte Tankstelle,"Belgradstraße 132, 80804 München",80804,48.17364,11.57317
61,Tankstelle mit Geldausgabeautomat,"Moosacher Straße 25, 80809 München",80809,48.18646,11.5612
62,Tankstelle mit Geldausgabeautomat,"Gundermannstraße 6, 80935 München",80935,48.20462,11.55891
63,Tankstelle mit Geldausgabeautomat,"Schleißheimer Straße 272, 80809 München",80809,48.17445,11.56636
64,Tankstelle mit Geldausgabeautomat,"Wilhelm-Hale-Straße 55, 80639 München",80639,48.14958,11.51997
66,Tankstelle mit Geldausgabeautomat,"Nymphenburger Straße 57-59, 80335 München",80335,48.14892,11.54789
67,Tankstelle mit Geldausgabeautomat,"Bodenseestraße 40, 81243 München",81243,48.14701,11.45138
68,Tankstelle mit Geldausgabeautomat,"Frankfurter Ring 87, 80807 München",80807,48.18807,11.58069
70,Tankstelle mit Geldausgabeautomat,"Menzinger Straße 10, 80638 München",80638,48.16014,11.51191
71,Tankstelle mit Geldausgabeautomat,"Verdistraße 96, 81247 München",81247,48.16513,11.46724
0,Omv,"Freisinger Landstraße 9, 80939 München",80939,48.19118,11.61786
1,Agip,"Oberföhringer Straße 178, 81925 München",81925,48.16809,11.6248
2,Aral,"Otto-Perutz-Straße 1-3, 81829 München",81829,48.13795,11.71275
3,Shell Muenchen Grillparzerstr.,"Grillparzerstraße 15, 81675 München",81675,48.13471,11.60972
4,JET,"Paracelsusstraße 40, 80939 München",80939,48.2011,11.5898
5,Suma-center,"Helene-Wessel-Bogen 26.0, 80939 München",80939,48.19546,11.59659
7,Agip,"Cosimastraße 234, 81927 München",81927,48.17283,11.63716
8,Aral,"Richard-Strauss-Straße 70, 81679 München",81679,48.14576,11.61647
10,Esso,"Ungererstraße 54, 80802 München",80802,48.16611,11.59081
11,Omv,"Friedrich-Eckart-Straße 39, 81929 München",81929,48.14488,11.63924
12,Aral,"Schenkendorfstraße 15, 80807 München",80807,48.17759,11.5895
17,Esso,"Effnerstraße 130, 81925 München",81925,48.16302,11.62457
18,Sprint Schwabing-Freimann Situlistraße,"Situlistraße 36.0, 80939 München",80939,48.19059,11.61664
19,Shell Muenchen Leopoldstr.,"Leopoldstraße 140, 80804 München",80804,48.16851,11.58673
20,Aral,"Riemer Straße 360, 81829 München",81829,48.14045,11.68393
21,Esso,"Effnerstraße 101, 81925 München",81925,48.16032,11.62083
22,Esso Schwabing-Freimann Ungererstraße,"Ungererstraße 54, 80802 München",80802,48.16633,11.59043
23,Shell Muenchen Ungererstr.,"Ungererstraße 65, 80805 München",80805,48.1714,11.59449
25,Raiffeisen BayWa München,"Arabellastraße 4, 81925 München",81925,48.15322,11.6169
26,JET,"Frankfurter Ring 241, 80807 München",80807,48.18702,11.60638
27,Tank Point,"Ostpreußenstraße 46A, 81927 München",81927,48.15099,11.64111
28,Omv,"Ungererstraße 46-50, 80802 München",80802,48.16605,11.59002
30,Omv,"Freisinger Landstraße 26, 80939 München",80939,48.19101,11.62043
31,Sprint München Riem,"Riemer Straße 339, 81829 München",81829,48.14047,11.67979
32,Aral,"Freischützstraße 4, 81927 München",81927,48.15749,11.6423
33,Esso,"Einsteinstraße 168, 81677 München",81677,48.13716,11.62148
36,Omv,"Cosimastraße 10, 81927 München",81927,48.15572,11.63022
37,Tankstelle mit Geldausgabeautomat,"Ungererstraße 65, 80805 München",80805,48.17139,11.59448
39,Tankstelle mit Geldausgabeautomat,"Leopoldstraße 140, 80804 München",80804,48.16851,11.58672
41,Tankstelle mit Geldausgabeautomat,"Grillparzerstraße 15, 81675 München",81675,48.1347,11.60971
0,Esso Sendling-Westpark Passauerstraße,"Passauerstraße 20, 81369 München",81369,48.1148,11.5334
1,Swm Station,"Schäftlarnstraße 1, 81371 München",81371,48.11831,11.55854
4,ALLGUTH Fuerstenrieder Straße München,"Fürstenrieder Straße 175.0, 81377 München",81377,48.11963,11.50308
5,Agip,"Neurieder Straße 18, 81475 München",81475,48.08753,11.48429
8,Agip,"Wolfratshauser Straße 232, 81479 München",81479,48.07573,11.5231
9,Shell,"Joergstraße, 80689 München",80689,48.13186,11.50053
10,HEM Untergiesing-Harlaching Grünwalder Straße,"Grünwalder Straße 112, 81547 München",81547,48.10177,11.56714
11,Aral,"Plinganserstraße 70, 81369 München",81369,48.11226,11.53909
12,Tankstelle Kistlerhofstrasse,"Kistlerhofstraße 259, 81379 München",81379,48.09419,11.5057
13,Agip/eni Station,"Boschetsrieder Straße 162, 81379 München",81379,48.099,11.50716
14,Aral,"Tegernseer Landstraße 174, 81539 München",81539,48.10778,11.57927
15,BAVARIA petrol Sendling-Westpark Zielstattstraße,"Zielstattstraße 10.0, 81379 München",81379,48.10317,11.53374
16,Agip,"Herterichstraße 111, 81477 München",81477,48.07871,11.50452
17,ALLGUTH Boschetsrieder Straße München,"Boschetsrieder Straße 139.0, 81379 München",81379,48.09803,11.51325
18,BAVARIA petrol Obergiesing Zehentbauernstraße,"Zehentbauernstraße 7.0, 81539 München",81539,48.11421,11.57642
19,Aral,"Wolfratshauser Straße 92, 81379 München",81379,48.09222,11.53905
20,JET,"Fürstenrieder Straße 207, 81377 München",81377,48.11748,11.50293
21,JET,"Fürstenrieder Straße 98, 80686 München",80686,48.13156,11.5024
22,ALLGUTH Fürstenrieder Straße München,"Fürstenrieder Straße 210.0, 81377 München",81377,48.12087,11.50219
24,Aral,"Garmischer Straße 197, 81377 München",81377,48.1212,11.51927
26,Aral,"Grünwalder Straße 175C, 81545 München",81545,48.09667,11.56434
28,Süd Treibstoff Schönstraße,"Schönstraße 15.0, 81543 München",81543,48.11037,11.56784
29,Shell Muenchen Tegernseer Landstr.,"Tegernseer Landstraße 181, 81539 München",81539,48.10796,11.5803
30,Aral,"Boschetsrieder Straße 127, 81379 München",81379,48.09852,11.51879
33,Aral,"Kapuzinerstraße 46, 80469 München",80469,48.12389,11.56483
34,Süd Treibstoff Kempetener Straße,"Kemptener Straße 5.0, 81475 München",81475,48.08226,11.48542
35,Agip,"Implerstraße 21, 81371 München",81371,48.12194,11.549
36,Esso,"Waldwiesenstraße 39, 81375 München",81375,48.11746,11.47831
37,Esso,"Würmtalstraße 97, 81375 München",81375,48.11483,11.48084
39,Aral,"Waldwiesenstraße 31, 81375 München",81375,48.11879,11.47851
40,Shell Muenchen Liesl-Karlstadts.2.,"Liesl-Karlstadt-Straße 25, 81476 München",81476,48.08456,11.49061
41,Aral,"Garmischer Straße 138, 81373 München",81373,48.12689,11.52189
42,Esso Hadern Waldwiesenstraße,"Waldwiesenstraße 39, 81375 München",81375,48.11731,11.47808
44,Hem Tankstelle,"Grünwalder Straße 112, 81547 München",81547,48.10162,11.56709
45,Avia Tankstelle,"Schäftlarnstraße 10, 81371 München",81371,48.11614,11.55657
46,Tankstelle mit Geldausgabeautomat,"Liesl-Karlstadt-Straße 25, 81476 München",81476,48.08451,11.49061
47,Tankstelle mit Geldausgabeautomat,"Tegernseer Landstraße 181, 81539 München",81539,48.10795,11.58029
0,Esso,"Hochstraße 5, 81669 München",81669,48.13004,11.58917
1,JET,"Karl-Marx-Ring 48, 81735 München",81735,48.10743,11.65781
2,Esso Berg am Laim Innsbrucker Ring,"Innsbrucker Ring 52, 81671 München",81671,48.12346,11.62027
4,Aral,"Heinrich-Wieland-Straße 2, 81735 München",81735,48.11831,11.63082
5,Aral,"Wasserburger Landstraße 51, 81825 München",81825,48.11971,11.67739
6,Omv,"Heinrich-Wieland-Straße 97, 81735 München",81735,48.11292,11.64794
8,Hem Tankstelle,"Wasserburger Landstraße 285, 81827 München",81827,48.11135,11.71298
9,Shell,"Wasserburger Landstraße 285, 81827 München",81827,48.11114,11.71313
11,Shell,"Kreillerstraße 194, 81825 München",81825,48.12256,11.661
13,Süd Treibstoff Kreiller Straße,"Kreillerstraße 128.0, 81825 München",81825,48.12543,11.64829
15,Tankstelle Zehntfeldstrasse,"Zehntfeldstraße 219.0, 81825 München",81825,48.10877,11.66344
16,OMV Ramersdorf,"Innsbrucker Ring 156, 81669 München",81669,48.11294,11.61629
18,Shell München Innsbrucker Ring 142,"Innsbrucker Ring 142, 81669 München",81669,48.11491,11.6169
19,ALLGUTH Chiemgaustrasse München,"Chiemgaustraße 185.0, 81549 München",81549,48.10942,11.60867
20,Shell Muenchen Rosenheimer Str.,"Rosenheimer Straße 124, 81669 München",81669,48.12227,11.60331
21,Aral,"Rosenheimer Straße 138, 81669 München",81669,48.11923,11.60768
23,Agip Tankstelle,"Quiddestraße 31, 81735 München",81735,48.10889,11.63993
25,Esso,"Innsbrucker Ring 52, 81671 München",81671,48.12328,11.62036
26,ALLGUTH Kreillerstraße München,"Kreillerstraße 220, 81825 München",81825,48.12144,11.6636
28,Omv,"Ottobrunner Straße 116, 81737 München",81737,48.10262,11.62512
29,Agip,"Innsbrucker Ring 149, 81669 München",81669,48.11446,11.61775
30,Tankstelle Friedenstrasse,"FriedenStraße 16.0, 81671 München",81671,48.12648,11.60668
31,Omv,"Auerfeldstraße 21, 81541 München",81541,48.12372,11.59537
32,Agip,"Quiddestraße 31, 81735 München",81735,48.109,11.643
34,Esso Au-Haidhausen Hochstraße,"Hochstraße 5, 81669 München",81669,48.13014,11.58907
37,JET,"Truderinger Straße 186, 81825 München",81825,48.12809,11.65363
41,Esso,"Wasserburger Landstraße 292, 81827 München",81827,48.11056,11.71407
42,ALLGUTH Kreillerstraße München,"Kreillerstraße 219, 81825 München",81825,48.12197,11.66404
43,Aral,"Berg-am-Laim-Straße 60, 81673 München",81673,48.13042,11.61774
45,V-Markt Ramersdorf-Perlach Balanstraße,"Balanstraße 50.0, 81541 München",81541,48.12203,11.5981
46,Omv,"Innsbrucker Ring 153, 81669 München",81669,48.11374,11.61736
49,Tankstelle mit Geldausgabeautomat,"Rosenheimer Straße 124, 81669 München",81669,48.1223,11.60335
51,Tankstelle mit Geldausgabeautomat,"Innsbrucker Ring 142, 81669 München",81669,48.1149,11.6169
52,Tankstelle mit Geldausgabeautomat,"Kreillerstraße 194, 81825 München",81825,48.1224,11.66052
53,Tankstelle mit Geldausgabeautomat,"Wasserburger Landstraße 285, 81827 München",81827,48.11135,11.71297
